,id,country_id,city_id,name,address,zipcode,latitude,longitude,capacity,image_path,city_name,surface,national_team,season_id
0,5,462.0,9576.0,Villa Park,"Trinity Road, Birmingham B6 6HE",,52.509167,-1.884722,42640.0,https://cdn.sportmonks.com/images/core/venues/5/5.png,Birmingham,grass,False,19734
1,12,462.0,51090.0,Goodison Park,Goodison Road,L4 4EL,53.43881,-2.96625,39571.0,https://cdn.sportmonks.com/images/core/venues/12/12.png,Liverpool,grass,False,19734
2,117,462.0,49478.0,King Power Stadium,Filbert Way,,52.748842,-1.180278,32312.0,https://cdn.sportmonks.com/images/soccer/venues/21/117.png,Leicester,grass,False,19734
3,146,462.0,11311.0,Vitality Stadium,"Dean Court, Kings Park",,50.7352,-1.83833,11700.0,https://cdn.sportmonks.com/images/soccer/venues/18/146.png,Bournemouth,grass,False,19734
4,151,462.0,53964.0,Etihad Stadium,Etihad Campus Manchester M11 3FF,,53.483056,-2.200278,53400.0,https://cdn.sportmonks.com/images/soccer/venues/23/151.png,Manchester,grass,False,19734
5,167,462.0,85225.0,St. Mary's Stadium,Britannia Road,,50.903496386,-1.387998448,32384.0,https://cdn.sportmonks.com/images/soccer/venues/7/167.png,Southampton,grass,False,19734
6,201,462.0,51663.0,Selhurst Park,Holmesdale Road,,51.419728,-0.502059,25073.0,https://cdn.sportmonks.com/images/soccer/venues/9/201.png,London,grass,False,19734
7,204,462.0,51663.0,Emirates Stadium,"Arsenal Football Club Highbury House 75 Drayton Park London, N5 1BU",,51.556667,-0.106111,60260.0,https://cdn.sportmonks.com/images/soccer/venues/12/204.png,London,grass,False,19734
8,206,462.0,53964.0,Old Trafford,Sir Matt Busby Way,,53.463056,-2.291389,74879.0,https://cdn.sportmonks.com/images/soccer/venues/14/206.png,Manchester,grass,False,19734
9,214,462.0,51663.0,London Stadium,"Marshgate Lane, Stratford",,51.538611,-0.016389,60000.0,https://cdn.sportmonks.com/images/soccer/venues/22/214.png,London,grass,False,19734
10,230,462.0,51090.0,Anfield,Anfield Road,,53.430833,-2.960833,60000.0,https://cdn.sportmonks.com/images/soccer/venues/6/230.png,Liverpool,grass,False,19734
11,449,462.0,62163.0,St. James' Park,St. James' Street,,55.009300,-1.564070,3500.0,https://cdn.sportmonks.com/images/soccer/venues/1/449.png,Newcastle upon Tyne,grass,False,19734
12,480,462.0,28137.0,The American Express Community Stadium,Village Way,,50.861822,-0.083278,30750.0,https://cdn.sportmonks.com/images/soccer/venues/0/480.png,Falmer,grass,False,19734
13,485,462.0,51663.0,Craven Cottage,Stevenage Road,,51.475,-0.221667,24500.0,https://cdn.sportmonks.com/images/soccer/venues/5/485.png,London,grass,False,19734
14,488,462.0,49373.0,Elland Road,Elland Road,,53.777778,-1.572222,40242.0,https://cdn.sportmonks.com/images/soccer/venues/8/488.png,Leeds,grass,False,19734
15,492,462.0,99578.0,Molineux Stadium,Waterloo Road,,52.590195,-2.131226,30852.0,https://cdn.sportmonks.com/images/soccer/venues/12/492.png,Wolverhampton,grass,False,19734
16,542,462.0,63537.0,The City Ground,Pavilion Road,,52.940000,-1.132778,30445.0,https://cdn.sportmonks.com/images/soccer/venues/30/542.png,Nottingham,grass,False,19734
17,4977,224.0,87825.0,Stadion Chavdar Tsvetkov,,,42.9605002,23.3456154,3500.0,,Svoge,grass,False,19734
18,281313,462.0,51663.0,Tottenham Hotspur Stadium,"Bill Nicholson Way, 748 High Road",,51.604444,-0.066389,62850.0,https://cdn.sportmonks.com/images/core/venues/1/281313.png,London,grass,False,19734
19,321614,462.0,51663.0,Stamford Bridge,Fulham Road,,51.481667,-0.191111,40341.0,https://cdn.sportmonks.com/images/soccer/venues/14/321614.png,London,grass,False,19734
20,338817,462.0,11961.0,Brentford Community Stadium,166 Lionel Rd N,TW8 9QT,51.488183,-0.302639,17250.0,https://cdn.sportmonks.com/images/core/venues/1/338817.png,Brentford,grass,False,19734
21,339710,1004.0,51662.0,Tottenham Hotspur Stadium (London),,,42.9832406,-81.243372,,,London,,False,19734
22,53,11.0,60083.0,Allianz Arena,Werner-Heisenberg-Allee 25,80939,48.218819,11.624722,75000.0,https://cdn.sportmonks.com/images/soccer/venues/21/53.png,Munich,grass,False,19744
23,80,11.0,99532.0,Volkswagen Arena,In den Allerwiesen 1,,52.431561,10.803541,30000.0,https://cdn.sportmonks.com/images/soccer/venues/16/80.png,Wolfsburg,grass,False,19744
24,180,11.0,58189.0,Stadion im Borussia-Park,Hennes-Weisweiler-Allee 1,,51.174722,6.385556,54057.0,https://cdn.sportmonks.com/images/soccer/venues/20/180.png,Mönchengladbach,grass,False,19744
25,378,11.0,10292.0,Vonovia Ruhrstadion,Castropher Straße 145,,51.49,7.236667,27559.0,https://cdn.sportmonks.com/images/soccer/venues/26/378.png,Bochum,grass,False,19744
26,420,11.0,8622.0,Stadion An der Alten Försterei,"Hämmerlingstraße 80-88, Köpenick",,52.457222,13.568056,22012.0,https://cdn.sportmonks.com/images/soccer/venues/4/420.png,Berlin,grass,False,19744
27,1618,11.0,83747.0,PreZero Arena,Dietmar-Hopp-Straße 1,,58.584300,16.173000,17234.0,https://cdn.sportmonks.com/images/soccer/venues/18/1618.png,Sinsheim,grass,False,19744
28,1944,11.0,8622.0,Olympiastadion Berlin,"Westend, Charlottenburg-Wilmersdorf, Berlin",,52.514722,13.239444,74649.0,https://cdn.sportmonks.com/images/soccer/venues/24/1944.png,Berlin,grass,False,19744
29,1945,11.0,87094.0,MHPArena,Mercedesstraße 87,70372,48.792222,9.231944,60449.0,https://cdn.sportmonks.com/images/core/venues/25/1945.png,Stuttgart,grass,False,19744
30,1946,11.0,19547.0,RheinEnergieStadion,Aachener Straße 999 50933 Cologne,,50.933611,6.875,50000.0,https://cdn.sportmonks.com/images/soccer/venues/26/1946.png,Cologne,grass,False,19744
31,1947,11.0,50042.0,BayArena,"Leverkusen, North Rhine-Westphalia",,51.038333,7.002222,30210.0,https://cdn.sportmonks.com/images/soccer/venues/27/1947.png,Leverkusen,grass,False,19744
32,2063,11.0,30088.0,Europa-Park Stadion,Schwarzwaldstraße 193,,47.988949,7.892944,34700.0,https://cdn.sportmonks.com/images/soccer/venues/15/2063.png,Freiburg im Breisgau,grass,False,19744
33,2103,11.0,53515.0,Mewa Arena,Eugen-Salomon-Straße 1,55128 Mainz,45.566547,18.657762,13005.0,https://cdn.sportmonks.com/images/core/venues/23/2103.png,Mainz,grass,False,19744
34,2138,11.0,31497.0,Veltins-Arena,"Gelsenkirchen, North Rhine-Westphalia",,51.554444,7.0675,62271.0,https://cdn.sportmonks.com/images/soccer/venues/26/2138.png,Gelsenkirchen,grass,False,19744
35,2140,11.0,54823.0,Stadion am Bad Großfeld,Am Stadtbad,,51.345833,12.348056,42558.0,https://cdn.sportmonks.com/images/soccer/venues/28/2140.png,Markranstädt,grass,False,19744
36,2165,11.0,4733.0,WWK Arena,Bürgermeister Ulrich-Straße 90,,48.323056,10.886111,30660.0,https://cdn.sportmonks.com/images/soccer/venues/21/2165.png,Augsburg,grass,False,19744
37,2166,11.0,24229.0,Signal Iduna Park,"Strobelallee 50 44139 Dortmund, North Rhine-Westphalia",,51.4925,7.451667,81365.0,https://cdn.sportmonks.com/images/soccer/venues/22/2166.png,Dortmund,grass,False,19744
38,2169,11.0,29901.0,Commerzbank-Arena,Mörfelder Landstr. 362,,50.0686082253967,8.645482727139177,48000.0,https://cdn.sportmonks.com/images/soccer/venues/25/2169.png,Frankfurt am Main,grass,False,19744
39,2171,11.0,49522.0,Leipzig Arena,"Am Sportforum 3 Leipzig, Saxony",,51.34575,12.348278,30188.0,https://cdn.sportmonks.com/images/soccer/venues/27/2171.png,Leipzig,grass,False,19744
40,2172,11.0,11918.0,Weserstadion,Franz-Böhmert-Straße 1c,,53.063611,8.842861,5500.0,https://cdn.sportmonks.com/images/soccer/venues/28/2172.png,Bremen,grass,False,19744
41,232157,32.0,54441.0,Campo La Quinta,,,49.238312,8.887622,30150.0,,Marbella,,False,19744
42,339831,11.0,11918.0,Wohninvest Weserstadion,,,53.066389,8.8375,42100.0,https://cdn.sportmonks.com/images/core/venues/23/339831.png,Bremen,grass,False,19744
43,339832,11.0,29901.0,Deutsche Bank Park,Mörfelder Landstraße 362,,50.068056,8.645806,48000.0,https://cdn.sportmonks.com/images/core/venues/24/339832.png,Frankfurt am Main,grass,False,19744
44,56,32.0,66890.0,Estadio El Sadar,Carretera El Sadar,,42.796667,-1.636944,23576.0,https://cdn.sportmonks.com/images/soccer/venues/24/56.png,Pamplona,grass,False,19799
45,68,32.0,82287.0,Estadio Benito Villamarín,Avenida de Heliópolis,,37.356403,-5.981611,60721.0,https://cdn.sportmonks.com/images/soccer/venues/4/68.png,Sevilla,grass,False,19799
46,89,32.0,20272.0,RCDE Stadium,Avenida Baix Llobregat 100,,41.347861,2.075667,40500.0,https://cdn.sportmonks.com/images/soccer/venues/25/89.png,Cornella de Llobregat,grass,False,19799
47,133,32.0,79248.0,Anoeta Stadium,Paseo de Anoeta 1,,43.301389,-1.973611,39500.0,https://cdn.sportmonks.com/images/soccer/venues/5/133.png,San Sebastián,grass,False,19799
48,162,,,Iberostar Estadi,Camí dels Reis,,-27.609940,152.763321,1000.0,https://cdn.sportmonks.com/images/soccer/venues/2/162.png,Palma de Mallorca,grass,False,19799
49,177,32.0,82287.0,Estadio Ramón Sánchez Pizjuán,Avenida de Eduardo Dato,,37.384,-5.9705,42714.0,https://cdn.sportmonks.com/images/soccer/venues/17/177.png,Sevilla,grass,False,19799
50,430,32.0,26351.0,Estadio Manuel Martínez Valero,Avenida Manuel Martínez Valero 3,,38.2653307,-0.6988391,36017.0,https://cdn.sportmonks.com/images/soccer/venues/14/430.png,Elche,grass,False,19799
51,1128,32.0,78766.0,Estadio Iberoamericano 2010,Calle de los Carpinteros,,36.4643934,-6.198203,8000.0,,San Fernando,grass,False,19799
52,2015,32.0,93634.0,Estadio Ciudad de Valencia,Calle San Vicente de Paúl 44,,39.494722,-0.364167,24700.0,https://cdn.sportmonks.com/images/soccer/venues/31/2015.png,Valencia,grass,False,19799
53,2020,32.0,53253.0,Estadio Santiago Bernabéu,"Avenida de Concha Espina 1, Chamartín",,40.453056,-3.688333,84744.0,https://cdn.sportmonks.com/images/soccer/venues/4/2020.png,Madrid,grass,False,19799
54,2028,32.0,95196.0,Estadio de la Cerámica,Plaza Labrador,,39.944167,-0.103611,23500.0,https://cdn.sportmonks.com/images/soccer/venues/12/2028.png,Villarreal,grass,False,19799
55,4473,32.0,13958.0,Estadio Nuevo Mirandilla,Plaza de Madrid,,36.5297438,-6.2928976,20724.0,https://cdn.sportmonks.com/images/soccer/venues/25/4473.png,Cádiz,grass,False,19799
56,9162,32.0,9360.0,San Mamés Barria,Rafael Moreno Pitxitxi Kalea,,43.2643,-2.9504,53331.0,https://cdn.sportmonks.com/images/soccer/venues/10/9162.png,Bilbao,grass,False,19799
57,9180,32.0,1937.0,Estadio de los Juegos Mediterráneos,,,36.840039,-2.435457,15000.0,,Almeria,,False,19799
58,9220,32.0,20272.0,Power8 Stadium,,,41.355724,2.0706225,,,Cornella de Llobregat,,False,19799
59,9236,32.0,6590.0,Camp Nou,"Barcelona, Catalonia",,41.380833,2.122778,105000.0,https://cdn.sportmonks.com/images/soccer/venues/20/9236.png,Barcelona,grass,False,19799
60,9239,32.0,94886.0,Estadio de Balaídos,Avenida de Balaídos,,42.211861,-8.740328,31800.0,https://cdn.sportmonks.com/images/soccer/venues/23/9239.png,Vigo,grass,False,19799
61,9240,32.0,93634.0,Estadio de Mestalla,Avenida de Suecia,,39.474722,-0.358333,49430.0,https://cdn.sportmonks.com/images/soccer/venues/24/9240.png,Valencia,grass,False,19799
62,9320,,,Estadio Santa María de Lezama,Calle Garaioltza Auzoa 147,,43.263476,-2.948150,53000.0,https://cdn.sportmonks.com/images/soccer/venues/8/9320.png,Lezama,grass,False,19799
63,9323,32.0,93691.0,Estadio Municipal José Zorrilla,"Avenida del Mundial 82, s/n 47014, Valladolid, Castile and León",,41.644444,-4.761111,28023.0,https://cdn.sportmonks.com/images/soccer/venues/11/9323.png,Valladolid,grass,False,19799
64,9345,32.0,32079.0,Estadi Municipal de Montilivi,Avenida Montlivi 141,,41.961389,2.828611,14286.0,https://cdn.sportmonks.com/images/soccer/venues/1/9345.png,Girona,grass,False,19799
65,9351,32.0,31791.0,Coliseum Alfonso Pérez,Avenida de Teresa de Calcuta,,40.325556,-3.714722,17393.0,https://cdn.sportmonks.com/images/soccer/venues/7/9351.png,Getafe,grass,False,19799
66,24113,32.0,1937.0,Anexo Estadio de los Juegos del Mediterráneo,,,36.840039,-2.435457,15000.0,,Almería,,False,19799
67,140808,32.0,53252.0,Estadio Civitas Metropolitano,Madrid,,40.436111,-3.599444,70460.0,https://cdn.sportmonks.com/images/core/venues/8/140808.png,Madrid,grass,False,19799
68,300228,32.0,6590.0,Estadi Olímpic Lluís Companys,"Passeig Olímpic, 17-19",08038 Barcelona,41.364722,2.155556,54367.0,https://cdn.sportmonks.com/images/core/venues/4/300228.png,Barcelona,grass,False,19799
69,304396,32.0,53253.0,Estadio de Vallecas,Calle Payaso Fofó,,4.7333686,-74.2629794,14708.0,https://cdn.sportmonks.com/images/soccer/venues/12/304396.png,Madrid,grass,False,19799
70,340122,32.0,94886.0,Abanca-Balaídos (Vigo),,,42.211852,-8.739721,31800.0,,Vigo,,False,19799
71,86,251.0,31602.0,Stadio Comunale Luigi Ferraris,"Via Giovanni De Prà, 1",,38.234612,16.2558336,36599.0,https://cdn.sportmonks.com/images/soccer/venues/22/86.png,Genova,grass,False,19806
72,134,251.0,60878.0,Stadio Diego Armando Maradona,"Naples, Campania, Italy",,40.827967,14.193008,60240.0,https://cdn.sportmonks.com/images/soccer/venues/6/134.png,Napoli,grass,False,19806
73,142,251.0,91001.0,Stadio Olimpico Grande Torino,"Corso Sebastopoli 123, Santa Rita",,45.0677551,7.6824892,36599.0,https://cdn.sportmonks.com/images/soccer/venues/14/142.png,Torino,grass,False,19806
74,193,251.0,8530.0,Gewiss Stadium,Bergamo,,45.708889,9.680833,26393.0,https://cdn.sportmonks.com/images/soccer/venues/1/193.png,Bergamo,grass,False,19806
75,443,251.0,94537.0,Stadio Marc'Antonio Bentegodi,Piazzale Olimpia,,45.435356,10.968647,39045.0,https://cdn.sportmonks.com/images/soccer/venues/27/443.png,Verona,grass,False,19806
76,787,251.0,58912.0,U-Power Stadium,Via Franco Tognini,,45.5834418,9.2735257,18568.0,https://cdn.sportmonks.com/images/soccer/venues/19/787.png,Monza,grass,False,19806
77,1613,251.0,73668.0,MAPEI Stadium - Città del Tricolore,"Piazza Azzuri d'Italia, 1",,44.714722,10.649722,21584.0,https://cdn.sportmonks.com/images/soccer/venues/13/1613.png,Reggio Emilia,grass,False,19806
78,1721,251.0,57165.0,Stadio Giuseppe Meazza,"Piazzale Angelo Moratti, 20151",,45.478056,9.123889,80018.0,https://cdn.sportmonks.com/images/soccer/venues/25/1721.png,Milano,grass,False,19806
79,5026,251.0,78323.0,Stadio Arechi,Via Salvador Allende,,44.977778,7.616111,37180.0,https://cdn.sportmonks.com/images/soccer/venues/2/5026.png,Salerno,grass,False,19806
80,5047,251.0,49313.0,Stadio Comunale Via del Mare,Viale dello Stadio,,38.919716,16.587840,40800.0,https://cdn.sportmonks.com/images/soccer/venues/23/5047.png,Lecce,grass,False,19806
81,5515,251.0,10632.0,Stadio Renato Dall'Ara,"Via Andrea Costa, 174",,44.492314,11.309667,38279.0,https://cdn.sportmonks.com/images/soccer/venues/11/5515.png,Bologna,grass,False,19806
82,7129,251.0,20935.0,Stadio Giovanni Zini,"Via Persico, 19",,51.5466917,-114.4908728,20641.0,https://cdn.sportmonks.com/images/soccer/venues/25/7129.png,Cremona,grass,False,19806
83,7189,251.0,75333.0,Stadio Olimpico,Viale dello Stadio Olimpico Rome,,1.481513,103.61912,72698.0,,Roma,grass,False,19806
84,7220,251.0,26843.0,Stadio Carlo Castellani,Viale delle Olimpiadi,,43.7194884,10.9458556,16284.0,https://cdn.sportmonks.com/images/soccer/venues/20/7220.png,Empoli,grass,False,19806
85,7223,251.0,29168.0,Stadio Artemio Franchi,Viale Manfredo Fanti 14,,43.7492999,11.2385374,43147.0,https://cdn.sportmonks.com/images/soccer/venues/23/7223.png,Firenze,grass,False,19806
86,7224,251.0,92619.0,Dacia Arena,"Piazza le Repubblica Argentina, 3",,46.081603,13.200136,25132.0,https://cdn.sportmonks.com/images/soccer/venues/24/7224.png,Udine,grass,False,19806
87,7305,251.0,47381.0,Stadio Alberto Picco,"Via Nicolò Fieschi, 18",,44.11200215,9.8401563278963,10336.0,https://cdn.sportmonks.com/images/soccer/venues/9/7305.png,La Spezia,artificial turf,False,19806
88,19085,251.0,80550.0,Stadio Enzo Ricci,Piazza Risorgimento,,45.478025,9.124206,80018.0,,Sassuolo,grass,False,19806
89,102653,,,Centro Sportivo Novarello - Villaggio Azzurro,,,45.706434,8.833022,,,Granozzo con Monticello,,False,19806
90,118500,251.0,91001.0,Allianz Stadium,Strada Comunale di Altessano 131,,44.977778,7.616111,400.0,https://cdn.sportmonks.com/images/soccer/venues/4/118500.png,Torino,grass,False,19806
91,169373,251.0,95454.0,Juventus Training Center,,,44.977778,7.616111,41507.0,,Vinovo,,False,19806
92,338840,251.0,29487.0,Centro Sportivo Lazio,,,41.933886,12.454786,68000.0,,Formello,grass,False,19806
93,2,462.0,82625.0,Bramall Lane,Highfield Sheffield S2 4SU,,53.370278,-1.470833,32050.0,https://cdn.sportmonks.com/images/core/venues/2/2.png,Sheffield,grass,False,21646
94,5,462.0,9576.0,Villa Park,"Trinity Road, Birmingham B6 6HE",,52.509167,-1.884722,42640.0,https://cdn.sportmonks.com/images/core/venues/5/5.png,Birmingham,grass,False,21646
95,12,462.0,51090.0,Goodison Park,Goodison Road,L4 4EL,53.43881,-2.96625,39571.0,https://cdn.sportmonks.com/images/core/venues/12/12.png,Liverpool,grass,False,21646
96,146,462.0,11311.0,Vitality Stadium,"Dean Court, Kings Park",,50.7352,-1.83833,11700.0,https://cdn.sportmonks.com/images/soccer/venues/18/146.png,Bournemouth,grass,False,21646
97,151,462.0,53964.0,Etihad Stadium,Etihad Campus Manchester M11 3FF,,53.483056,-2.200278,53400.0,https://cdn.sportmonks.com/images/soccer/venues/23/151.png,Manchester,grass,False,21646
98,200,462.0,13495.0,Turf Moor,Harry Potts Way,,53.789167,-2.230278,21944.0,https://cdn.sportmonks.com/images/soccer/venues/8/200.png,Burnley,grass,False,21646
99,201,462.0,51663.0,Selhurst Park,Holmesdale Road,,51.419728,-0.502059,25073.0,https://cdn.sportmonks.com/images/soccer/venues/9/201.png,London,grass,False,21646
100,204,462.0,51663.0,Emirates Stadium,"Arsenal Football Club Highbury House 75 Drayton Park London, N5 1BU",,51.556667,-0.106111,60260.0,https://cdn.sportmonks.com/images/soccer/venues/12/204.png,London,grass,False,21646
101,206,462.0,53964.0,Old Trafford,Sir Matt Busby Way,,53.463056,-2.291389,74879.0,https://cdn.sportmonks.com/images/soccer/venues/14/206.png,Manchester,grass,False,21646
102,214,462.0,51663.0,London Stadium,"Marshgate Lane, Stratford",,51.538611,-0.016389,60000.0,https://cdn.sportmonks.com/images/soccer/venues/22/214.png,London,grass,False,21646
103,230,462.0,51090.0,Anfield,Anfield Road,,53.430833,-2.960833,60000.0,https://cdn.sportmonks.com/images/soccer/venues/6/230.png,Liverpool,grass,False,21646
104,449,462.0,62163.0,St. James' Park,St. James' Street,,55.009300,-1.564070,3500.0,https://cdn.sportmonks.com/images/soccer/venues/1/449.png,Newcastle upon Tyne,grass,False,21646
105,480,462.0,28137.0,The American Express Community Stadium,Village Way,,50.861822,-0.083278,30750.0,https://cdn.sportmonks.com/images/soccer/venues/0/480.png,Falmer,grass,False,21646
106,485,462.0,51663.0,Craven Cottage,Stevenage Road,,51.475,-0.221667,24500.0,https://cdn.sportmonks.com/images/soccer/venues/5/485.png,London,grass,False,21646
107,492,462.0,99578.0,Molineux Stadium,Waterloo Road,,52.590195,-2.131226,30852.0,https://cdn.sportmonks.com/images/soccer/venues/12/492.png,Wolverhampton,grass,False,21646
108,542,462.0,63537.0,The City Ground,Pavilion Road,,52.940000,-1.132778,30445.0,https://cdn.sportmonks.com/images/soccer/venues/30/542.png,Nottingham,grass,False,21646
109,837,462.0,52758.0,Kenilworth Road Stadium,1 Maple Road,,51.884167,-0.431667,12000.0,https://cdn.sportmonks.com/images/soccer/venues/5/837.png,Luton,grass,False,21646
110,4977,224.0,87825.0,Stadion Chavdar Tsvetkov,,,42.9605002,23.3456154,3500.0,,Svoge,grass,False,21646
111,281313,462.0,51663.0,Tottenham Hotspur Stadium,"Bill Nicholson Way, 748 High Road",,51.604444,-0.066389,62850.0,https://cdn.sportmonks.com/images/core/venues/1/281313.png,London,grass,False,21646
112,321614,462.0,51663.0,Stamford Bridge,Fulham Road,,51.481667,-0.191111,40341.0,https://cdn.sportmonks.com/images/soccer/venues/14/321614.png,London,grass,False,21646
113,338817,462.0,11961.0,Brentford Community Stadium,166 Lionel Rd N,TW8 9QT,51.488183,-0.302639,17250.0,https://cdn.sportmonks.com/images/core/venues/1/338817.png,Brentford,grass,False,21646
114,339719,462.0,82625.0,Bramall Lane (Sheffield),,,,,,https://cdn.sportmonks.com/images/core/venues/7/339719.png,Sheffield,,False,21646
115,56,32.0,66890.0,Estadio El Sadar,Carretera El Sadar,,42.796667,-1.636944,23576.0,https://cdn.sportmonks.com/images/soccer/venues/24/56.png,Pamplona,grass,False,21694
116,68,32.0,82287.0,Estadio Benito Villamarín,Avenida de Heliópolis,,37.356403,-5.981611,60721.0,https://cdn.sportmonks.com/images/soccer/venues/4/68.png,Sevilla,grass,False,21694
117,133,32.0,79248.0,Anoeta Stadium,Paseo de Anoeta 1,,43.301389,-1.973611,39500.0,https://cdn.sportmonks.com/images/soccer/venues/5/133.png,San Sebastián,grass,False,21694
118,177,32.0,82287.0,Estadio Ramón Sánchez Pizjuán,Avenida de Eduardo Dato,,37.384,-5.9705,42714.0,https://cdn.sportmonks.com/images/soccer/venues/17/177.png,Sevilla,grass,False,21694
119,1128,32.0,78766.0,Estadio Iberoamericano 2010,Calle de los Carpinteros,,36.4643934,-6.198203,8000.0,,San Fernando,grass,False,21694
120,1716,32.0,48633.0,Estadio de Gran Canaria,Avenida Pío XII 29,,28.1288694,-15.4349015,32400.0,https://cdn.sportmonks.com/images/soccer/venues/20/1716.png,Las Palmas de Gran Canaria,grass,False,21694
121,1747,32.0,95601.0,Estadio de Mendizorroza,"Paseo de Cervantes , s/n, 01007 Vitoria , Álava",,42.837111,-2.688044,19840.0,https://cdn.sportmonks.com/images/soccer/venues/19/1747.png,Gasteiz,grass,False,21694
122,2020,32.0,53253.0,Estadio Santiago Bernabéu,"Avenida de Concha Espina 1, Chamartín",,40.453056,-3.688333,84744.0,https://cdn.sportmonks.com/images/soccer/venues/4/2020.png,Madrid,grass,False,21694
123,2028,32.0,95196.0,Estadio de la Cerámica,Plaza Labrador,,39.944167,-0.103611,23500.0,https://cdn.sportmonks.com/images/soccer/venues/12/2028.png,Villarreal,grass,False,21694
124,4473,32.0,13958.0,Estadio Nuevo Mirandilla,Plaza de Madrid,,36.5297438,-6.2928976,20724.0,https://cdn.sportmonks.com/images/soccer/venues/25/4473.png,Cádiz,grass,False,21694
125,9162,32.0,9360.0,San Mamés Barria,Rafael Moreno Pitxitxi Kalea,,43.2643,-2.9504,53331.0,https://cdn.sportmonks.com/images/soccer/venues/10/9162.png,Bilbao,grass,False,21694
126,9180,32.0,1937.0,Estadio de los Juegos Mediterráneos,,,36.840039,-2.435457,15000.0,,Almeria,,False,21694
127,9199,,,Instalaciones Deportivas de Tajonar,Paraje Beroa,,42.796677,-1.637141,4000.0,,Tajonar,grass,False,21694
128,9237,32.0,33291.0,Estadio Nuevo Los Cármenes,Calle Pintor Manuel Maldonado,,37.152967,-3.595736,22524.0,https://cdn.sportmonks.com/images/soccer/venues/21/9237.png,Granada,grass,False,21694
129,9239,32.0,94886.0,Estadio de Balaídos,Avenida de Balaídos,,42.211861,-8.740328,31800.0,https://cdn.sportmonks.com/images/soccer/venues/23/9239.png,Vigo,grass,False,21694
130,9240,32.0,93634.0,Estadio de Mestalla,Avenida de Suecia,,39.474722,-0.358333,49430.0,https://cdn.sportmonks.com/images/soccer/venues/24/9240.png,Valencia,grass,False,21694
131,9320,,,Estadio Santa María de Lezama,Calle Garaioltza Auzoa 147,,43.263476,-2.948150,53000.0,https://cdn.sportmonks.com/images/soccer/venues/8/9320.png,Lezama,grass,False,21694
132,9345,32.0,32079.0,Estadi Municipal de Montilivi,Avenida Montlivi 141,,41.961389,2.828611,14286.0,https://cdn.sportmonks.com/images/soccer/venues/1/9345.png,Girona,grass,False,21694
133,9351,32.0,31791.0,Coliseum Alfonso Pérez,Avenida de Teresa de Calcuta,,40.325556,-3.714722,17393.0,https://cdn.sportmonks.com/images/soccer/venues/7/9351.png,Getafe,grass,False,21694
134,140808,32.0,53252.0,Estadio Civitas Metropolitano,Madrid,,40.436111,-3.599444,70460.0,https://cdn.sportmonks.com/images/core/venues/8/140808.png,Madrid,grass,False,21694
135,300228,32.0,6590.0,Estadi Olímpic Lluís Companys,"Passeig Olímpic, 17-19",08038 Barcelona,41.364722,2.155556,54367.0,https://cdn.sportmonks.com/images/core/venues/4/300228.png,Barcelona,grass,False,21694
136,304396,32.0,53253.0,Estadio de Vallecas,Calle Payaso Fofó,,4.7333686,-74.2629794,14708.0,https://cdn.sportmonks.com/images/soccer/venues/12/304396.png,Madrid,grass,False,21694
137,340122,32.0,94886.0,Abanca-Balaídos (Vigo),,,42.211852,-8.739721,31800.0,,Vigo,,False,21694
138,340125,,,Estadio El Sadar (Pamplona (Iruñea)),,,42.81706,-1.64577,,,Iruñea,,False,21694
139,53,11.0,60083.0,Allianz Arena,Werner-Heisenberg-Allee 25,80939,48.218819,11.624722,75000.0,https://cdn.sportmonks.com/images/soccer/venues/21/53.png,Munich,grass,False,21795
140,80,11.0,99532.0,Volkswagen Arena,In den Allerwiesen 1,,52.431561,10.803541,30000.0,https://cdn.sportmonks.com/images/soccer/venues/16/80.png,Wolfsburg,grass,False,21795
141,180,11.0,58189.0,Stadion im Borussia-Park,Hennes-Weisweiler-Allee 1,,51.174722,6.385556,54057.0,https://cdn.sportmonks.com/images/soccer/venues/20/180.png,Mönchengladbach,grass,False,21795
142,378,11.0,10292.0,Vonovia Ruhrstadion,Castropher Straße 145,,51.49,7.236667,27559.0,https://cdn.sportmonks.com/images/soccer/venues/26/378.png,Bochum,grass,False,21795
143,420,11.0,8622.0,Stadion An der Alten Försterei,"Hämmerlingstraße 80-88, Köpenick",,52.457222,13.568056,22012.0,https://cdn.sportmonks.com/images/soccer/venues/4/420.png,Berlin,grass,False,21795
144,1618,11.0,83747.0,PreZero Arena,Dietmar-Hopp-Straße 1,,58.584300,16.173000,17234.0,https://cdn.sportmonks.com/images/soccer/venues/18/1618.png,Sinsheim,grass,False,21795
145,1670,11.0,36671.0,Voith-Arena,Schloßhaustraße 160,,48.668611,10.139444,15000.0,https://cdn.sportmonks.com/images/soccer/venues/6/1670.png,Heidenheim an der Brenz,grass,False,21795
146,1945,11.0,87094.0,MHPArena,Mercedesstraße 87,70372,48.792222,9.231944,60449.0,https://cdn.sportmonks.com/images/core/venues/25/1945.png,Stuttgart,grass,False,21795
147,1946,11.0,19547.0,RheinEnergieStadion,Aachener Straße 999 50933 Cologne,,50.933611,6.875,50000.0,https://cdn.sportmonks.com/images/soccer/venues/26/1946.png,Cologne,grass,False,21795
148,1947,11.0,50042.0,BayArena,"Leverkusen, North Rhine-Westphalia",,51.038333,7.002222,30210.0,https://cdn.sportmonks.com/images/soccer/venues/27/1947.png,Leverkusen,grass,False,21795
149,2063,11.0,30088.0,Europa-Park Stadion,Schwarzwaldstraße 193,,47.988949,7.892944,34700.0,https://cdn.sportmonks.com/images/soccer/venues/15/2063.png,Freiburg im Breisgau,grass,False,21795
150,2103,11.0,53515.0,Mewa Arena,Eugen-Salomon-Straße 1,55128 Mainz,45.566547,18.657762,13005.0,https://cdn.sportmonks.com/images/core/venues/23/2103.png,Mainz,grass,False,21795
151,2140,11.0,54823.0,Stadion am Bad Großfeld,Am Stadtbad,,51.345833,12.348056,42558.0,https://cdn.sportmonks.com/images/soccer/venues/28/2140.png,Markranstädt,grass,False,21795
152,2165,11.0,4733.0,WWK Arena,Bürgermeister Ulrich-Straße 90,,48.323056,10.886111,30660.0,https://cdn.sportmonks.com/images/soccer/venues/21/2165.png,Augsburg,grass,False,21795
153,2166,11.0,24229.0,Signal Iduna Park,"Strobelallee 50 44139 Dortmund, North Rhine-Westphalia",,51.4925,7.451667,81365.0,https://cdn.sportmonks.com/images/soccer/venues/22/2166.png,Dortmund,grass,False,21795
154,2167,11.0,22242.0,Merck-Stadion am Böllenfalltor,Nieder-Ramstädter Straße 170,,49.857778,8.672222,17810.0,https://cdn.sportmonks.com/images/soccer/venues/23/2167.png,Darmstadt,grass,False,21795
155,2169,11.0,29901.0,Commerzbank-Arena,Mörfelder Landstr. 362,,50.0686082253967,8.645482727139177,48000.0,https://cdn.sportmonks.com/images/soccer/venues/25/2169.png,Frankfurt am Main,grass,False,21795
156,2171,11.0,49522.0,Leipzig Arena,"Am Sportforum 3 Leipzig, Saxony",,51.34575,12.348278,30188.0,https://cdn.sportmonks.com/images/soccer/venues/27/2171.png,Leipzig,grass,False,21795
157,2172,11.0,11918.0,Weserstadion,Franz-Böhmert-Straße 1c,,53.063611,8.842861,5500.0,https://cdn.sportmonks.com/images/soccer/venues/28/2172.png,Bremen,grass,False,21795
158,2637,11.0,49522.0,Trainingszentrum RB Leipzig Platz 1,,,51.342429,12.340448,42558.0,,Leipzig,,False,21795
159,8118,11.0,83747.0,DnB NOR Arena,,,49.2553,8.87722,30150.0,,Sinsheim,,False,21795
160,232157,32.0,54441.0,Campo La Quinta,,,49.238312,8.887622,30150.0,,Marbella,,False,21795
161,339831,11.0,11918.0,Wohninvest Weserstadion,,,53.066389,8.8375,42100.0,https://cdn.sportmonks.com/images/core/venues/23/339831.png,Bremen,grass,False,21795
162,339832,11.0,29901.0,Deutsche Bank Park,Mörfelder Landstraße 362,,50.068056,8.645806,48000.0,https://cdn.sportmonks.com/images/core/venues/24/339832.png,Frankfurt am Main,grass,False,21795
163,86,251.0,31602.0,Stadio Comunale Luigi Ferraris,"Via Giovanni De Prà, 1",,38.234612,16.2558336,36599.0,https://cdn.sportmonks.com/images/soccer/venues/22/86.png,Genova,grass,False,21818
164,134,251.0,60878.0,Stadio Diego Armando Maradona,"Naples, Campania, Italy",,40.827967,14.193008,60240.0,https://cdn.sportmonks.com/images/soccer/venues/6/134.png,Napoli,grass,False,21818
165,142,251.0,91001.0,Stadio Olimpico Grande Torino,"Corso Sebastopoli 123, Santa Rita",,45.0677551,7.6824892,36599.0,https://cdn.sportmonks.com/images/soccer/venues/14/142.png,Torino,grass,False,21818
166,193,251.0,8530.0,Gewiss Stadium,Bergamo,,45.708889,9.680833,26393.0,https://cdn.sportmonks.com/images/soccer/venues/1/193.png,Bergamo,grass,False,21818
167,443,251.0,94537.0,Stadio Marc'Antonio Bentegodi,Piazzale Olimpia,,45.435356,10.968647,39045.0,https://cdn.sportmonks.com/images/soccer/venues/27/443.png,Verona,grass,False,21818
168,787,251.0,58912.0,U-Power Stadium,Via Franco Tognini,,45.5834418,9.2735257,18568.0,https://cdn.sportmonks.com/images/soccer/venues/19/787.png,Monza,grass,False,21818
169,1613,251.0,73668.0,MAPEI Stadium - Città del Tricolore,"Piazza Azzuri d'Italia, 1",,44.714722,10.649722,21584.0,https://cdn.sportmonks.com/images/soccer/venues/13/1613.png,Reggio Emilia,grass,False,21818
170,1721,251.0,57165.0,Stadio Giuseppe Meazza,"Piazzale Angelo Moratti, 20151",,45.478056,9.123889,80018.0,https://cdn.sportmonks.com/images/soccer/venues/25/1721.png,Milano,grass,False,21818
171,5026,251.0,78323.0,Stadio Arechi,Via Salvador Allende,,44.977778,7.616111,37180.0,https://cdn.sportmonks.com/images/soccer/venues/2/5026.png,Salerno,grass,False,21818
172,5047,251.0,49313.0,Stadio Comunale Via del Mare,Viale dello Stadio,,38.919716,16.587840,40800.0,https://cdn.sportmonks.com/images/soccer/venues/23/5047.png,Lecce,grass,False,21818
173,5515,251.0,10632.0,Stadio Renato Dall'Ara,"Via Andrea Costa, 174",,44.492314,11.309667,38279.0,https://cdn.sportmonks.com/images/soccer/venues/11/5515.png,Bologna,grass,False,21818
174,7189,251.0,75333.0,Stadio Olimpico,Viale dello Stadio Olimpico Rome,,1.481513,103.61912,72698.0,,Roma,grass,False,21818
175,7220,251.0,26843.0,Stadio Carlo Castellani,Viale delle Olimpiadi,,43.7194884,10.9458556,16284.0,https://cdn.sportmonks.com/images/soccer/venues/20/7220.png,Empoli,grass,False,21818
176,7223,251.0,29168.0,Stadio Artemio Franchi,Viale Manfredo Fanti 14,,43.7492999,11.2385374,43147.0,https://cdn.sportmonks.com/images/soccer/venues/23/7223.png,Firenze,grass,False,21818
177,7224,251.0,92619.0,Dacia Arena,"Piazza le Repubblica Argentina, 3",,46.081603,13.200136,25132.0,https://cdn.sportmonks.com/images/soccer/venues/24/7224.png,Udine,grass,False,21818
178,19085,251.0,80550.0,Stadio Enzo Ricci,Piazza Risorgimento,,45.478025,9.124206,80018.0,,Sassuolo,grass,False,21818
179,102653,,,Centro Sportivo Novarello - Villaggio Azzurro,,,45.706434,8.833022,,,Granozzo con Monticello,,False,21818
180,118500,251.0,91001.0,Allianz Stadium,Strada Comunale di Altessano 131,,44.977778,7.616111,400.0,https://cdn.sportmonks.com/images/soccer/venues/4/118500.png,Torino,grass,False,21818
181,145449,251.0,30345.0,Stadio Benito Stirpe,Viale Olimpia,,41.634167,13.321944,16227.0,https://cdn.sportmonks.com/images/soccer/venues/9/145449.png,Frosinone,grass,False,21818
182,160319,251.0,14002.0,Sardegna Arena,Via Raimondo Carta Raspi,,39.2171994,9.113311,16416.0,,Cagliari,grass,False,21818
183,53,11.0,60083.0,Allianz Arena,Werner-Heisenberg-Allee 25,80939,48.218819,11.624722,75000.0,https://cdn.sportmonks.com/images/soccer/venues/21/53.png,Munich,grass,False,17361
184,80,11.0,99532.0,Volkswagen Arena,In den Allerwiesen 1,,52.431561,10.803541,30000.0,https://cdn.sportmonks.com/images/soccer/venues/16/80.png,Wolfsburg,grass,False,17361
185,180,11.0,58189.0,Stadion im Borussia-Park,Hennes-Weisweiler-Allee 1,,51.174722,6.385556,54057.0,https://cdn.sportmonks.com/images/soccer/venues/20/180.png,Mönchengladbach,grass,False,17361
186,420,11.0,8622.0,Stadion An der Alten Försterei,"Hämmerlingstraße 80-88, Köpenick",,52.457222,13.568056,22012.0,https://cdn.sportmonks.com/images/soccer/venues/4/420.png,Berlin,grass,False,17361
187,1618,11.0,83747.0,PreZero Arena,Dietmar-Hopp-Straße 1,,58.584300,16.173000,17234.0,https://cdn.sportmonks.com/images/soccer/venues/18/1618.png,Sinsheim,grass,False,17361
188,1719,11.0,9204.0,SchücoArena,Melanchthonstraße 31a,,52.0191005,8.531007,27300.0,https://cdn.sportmonks.com/images/soccer/venues/23/1719.png,Bielefeld,grass,False,17361
189,1944,11.0,8622.0,Olympiastadion Berlin,"Westend, Charlottenburg-Wilmersdorf, Berlin",,52.514722,13.239444,74649.0,https://cdn.sportmonks.com/images/soccer/venues/24/1944.png,Berlin,grass,False,17361
190,1945,11.0,87094.0,MHPArena,Mercedesstraße 87,70372,48.792222,9.231944,60449.0,https://cdn.sportmonks.com/images/core/venues/25/1945.png,Stuttgart,grass,False,17361
191,1946,11.0,19547.0,RheinEnergieStadion,Aachener Straße 999 50933 Cologne,,50.933611,6.875,50000.0,https://cdn.sportmonks.com/images/soccer/venues/26/1946.png,Cologne,grass,False,17361
192,1947,11.0,50042.0,BayArena,"Leverkusen, North Rhine-Westphalia",,51.038333,7.002222,30210.0,https://cdn.sportmonks.com/images/soccer/venues/27/1947.png,Leverkusen,grass,False,17361
193,2063,11.0,30088.0,Europa-Park Stadion,Schwarzwaldstraße 193,,47.988949,7.892944,34700.0,https://cdn.sportmonks.com/images/soccer/venues/15/2063.png,Freiburg im Breisgau,grass,False,17361
194,2103,11.0,53515.0,Mewa Arena,Eugen-Salomon-Straße 1,55128 Mainz,45.566547,18.657762,13005.0,https://cdn.sportmonks.com/images/core/venues/23/2103.png,Mainz,grass,False,17361
195,2138,11.0,31497.0,Veltins-Arena,"Gelsenkirchen, North Rhine-Westphalia",,51.554444,7.0675,62271.0,https://cdn.sportmonks.com/images/soccer/venues/26/2138.png,Gelsenkirchen,grass,False,17361
196,2140,11.0,54823.0,Stadion am Bad Großfeld,Am Stadtbad,,51.345833,12.348056,42558.0,https://cdn.sportmonks.com/images/soccer/venues/28/2140.png,Markranstädt,grass,False,17361
197,2165,11.0,4733.0,WWK Arena,Bürgermeister Ulrich-Straße 90,,48.323056,10.886111,30660.0,https://cdn.sportmonks.com/images/soccer/venues/21/2165.png,Augsburg,grass,False,17361
198,2166,11.0,24229.0,Signal Iduna Park,"Strobelallee 50 44139 Dortmund, North Rhine-Westphalia",,51.4925,7.451667,81365.0,https://cdn.sportmonks.com/images/soccer/venues/22/2166.png,Dortmund,grass,False,17361
199,2169,11.0,29901.0,Commerzbank-Arena,Mörfelder Landstr. 362,,50.0686082253967,8.645482727139177,48000.0,https://cdn.sportmonks.com/images/soccer/venues/25/2169.png,Frankfurt am Main,grass,False,17361
200,339831,11.0,11918.0,Wohninvest Weserstadion,,,53.066389,8.8375,42100.0,https://cdn.sportmonks.com/images/core/venues/23/339831.png,Bremen,grass,False,17361
201,2,462.0,82625.0,Bramall Lane,Highfield Sheffield S2 4SU,,53.370278,-1.470833,32050.0,https://cdn.sportmonks.com/images/core/venues/2/2.png,Sheffield,grass,False,17420
202,5,462.0,9576.0,Villa Park,"Trinity Road, Birmingham B6 6HE",,52.509167,-1.884722,42640.0,https://cdn.sportmonks.com/images/core/venues/5/5.png,Birmingham,grass,False,17420
203,12,462.0,51090.0,Goodison Park,Goodison Road,L4 4EL,53.43881,-2.96625,39571.0,https://cdn.sportmonks.com/images/core/venues/12/12.png,Liverpool,grass,False,17420
204,117,462.0,49478.0,King Power Stadium,Filbert Way,,52.748842,-1.180278,32312.0,https://cdn.sportmonks.com/images/soccer/venues/21/117.png,Leicester,grass,False,17420
205,119,462.0,97813.0,The Hawthorns,Halfords Lane,,52.509167,-1.963889,26688.0,https://cdn.sportmonks.com/images/soccer/venues/23/119.png,West Bromwich,grass,False,17420
206,167,462.0,85225.0,St. Mary's Stadium,Britannia Road,,50.903496386,-1.387998448,32384.0,https://cdn.sportmonks.com/images/soccer/venues/7/167.png,Southampton,grass,False,17420
207,200,462.0,13495.0,Turf Moor,Harry Potts Way,,53.789167,-2.230278,21944.0,https://cdn.sportmonks.com/images/soccer/venues/8/200.png,Burnley,grass,False,17420
208,201,462.0,51663.0,Selhurst Park,Holmesdale Road,,51.419728,-0.502059,25073.0,https://cdn.sportmonks.com/images/soccer/venues/9/201.png,London,grass,False,17420
209,204,462.0,51663.0,Emirates Stadium,"Arsenal Football Club Highbury House 75 Drayton Park London, N5 1BU",,51.556667,-0.106111,60260.0,https://cdn.sportmonks.com/images/soccer/venues/12/204.png,London,grass,False,17420
210,206,462.0,53964.0,Old Trafford,Sir Matt Busby Way,,53.463056,-2.291389,74879.0,https://cdn.sportmonks.com/images/soccer/venues/14/206.png,Manchester,grass,False,17420
211,214,462.0,51663.0,London Stadium,"Marshgate Lane, Stratford",,51.538611,-0.016389,60000.0,https://cdn.sportmonks.com/images/soccer/venues/22/214.png,London,grass,False,17420
212,230,462.0,51090.0,Anfield,Anfield Road,,53.430833,-2.960833,60000.0,https://cdn.sportmonks.com/images/soccer/venues/6/230.png,Liverpool,grass,False,17420
213,485,462.0,51663.0,Craven Cottage,Stevenage Road,,51.475,-0.221667,24500.0,https://cdn.sportmonks.com/images/soccer/venues/5/485.png,London,grass,False,17420
214,488,462.0,49373.0,Elland Road,Elland Road,,53.777778,-1.572222,40242.0,https://cdn.sportmonks.com/images/soccer/venues/8/488.png,Leeds,grass,False,17420
215,492,462.0,99578.0,Molineux Stadium,Waterloo Road,,52.590195,-2.131226,30852.0,https://cdn.sportmonks.com/images/soccer/venues/12/492.png,Wolverhampton,grass,False,17420
216,137645,462.0,85224.0,Staplewood Training Ground,"Long Lane, Marchwood",,50.905833,-1.391111,32505.0,,Southampton,grass,False,17420
217,281313,462.0,51663.0,Tottenham Hotspur Stadium,"Bill Nicholson Way, 748 High Road",,51.604444,-0.066389,62850.0,https://cdn.sportmonks.com/images/core/venues/1/281313.png,London,grass,False,17420
218,321614,462.0,51663.0,Stamford Bridge,Fulham Road,,51.481667,-0.191111,40341.0,https://cdn.sportmonks.com/images/soccer/venues/14/321614.png,London,grass,False,17420
219,339710,1004.0,51662.0,Tottenham Hotspur Stadium (London),,,42.9832406,-81.243372,,,London,,False,17420
220,339719,462.0,82625.0,Bramall Lane (Sheffield),,,,,,https://cdn.sportmonks.com/images/core/venues/7/339719.png,Sheffield,,False,17420
221,56,32.0,66890.0,Estadio El Sadar,Carretera El Sadar,,42.796667,-1.636944,23576.0,https://cdn.sportmonks.com/images/soccer/venues/24/56.png,Pamplona,grass,False,17480
222,68,32.0,82287.0,Estadio Benito Villamarín,Avenida de Heliópolis,,37.356403,-5.981611,60721.0,https://cdn.sportmonks.com/images/soccer/venues/4/68.png,Sevilla,grass,False,17480
223,133,32.0,79248.0,Anoeta Stadium,Paseo de Anoeta 1,,43.301389,-1.973611,39500.0,https://cdn.sportmonks.com/images/soccer/venues/5/133.png,San Sebastián,grass,False,17480
224,177,32.0,82287.0,Estadio Ramón Sánchez Pizjuán,Avenida de Eduardo Dato,,37.384,-5.9705,42714.0,https://cdn.sportmonks.com/images/soccer/venues/17/177.png,Sevilla,grass,False,17480
225,430,32.0,26351.0,Estadio Manuel Martínez Valero,Avenida Manuel Martínez Valero 3,,38.2653307,-0.6988391,36017.0,https://cdn.sportmonks.com/images/soccer/venues/14/430.png,Elche,grass,False,17480
226,1747,32.0,95601.0,Estadio de Mendizorroza,"Paseo de Cervantes , s/n, 01007 Vitoria , Álava",,42.837111,-2.688044,19840.0,https://cdn.sportmonks.com/images/soccer/venues/19/1747.png,Gasteiz,grass,False,17480
227,2015,32.0,93634.0,Estadio Ciudad de Valencia,Calle San Vicente de Paúl 44,,39.494722,-0.364167,24700.0,https://cdn.sportmonks.com/images/soccer/venues/31/2015.png,Valencia,grass,False,17480
228,2020,32.0,53253.0,Estadio Santiago Bernabéu,"Avenida de Concha Espina 1, Chamartín",,40.453056,-3.688333,84744.0,https://cdn.sportmonks.com/images/soccer/venues/4/2020.png,Madrid,grass,False,17480
229,2028,32.0,95196.0,Estadio de la Cerámica,Plaza Labrador,,39.944167,-0.103611,23500.0,https://cdn.sportmonks.com/images/soccer/venues/12/2028.png,Villarreal,grass,False,17480
230,4473,32.0,13958.0,Estadio Nuevo Mirandilla,Plaza de Madrid,,36.5297438,-6.2928976,20724.0,https://cdn.sportmonks.com/images/soccer/venues/25/4473.png,Cádiz,grass,False,17480
231,6631,32.0,53253.0,Estadio Alfredo Di Stéfano,"Ciudad Deportiva del Real Madrid, Valdebebas",,,,8400.0,https://cdn.sportmonks.com/images/soccer/venues/7/6631.png,Madrid,grass,False,17480
232,9162,32.0,9360.0,San Mamés Barria,Rafael Moreno Pitxitxi Kalea,,43.2643,-2.9504,53331.0,https://cdn.sportmonks.com/images/soccer/venues/10/9162.png,Bilbao,grass,False,17480
233,9236,32.0,6590.0,Camp Nou,"Barcelona, Catalonia",,41.380833,2.122778,105000.0,https://cdn.sportmonks.com/images/soccer/venues/20/9236.png,Barcelona,grass,False,17480
234,9237,32.0,33291.0,Estadio Nuevo Los Cármenes,Calle Pintor Manuel Maldonado,,37.152967,-3.595736,22524.0,https://cdn.sportmonks.com/images/soccer/venues/21/9237.png,Granada,grass,False,17480
235,9239,32.0,94886.0,Estadio de Balaídos,Avenida de Balaídos,,42.211861,-8.740328,31800.0,https://cdn.sportmonks.com/images/soccer/venues/23/9239.png,Vigo,grass,False,17480
236,9240,32.0,93634.0,Estadio de Mestalla,Avenida de Suecia,,39.474722,-0.358333,49430.0,https://cdn.sportmonks.com/images/soccer/venues/24/9240.png,Valencia,grass,False,17480
237,9242,32.0,26009.0,Estadio Municipal de Ipurúa,Calle de Ipurúa,,43.181706,-2.475803,8050.0,https://cdn.sportmonks.com/images/soccer/venues/26/9242.png,Eibar,grass,False,17480
238,9320,,,Estadio Santa María de Lezama,Calle Garaioltza Auzoa 147,,43.263476,-2.948150,53000.0,https://cdn.sportmonks.com/images/soccer/venues/8/9320.png,Lezama,grass,False,17480
239,9323,32.0,93691.0,Estadio Municipal José Zorrilla,"Avenida del Mundial 82, s/n 47014, Valladolid, Castile and León",,41.644444,-4.761111,28023.0,https://cdn.sportmonks.com/images/soccer/venues/11/9323.png,Valladolid,grass,False,17480
240,9342,32.0,39125.0,Estadio El Alcoraz,Camino del Alto Cocorón,,42.1382539,-0.4080901,7600.0,https://cdn.sportmonks.com/images/soccer/venues/30/9342.png,Huesca,grass,False,17480
241,9351,32.0,31791.0,Coliseum Alfonso Pérez,Avenida de Teresa de Calcuta,,40.325556,-3.714722,17393.0,https://cdn.sportmonks.com/images/soccer/venues/7/9351.png,Getafe,grass,False,17480
242,340122,32.0,94886.0,Abanca-Balaídos (Vigo),,,42.211852,-8.739721,31800.0,,Vigo,,False,17480
243,106,251.0,8292.0,Stadio Ciro Vigorito,Piazzale degli Atleti,,41.1295587,14.7824639,16867.0,https://cdn.sportmonks.com/images/soccer/venues/10/106.png,Benevento,grass,False,17488
244,134,251.0,60878.0,Stadio Diego Armando Maradona,"Naples, Campania, Italy",,40.827967,14.193008,60240.0,https://cdn.sportmonks.com/images/soccer/venues/6/134.png,Napoli,grass,False,17488
245,142,251.0,91001.0,Stadio Olimpico Grande Torino,"Corso Sebastopoli 123, Santa Rita",,45.0677551,7.6824892,36599.0,https://cdn.sportmonks.com/images/soccer/venues/14/142.png,Torino,grass,False,17488
246,193,251.0,8530.0,Gewiss Stadium,Bergamo,,45.708889,9.680833,26393.0,https://cdn.sportmonks.com/images/soccer/venues/1/193.png,Bergamo,grass,False,17488
247,443,251.0,94537.0,Stadio Marc'Antonio Bentegodi,Piazzale Olimpia,,45.435356,10.968647,39045.0,https://cdn.sportmonks.com/images/soccer/venues/27/443.png,Verona,grass,False,17488
248,527,251.0,16616.0,Orogel Stadium-Dino Manuzzi,"Via dello Stadio, 124",,44.136352,12.2422442,20194.0,https://cdn.sportmonks.com/images/soccer/venues/15/527.png,Cesena,artificial turf,False,17488
249,1613,251.0,73668.0,MAPEI Stadium - Città del Tricolore,"Piazza Azzuri d'Italia, 1",,44.714722,10.649722,21584.0,https://cdn.sportmonks.com/images/soccer/venues/13/1613.png,Reggio Emilia,grass,False,17488
250,1721,251.0,57165.0,Stadio Giuseppe Meazza,"Piazzale Angelo Moratti, 20151",,45.478056,9.123889,80018.0,https://cdn.sportmonks.com/images/soccer/venues/25/1721.png,Milano,grass,False,17488
251,5515,251.0,10632.0,Stadio Renato Dall'Ara,"Via Andrea Costa, 174",,44.492314,11.309667,38279.0,https://cdn.sportmonks.com/images/soccer/venues/11/5515.png,Bologna,grass,False,17488
252,7175,251.0,67316.0,Stadio Ennio Tardini,,,44.8013678,10.3280833,27906.0,,Parma,grass,False,17488
253,7223,251.0,29168.0,Stadio Artemio Franchi,Viale Manfredo Fanti 14,,43.7492999,11.2385374,43147.0,https://cdn.sportmonks.com/images/soccer/venues/23/7223.png,Firenze,grass,False,17488
254,7224,251.0,92619.0,Dacia Arena,"Piazza le Repubblica Argentina, 3",,46.081603,13.200136,25132.0,https://cdn.sportmonks.com/images/soccer/venues/24/7224.png,Udine,grass,False,17488
255,7305,251.0,47381.0,Stadio Alberto Picco,"Via Nicolò Fieschi, 18",,44.11200215,9.8401563278963,10336.0,https://cdn.sportmonks.com/images/soccer/venues/9/7305.png,La Spezia,artificial turf,False,17488
256,7339,251.0,21190.0,Stadio Ezio Scida,Via Cutro,,39.0806223,17.127196,16640.0,https://cdn.sportmonks.com/images/soccer/venues/11/7339.png,Crotone,grass,False,17488
257,19085,251.0,80550.0,Stadio Enzo Ricci,Piazza Risorgimento,,45.478025,9.124206,80018.0,,Sassuolo,grass,False,17488
258,118500,251.0,91001.0,Allianz Stadium,Strada Comunale di Altessano 131,,44.977778,7.616111,400.0,https://cdn.sportmonks.com/images/soccer/venues/4/118500.png,Torino,grass,False,17488
259,160319,251.0,14002.0,Sardegna Arena,Via Raimondo Carta Raspi,,39.2171994,9.113311,16416.0,,Cagliari,grass,False,17488
260,338840,251.0,29487.0,Centro Sportivo Lazio,,,41.933886,12.454786,68000.0,,Formello,grass,False,17488
261,340049,251.0,67316.0,Stadio Ennio Tardini (Parma),,,44.8013678,10.3280833,,,Parma,,False,17488
262,5,462.0,9576.0,Villa Park,"Trinity Road, Birmingham B6 6HE",,52.509167,-1.884722,42640.0,https://cdn.sportmonks.com/images/core/venues/5/5.png,Birmingham,grass,False,18378
263,12,462.0,51090.0,Goodison Park,Goodison Road,L4 4EL,53.43881,-2.96625,39571.0,https://cdn.sportmonks.com/images/core/venues/12/12.png,Liverpool,grass,False,18378
264,19,462.0,97068.0,Vicarage Road,Vicarage Road,,44.5403165,-64.6782635,21400.0,,Watford,grass,False,18378
265,117,462.0,49478.0,King Power Stadium,Filbert Way,,52.748842,-1.180278,32312.0,https://cdn.sportmonks.com/images/soccer/venues/21/117.png,Leicester,grass,False,18378
266,151,462.0,53964.0,Etihad Stadium,Etihad Campus Manchester M11 3FF,,53.483056,-2.200278,53400.0,https://cdn.sportmonks.com/images/soccer/venues/23/151.png,Manchester,grass,False,18378
267,200,462.0,13495.0,Turf Moor,Harry Potts Way,,53.789167,-2.230278,21944.0,https://cdn.sportmonks.com/images/soccer/venues/8/200.png,Burnley,grass,False,18378
268,201,462.0,51663.0,Selhurst Park,Holmesdale Road,,51.419728,-0.502059,25073.0,https://cdn.sportmonks.com/images/soccer/venues/9/201.png,London,grass,False,18378
269,204,462.0,51663.0,Emirates Stadium,"Arsenal Football Club Highbury House 75 Drayton Park London, N5 1BU",,51.556667,-0.106111,60260.0,https://cdn.sportmonks.com/images/soccer/venues/12/204.png,London,grass,False,18378
270,206,462.0,53964.0,Old Trafford,Sir Matt Busby Way,,53.463056,-2.291389,74879.0,https://cdn.sportmonks.com/images/soccer/venues/14/206.png,Manchester,grass,False,18378
271,214,462.0,51663.0,London Stadium,"Marshgate Lane, Stratford",,51.538611,-0.016389,60000.0,https://cdn.sportmonks.com/images/soccer/venues/22/214.png,London,grass,False,18378
272,230,462.0,51090.0,Anfield,Anfield Road,,53.430833,-2.960833,60000.0,https://cdn.sportmonks.com/images/soccer/venues/6/230.png,Liverpool,grass,False,18378
273,449,462.0,62163.0,St. James' Park,St. James' Street,,55.009300,-1.564070,3500.0,https://cdn.sportmonks.com/images/soccer/venues/1/449.png,Newcastle upon Tyne,grass,False,18378
274,488,462.0,49373.0,Elland Road,Elland Road,,53.777778,-1.572222,40242.0,https://cdn.sportmonks.com/images/soccer/venues/8/488.png,Leeds,grass,False,18378
275,489,462.0,63475.0,Carrow Road,Carrow Road,,52.622222,1.309167,27244.0,https://cdn.sportmonks.com/images/soccer/venues/9/489.png,Norwich,grass,False,18378
276,492,462.0,99578.0,Molineux Stadium,Waterloo Road,,52.590195,-2.131226,30852.0,https://cdn.sportmonks.com/images/soccer/venues/12/492.png,Wolverhampton,grass,False,18378
277,15849,462.0,76155.0,The Middlesex Stadium,,,51.649836,-0.401486,21400.0,,Ruislip,,False,18378
278,137645,462.0,85224.0,Staplewood Training Ground,"Long Lane, Marchwood",,50.905833,-1.391111,32505.0,,Southampton,grass,False,18378
279,232148,462.0,78328.0,The Peninsula Stadium,Moor Lane,,53.4877463,-2.2891921,1400.0,https://cdn.sportmonks.com/images/soccer/venues/20/232148.png,Salford,grass,False,18378
280,260078,462.0,50138.0,The County Ground,Thurston Road,,52.94268,-1.13718,21401.0,https://cdn.sportmonks.com/images/soccer/venues/14/260078.png,Leyland,grass,False,18378
281,281313,462.0,51663.0,Tottenham Hotspur Stadium,"Bill Nicholson Way, 748 High Road",,51.604444,-0.066389,62850.0,https://cdn.sportmonks.com/images/core/venues/1/281313.png,London,grass,False,18378
282,282066,462.0,20890.0,Broadfield Stadium,Brighton Road,,51.099706,-0.194767,31876.0,https://cdn.sportmonks.com/images/soccer/venues/18/282066.png,Crawley,grass,False,18378
283,321614,462.0,51663.0,Stamford Bridge,Fulham Road,,51.481667,-0.191111,40341.0,https://cdn.sportmonks.com/images/soccer/venues/14/321614.png,London,grass,False,18378
284,338817,462.0,11961.0,Brentford Community Stadium,166 Lionel Rd N,TW8 9QT,51.488183,-0.302639,17250.0,https://cdn.sportmonks.com/images/core/venues/1/338817.png,Brentford,grass,False,18378
285,339041,462.0,19542.0,Lotus Training Center,Hethersett Lane,,52.621647,1.309642,27244.0,,Colney,grass,False,18378
286,53,11.0,60083.0,Allianz Arena,Werner-Heisenberg-Allee 25,80939,48.218819,11.624722,75000.0,https://cdn.sportmonks.com/images/soccer/venues/21/53.png,Munich,grass,False,18444
287,80,11.0,99532.0,Volkswagen Arena,In den Allerwiesen 1,,52.431561,10.803541,30000.0,https://cdn.sportmonks.com/images/soccer/venues/16/80.png,Wolfsburg,grass,False,18444
288,180,11.0,58189.0,Stadion im Borussia-Park,Hennes-Weisweiler-Allee 1,,51.174722,6.385556,54057.0,https://cdn.sportmonks.com/images/soccer/venues/20/180.png,Mönchengladbach,grass,False,18444
289,378,11.0,10292.0,Vonovia Ruhrstadion,Castropher Straße 145,,51.49,7.236667,27559.0,https://cdn.sportmonks.com/images/soccer/venues/26/378.png,Bochum,grass,False,18444
290,420,11.0,8622.0,Stadion An der Alten Försterei,"Hämmerlingstraße 80-88, Köpenick",,52.457222,13.568056,22012.0,https://cdn.sportmonks.com/images/soccer/venues/4/420.png,Berlin,grass,False,18444
291,1618,11.0,83747.0,PreZero Arena,Dietmar-Hopp-Straße 1,,58.584300,16.173000,17234.0,https://cdn.sportmonks.com/images/soccer/venues/18/1618.png,Sinsheim,grass,False,18444
292,1719,11.0,9204.0,SchücoArena,Melanchthonstraße 31a,,52.0191005,8.531007,27300.0,https://cdn.sportmonks.com/images/soccer/venues/23/1719.png,Bielefeld,grass,False,18444
293,1944,11.0,8622.0,Olympiastadion Berlin,"Westend, Charlottenburg-Wilmersdorf, Berlin",,52.514722,13.239444,74649.0,https://cdn.sportmonks.com/images/soccer/venues/24/1944.png,Berlin,grass,False,18444
294,1945,11.0,87094.0,MHPArena,Mercedesstraße 87,70372,48.792222,9.231944,60449.0,https://cdn.sportmonks.com/images/core/venues/25/1945.png,Stuttgart,grass,False,18444
295,1946,11.0,19547.0,RheinEnergieStadion,Aachener Straße 999 50933 Cologne,,50.933611,6.875,50000.0,https://cdn.sportmonks.com/images/soccer/venues/26/1946.png,Cologne,grass,False,18444
296,1947,11.0,50042.0,BayArena,"Leverkusen, North Rhine-Westphalia",,51.038333,7.002222,30210.0,https://cdn.sportmonks.com/images/soccer/venues/27/1947.png,Leverkusen,grass,False,18444
297,2001,11.0,30578.0,Sportpark Ronhof Thomas Sommer,Laubenweg 60,,49.4772475,10.9893626,15000.0,https://cdn.sportmonks.com/images/soccer/venues/17/2001.png,Fürth,grass,False,18444
298,2063,11.0,30088.0,Europa-Park Stadion,Schwarzwaldstraße 193,,47.988949,7.892944,34700.0,https://cdn.sportmonks.com/images/soccer/venues/15/2063.png,Freiburg im Breisgau,grass,False,18444
299,2088,11.0,30088.0,Dreisamstadion,,,48.021602,7.829953,34700.0,,Freiburg im Breisgau,grass,False,18444
300,2103,11.0,53515.0,Mewa Arena,Eugen-Salomon-Straße 1,55128 Mainz,45.566547,18.657762,13005.0,https://cdn.sportmonks.com/images/core/venues/23/2103.png,Mainz,grass,False,18444
301,2140,11.0,54823.0,Stadion am Bad Großfeld,Am Stadtbad,,51.345833,12.348056,42558.0,https://cdn.sportmonks.com/images/soccer/venues/28/2140.png,Markranstädt,grass,False,18444
302,2165,11.0,4733.0,WWK Arena,Bürgermeister Ulrich-Straße 90,,48.323056,10.886111,30660.0,https://cdn.sportmonks.com/images/soccer/venues/21/2165.png,Augsburg,grass,False,18444
303,2166,11.0,24229.0,Signal Iduna Park,"Strobelallee 50 44139 Dortmund, North Rhine-Westphalia",,51.4925,7.451667,81365.0,https://cdn.sportmonks.com/images/soccer/venues/22/2166.png,Dortmund,grass,False,18444
304,2169,11.0,29901.0,Commerzbank-Arena,Mörfelder Landstr. 362,,50.0686082253967,8.645482727139177,48000.0,https://cdn.sportmonks.com/images/soccer/venues/25/2169.png,Frankfurt am Main,grass,False,18444
305,2171,11.0,49522.0,Leipzig Arena,"Am Sportforum 3 Leipzig, Saxony",,51.34575,12.348278,30188.0,https://cdn.sportmonks.com/images/soccer/venues/27/2171.png,Leipzig,grass,False,18444
306,2637,11.0,49522.0,Trainingszentrum RB Leipzig Platz 1,,,51.342429,12.340448,42558.0,,Leipzig,,False,18444
307,339832,11.0,29901.0,Deutsche Bank Park,Mörfelder Landstraße 362,,50.068056,8.645806,48000.0,https://cdn.sportmonks.com/images/core/venues/24/339832.png,Frankfurt am Main,grass,False,18444
308,56,32.0,66890.0,Estadio El Sadar,Carretera El Sadar,,42.796667,-1.636944,23576.0,https://cdn.sportmonks.com/images/soccer/venues/24/56.png,Pamplona,grass,False,18462
309,68,32.0,82287.0,Estadio Benito Villamarín,Avenida de Heliópolis,,37.356403,-5.981611,60721.0,https://cdn.sportmonks.com/images/soccer/venues/4/68.png,Sevilla,grass,False,18462
310,89,32.0,20272.0,RCDE Stadium,Avenida Baix Llobregat 100,,41.347861,2.075667,40500.0,https://cdn.sportmonks.com/images/soccer/venues/25/89.png,Cornella de Llobregat,grass,False,18462
311,133,32.0,79248.0,Anoeta Stadium,Paseo de Anoeta 1,,43.301389,-1.973611,39500.0,https://cdn.sportmonks.com/images/soccer/venues/5/133.png,San Sebastián,grass,False,18462
312,162,,,Iberostar Estadi,Camí dels Reis,,-27.609940,152.763321,1000.0,https://cdn.sportmonks.com/images/soccer/venues/2/162.png,Palma de Mallorca,grass,False,18462
313,177,32.0,82287.0,Estadio Ramón Sánchez Pizjuán,Avenida de Eduardo Dato,,37.384,-5.9705,42714.0,https://cdn.sportmonks.com/images/soccer/venues/17/177.png,Sevilla,grass,False,18462
314,430,32.0,26351.0,Estadio Manuel Martínez Valero,Avenida Manuel Martínez Valero 3,,38.2653307,-0.6988391,36017.0,https://cdn.sportmonks.com/images/soccer/venues/14/430.png,Elche,grass,False,18462
315,1128,32.0,78766.0,Estadio Iberoamericano 2010,Calle de los Carpinteros,,36.4643934,-6.198203,8000.0,,San Fernando,grass,False,18462
316,1747,32.0,95601.0,Estadio de Mendizorroza,"Paseo de Cervantes , s/n, 01007 Vitoria , Álava",,42.837111,-2.688044,19840.0,https://cdn.sportmonks.com/images/soccer/venues/19/1747.png,Gasteiz,grass,False,18462
317,2015,32.0,93634.0,Estadio Ciudad de Valencia,Calle San Vicente de Paúl 44,,39.494722,-0.364167,24700.0,https://cdn.sportmonks.com/images/soccer/venues/31/2015.png,Valencia,grass,False,18462
318,2020,32.0,53253.0,Estadio Santiago Bernabéu,"Avenida de Concha Espina 1, Chamartín",,40.453056,-3.688333,84744.0,https://cdn.sportmonks.com/images/soccer/venues/4/2020.png,Madrid,grass,False,18462
319,2028,32.0,95196.0,Estadio de la Cerámica,Plaza Labrador,,39.944167,-0.103611,23500.0,https://cdn.sportmonks.com/images/soccer/venues/12/2028.png,Villarreal,grass,False,18462
320,4473,32.0,13958.0,Estadio Nuevo Mirandilla,Plaza de Madrid,,36.5297438,-6.2928976,20724.0,https://cdn.sportmonks.com/images/soccer/venues/25/4473.png,Cádiz,grass,False,18462
321,9162,32.0,9360.0,San Mamés Barria,Rafael Moreno Pitxitxi Kalea,,43.2643,-2.9504,53331.0,https://cdn.sportmonks.com/images/soccer/venues/10/9162.png,Bilbao,grass,False,18462
322,9199,,,Instalaciones Deportivas de Tajonar,Paraje Beroa,,42.796677,-1.637141,4000.0,,Tajonar,grass,False,18462
323,9236,32.0,6590.0,Camp Nou,"Barcelona, Catalonia",,41.380833,2.122778,105000.0,https://cdn.sportmonks.com/images/soccer/venues/20/9236.png,Barcelona,grass,False,18462
324,9237,32.0,33291.0,Estadio Nuevo Los Cármenes,Calle Pintor Manuel Maldonado,,37.152967,-3.595736,22524.0,https://cdn.sportmonks.com/images/soccer/venues/21/9237.png,Granada,grass,False,18462
325,9239,32.0,94886.0,Estadio de Balaídos,Avenida de Balaídos,,42.211861,-8.740328,31800.0,https://cdn.sportmonks.com/images/soccer/venues/23/9239.png,Vigo,grass,False,18462
326,9240,32.0,93634.0,Estadio de Mestalla,Avenida de Suecia,,39.474722,-0.358333,49430.0,https://cdn.sportmonks.com/images/soccer/venues/24/9240.png,Valencia,grass,False,18462
327,9320,,,Estadio Santa María de Lezama,Calle Garaioltza Auzoa 147,,43.263476,-2.948150,53000.0,https://cdn.sportmonks.com/images/soccer/venues/8/9320.png,Lezama,grass,False,18462
328,9351,32.0,31791.0,Coliseum Alfonso Pérez,Avenida de Teresa de Calcuta,,40.325556,-3.714722,17393.0,https://cdn.sportmonks.com/images/soccer/venues/7/9351.png,Getafe,grass,False,18462
329,72364,44.0,65022.0,Oliva Nova Golf & Beach Resort Campo 1,,,-32.0424889,-63.5670199,55000.0,,Oliva,,False,18462
330,232181,,,La Finca Golf & Spa Resort,,,38.08119,-0.78131,36017.0,,Algorfa,,False,18462
331,304396,32.0,53253.0,Estadio de Vallecas,Calle Payaso Fofó,,4.7333686,-74.2629794,14708.0,https://cdn.sportmonks.com/images/soccer/venues/12/304396.png,Madrid,grass,False,18462
332,340122,32.0,94886.0,Abanca-Balaídos (Vigo),,,42.211852,-8.739721,31800.0,,Vigo,,False,18462
333,134,251.0,60878.0,Stadio Diego Armando Maradona,"Naples, Campania, Italy",,40.827967,14.193008,60240.0,https://cdn.sportmonks.com/images/soccer/venues/6/134.png,Napoli,grass,False,18576
334,142,251.0,91001.0,Stadio Olimpico Grande Torino,"Corso Sebastopoli 123, Santa Rita",,45.0677551,7.6824892,36599.0,https://cdn.sportmonks.com/images/soccer/venues/14/142.png,Torino,grass,False,18576
335,193,251.0,8530.0,Gewiss Stadium,Bergamo,,45.708889,9.680833,26393.0,https://cdn.sportmonks.com/images/soccer/venues/1/193.png,Bergamo,grass,False,18576
336,443,251.0,94537.0,Stadio Marc'Antonio Bentegodi,Piazzale Olimpia,,45.435356,10.968647,39045.0,https://cdn.sportmonks.com/images/soccer/venues/27/443.png,Verona,grass,False,18576
337,527,251.0,16616.0,Orogel Stadium-Dino Manuzzi,"Via dello Stadio, 124",,44.136352,12.2422442,20194.0,https://cdn.sportmonks.com/images/soccer/venues/15/527.png,Cesena,artificial turf,False,18576
338,1613,251.0,73668.0,MAPEI Stadium - Città del Tricolore,"Piazza Azzuri d'Italia, 1",,44.714722,10.649722,21584.0,https://cdn.sportmonks.com/images/soccer/venues/13/1613.png,Reggio Emilia,grass,False,18576
339,5026,251.0,78323.0,Stadio Arechi,Via Salvador Allende,,44.977778,7.616111,37180.0,https://cdn.sportmonks.com/images/soccer/venues/2/5026.png,Salerno,grass,False,18576
340,5515,251.0,10632.0,Stadio Renato Dall'Ara,"Via Andrea Costa, 174",,44.492314,11.309667,38279.0,https://cdn.sportmonks.com/images/soccer/venues/11/5515.png,Bologna,grass,False,18576
341,7220,251.0,26843.0,Stadio Carlo Castellani,Viale delle Olimpiadi,,43.7194884,10.9458556,16284.0,https://cdn.sportmonks.com/images/soccer/venues/20/7220.png,Empoli,grass,False,18576
342,7223,251.0,29168.0,Stadio Artemio Franchi,Viale Manfredo Fanti 14,,43.7492999,11.2385374,43147.0,https://cdn.sportmonks.com/images/soccer/venues/23/7223.png,Firenze,grass,False,18576
343,7224,251.0,92619.0,Dacia Arena,"Piazza le Repubblica Argentina, 3",,46.081603,13.200136,25132.0,https://cdn.sportmonks.com/images/soccer/venues/24/7224.png,Udine,grass,False,18576
344,7305,251.0,47381.0,Stadio Alberto Picco,"Via Nicolò Fieschi, 18",,44.11200215,9.8401563278963,10336.0,https://cdn.sportmonks.com/images/soccer/venues/9/7305.png,La Spezia,artificial turf,False,18576
345,19085,251.0,80550.0,Stadio Enzo Ricci,Piazza Risorgimento,,45.478025,9.124206,80018.0,,Sassuolo,grass,False,18576
346,19196,,,Stadio Pierluigi Penzo,Isola di Sant'Elena,,45.427761,12.363731,11150.0,https://cdn.sportmonks.com/images/soccer/venues/28/19196.png,Venezia,grass,False,18576
347,118500,251.0,91001.0,Allianz Stadium,Strada Comunale di Altessano 131,,44.977778,7.616111,400.0,https://cdn.sportmonks.com/images/soccer/venues/4/118500.png,Torino,grass,False,18576
348,160319,251.0,14002.0,Sardegna Arena,Via Raimondo Carta Raspi,,39.2171994,9.113311,16416.0,,Cagliari,grass,False,18576
349,169373,251.0,95454.0,Juventus Training Center,,,44.977778,7.616111,41507.0,,Vinovo,,False,18576
350,338840,251.0,29487.0,Centro Sportivo Lazio,,,41.933886,12.454786,68000.0,,Formello,grass,False,18576
351,338891,,,Stadio Comunale Gino Bozzi,"Via Stefano Borgonovo, Galluzzo",,43.7492999,11.2385374,47300.0,,Firenze,artificial turf,False,18576
352,12,462.0,51090.0,Goodison Park,Goodison Road,L4 4EL,53.43881,-2.96625,39571.0,https://cdn.sportmonks.com/images/core/venues/12/12.png,Liverpool,grass,False,12962
353,19,462.0,97068.0,Vicarage Road,Vicarage Road,,44.5403165,-64.6782635,21400.0,,Watford,grass,False,12962
354,117,462.0,49478.0,King Power Stadium,Filbert Way,,52.748842,-1.180278,32312.0,https://cdn.sportmonks.com/images/soccer/venues/21/117.png,Leicester,grass,False,12962
355,125,515.0,15138.0,Cardiff City Stadium,"Cardiff, Wales",,51.472778,-3.203056,26828.0,https://cdn.sportmonks.com/images/core/venues/29/125.png,Cardiff,grass,False,12962
356,146,462.0,11311.0,Vitality Stadium,"Dean Court, Kings Park",,50.7352,-1.83833,11700.0,https://cdn.sportmonks.com/images/soccer/venues/18/146.png,Bournemouth,grass,False,12962
357,151,462.0,53964.0,Etihad Stadium,Etihad Campus Manchester M11 3FF,,53.483056,-2.200278,53400.0,https://cdn.sportmonks.com/images/soccer/venues/23/151.png,Manchester,grass,False,12962
358,167,462.0,85225.0,St. Mary's Stadium,Britannia Road,,50.903496386,-1.387998448,32384.0,https://cdn.sportmonks.com/images/soccer/venues/7/167.png,Southampton,grass,False,12962
359,200,462.0,13495.0,Turf Moor,Harry Potts Way,,53.789167,-2.230278,21944.0,https://cdn.sportmonks.com/images/soccer/venues/8/200.png,Burnley,grass,False,12962
360,201,462.0,51663.0,Selhurst Park,Holmesdale Road,,51.419728,-0.502059,25073.0,https://cdn.sportmonks.com/images/soccer/venues/9/201.png,London,grass,False,12962
361,204,462.0,51663.0,Emirates Stadium,"Arsenal Football Club Highbury House 75 Drayton Park London, N5 1BU",,51.556667,-0.106111,60260.0,https://cdn.sportmonks.com/images/soccer/venues/12/204.png,London,grass,False,12962
362,206,462.0,53964.0,Old Trafford,Sir Matt Busby Way,,53.463056,-2.291389,74879.0,https://cdn.sportmonks.com/images/soccer/venues/14/206.png,Manchester,grass,False,12962
363,214,462.0,51663.0,London Stadium,"Marshgate Lane, Stratford",,51.538611,-0.016389,60000.0,https://cdn.sportmonks.com/images/soccer/venues/22/214.png,London,grass,False,12962
364,230,462.0,51090.0,Anfield,Anfield Road,,53.430833,-2.960833,60000.0,https://cdn.sportmonks.com/images/soccer/venues/6/230.png,Liverpool,grass,False,12962
365,340,462.0,39080.0,The John Smith's Stadium,Stadium Way,,"53.654167,",-1.768333,24500.0,https://cdn.sportmonks.com/images/soccer/venues/20/340.png,Huddersfield,grass,False,12962
366,449,462.0,62163.0,St. James' Park,St. James' Street,,55.009300,-1.564070,3500.0,https://cdn.sportmonks.com/images/soccer/venues/1/449.png,Newcastle upon Tyne,grass,False,12962
367,480,462.0,28137.0,The American Express Community Stadium,Village Way,,50.861822,-0.083278,30750.0,https://cdn.sportmonks.com/images/soccer/venues/0/480.png,Falmer,grass,False,12962
368,485,462.0,51663.0,Craven Cottage,Stevenage Road,,51.475,-0.221667,24500.0,https://cdn.sportmonks.com/images/soccer/venues/5/485.png,London,grass,False,12962
369,492,462.0,99578.0,Molineux Stadium,Waterloo Road,,52.590195,-2.131226,30852.0,https://cdn.sportmonks.com/images/soccer/venues/12/492.png,Wolverhampton,grass,False,12962
370,1315,462.0,51663.0,Wembley Stadium,South Way,Wembley HA9 0WS,51.555556,-0.279444,90000.0,https://cdn.sportmonks.com/images/soccer/venues/3/1315.png,London,grass,False,12962
371,281313,462.0,51663.0,Tottenham Hotspur Stadium,"Bill Nicholson Way, 748 High Road",,51.604444,-0.066389,62850.0,https://cdn.sportmonks.com/images/core/venues/1/281313.png,London,grass,False,12962
372,321614,462.0,51663.0,Stamford Bridge,Fulham Road,,51.481667,-0.191111,40341.0,https://cdn.sportmonks.com/images/soccer/venues/14/321614.png,London,grass,False,12962
373,339729,462.0,97068.0,Vicarage Road (Watford),,,,,,,Watford,,False,12962
374,53,11.0,60083.0,Allianz Arena,Werner-Heisenberg-Allee 25,80939,48.218819,11.624722,75000.0,https://cdn.sportmonks.com/images/soccer/venues/21/53.png,Munich,grass,False,13005
375,80,11.0,99532.0,Volkswagen Arena,In den Allerwiesen 1,,52.431561,10.803541,30000.0,https://cdn.sportmonks.com/images/soccer/venues/16/80.png,Wolfsburg,grass,False,13005
376,180,11.0,58189.0,Stadion im Borussia-Park,Hennes-Weisweiler-Allee 1,,51.174722,6.385556,54057.0,https://cdn.sportmonks.com/images/soccer/venues/20/180.png,Mönchengladbach,grass,False,13005
377,427,11.0,25065.0,ESPRIT arena,Arena-Str. 1,,51.2254018,6.7763137,4290.0,https://cdn.sportmonks.com/images/soccer/venues/11/427.png,Düsseldorf,grass,False,13005
378,1531,11.0,35676.0,HDI Arena,Robert-Enke-Str. 3,,52.357296,9.733443,49200.0,https://cdn.sportmonks.com/images/soccer/venues/27/1531.png,Hannover,grass,False,13005
379,1618,11.0,83747.0,PreZero Arena,Dietmar-Hopp-Straße 1,,58.584300,16.173000,17234.0,https://cdn.sportmonks.com/images/soccer/venues/18/1618.png,Sinsheim,grass,False,13005
380,1944,11.0,8622.0,Olympiastadion Berlin,"Westend, Charlottenburg-Wilmersdorf, Berlin",,52.514722,13.239444,74649.0,https://cdn.sportmonks.com/images/soccer/venues/24/1944.png,Berlin,grass,False,13005
381,1945,11.0,87094.0,MHPArena,Mercedesstraße 87,70372,48.792222,9.231944,60449.0,https://cdn.sportmonks.com/images/core/venues/25/1945.png,Stuttgart,grass,False,13005
382,1947,11.0,50042.0,BayArena,"Leverkusen, North Rhine-Westphalia",,51.038333,7.002222,30210.0,https://cdn.sportmonks.com/images/soccer/venues/27/1947.png,Leverkusen,grass,False,13005
383,2063,11.0,30088.0,Europa-Park Stadion,Schwarzwaldstraße 193,,47.988949,7.892944,34700.0,https://cdn.sportmonks.com/images/soccer/venues/15/2063.png,Freiburg im Breisgau,grass,False,13005
384,2103,11.0,53515.0,Mewa Arena,Eugen-Salomon-Straße 1,55128 Mainz,45.566547,18.657762,13005.0,https://cdn.sportmonks.com/images/core/venues/23/2103.png,Mainz,grass,False,13005
385,2138,11.0,31497.0,Veltins-Arena,"Gelsenkirchen, North Rhine-Westphalia",,51.554444,7.0675,62271.0,https://cdn.sportmonks.com/images/soccer/venues/26/2138.png,Gelsenkirchen,grass,False,13005
386,2140,11.0,54823.0,Stadion am Bad Großfeld,Am Stadtbad,,51.345833,12.348056,42558.0,https://cdn.sportmonks.com/images/soccer/venues/28/2140.png,Markranstädt,grass,False,13005
387,2165,11.0,4733.0,WWK Arena,Bürgermeister Ulrich-Straße 90,,48.323056,10.886111,30660.0,https://cdn.sportmonks.com/images/soccer/venues/21/2165.png,Augsburg,grass,False,13005
388,2166,11.0,24229.0,Signal Iduna Park,"Strobelallee 50 44139 Dortmund, North Rhine-Westphalia",,51.4925,7.451667,81365.0,https://cdn.sportmonks.com/images/soccer/venues/22/2166.png,Dortmund,grass,False,13005
389,2169,11.0,29901.0,Commerzbank-Arena,Mörfelder Landstr. 362,,50.0686082253967,8.645482727139177,48000.0,https://cdn.sportmonks.com/images/soccer/venues/25/2169.png,Frankfurt am Main,grass,False,13005
390,2172,11.0,11918.0,Weserstadion,Franz-Böhmert-Straße 1c,,53.063611,8.842861,5500.0,https://cdn.sportmonks.com/images/soccer/venues/28/2172.png,Bremen,grass,False,13005
391,143896,,,Max-Morlock-Stadion,Max-Morlock-Platz 1,,49.424309,11.124161,50000.0,https://cdn.sportmonks.com/images/soccer/venues/24/143896.png,Neurenberg,grass,False,13005
392,302413,11.0,25065.0,Merkur Spiel-Arena,Arena-Str. 1,,51.261667,6.733056,54600.0,https://cdn.sportmonks.com/images/soccer/venues/13/302413.png,Düsseldorf,grass,False,13005
393,339026,,,Max-Morlock-Platz im Sportpark Valznerweiher,Valznerweiherstr. 200,,49.424309,11.124161,50000.0,,Nürnberg,grass,False,13005
394,339831,11.0,11918.0,Wohninvest Weserstadion,,,53.066389,8.8375,42100.0,https://cdn.sportmonks.com/images/core/venues/23/339831.png,Bremen,grass,False,13005
395,68,32.0,82287.0,Estadio Benito Villamarín,Avenida de Heliópolis,,37.356403,-5.981611,60721.0,https://cdn.sportmonks.com/images/soccer/venues/4/68.png,Sevilla,grass,False,13133
396,89,32.0,20272.0,RCDE Stadium,Avenida Baix Llobregat 100,,41.347861,2.075667,40500.0,https://cdn.sportmonks.com/images/soccer/venues/25/89.png,Cornella de Llobregat,grass,False,13133
397,133,32.0,79248.0,Anoeta Stadium,Paseo de Anoeta 1,,43.301389,-1.973611,39500.0,https://cdn.sportmonks.com/images/soccer/venues/5/133.png,San Sebastián,grass,False,13133
398,177,32.0,82287.0,Estadio Ramón Sánchez Pizjuán,Avenida de Eduardo Dato,,37.384,-5.9705,42714.0,https://cdn.sportmonks.com/images/soccer/venues/17/177.png,Sevilla,grass,False,13133
399,293,32.0,49422.0,Estadio Municipal de Butarque,Calle Arquitectura,,40.3404,-3.7607,12454.0,https://cdn.sportmonks.com/images/soccer/venues/5/293.png,Leganés,grass,False,13133
400,1747,32.0,95601.0,Estadio de Mendizorroza,"Paseo de Cervantes , s/n, 01007 Vitoria , Álava",,42.837111,-2.688044,19840.0,https://cdn.sportmonks.com/images/soccer/venues/19/1747.png,Gasteiz,grass,False,13133
401,2015,32.0,93634.0,Estadio Ciudad de Valencia,Calle San Vicente de Paúl 44,,39.494722,-0.364167,24700.0,https://cdn.sportmonks.com/images/soccer/venues/31/2015.png,Valencia,grass,False,13133
402,2020,32.0,53253.0,Estadio Santiago Bernabéu,"Avenida de Concha Espina 1, Chamartín",,40.453056,-3.688333,84744.0,https://cdn.sportmonks.com/images/soccer/venues/4/2020.png,Madrid,grass,False,13133
403,2028,32.0,95196.0,Estadio de la Cerámica,Plaza Labrador,,39.944167,-0.103611,23500.0,https://cdn.sportmonks.com/images/soccer/venues/12/2028.png,Villarreal,grass,False,13133
404,9162,32.0,9360.0,San Mamés Barria,Rafael Moreno Pitxitxi Kalea,,43.2643,-2.9504,53331.0,https://cdn.sportmonks.com/images/soccer/venues/10/9162.png,Bilbao,grass,False,13133
405,9220,32.0,20272.0,Power8 Stadium,,,41.355724,2.0706225,,,Cornella de Llobregat,,False,13133
406,9236,32.0,6590.0,Camp Nou,"Barcelona, Catalonia",,41.380833,2.122778,105000.0,https://cdn.sportmonks.com/images/soccer/venues/20/9236.png,Barcelona,grass,False,13133
407,9239,32.0,94886.0,Estadio de Balaídos,Avenida de Balaídos,,42.211861,-8.740328,31800.0,https://cdn.sportmonks.com/images/soccer/venues/23/9239.png,Vigo,grass,False,13133
408,9240,32.0,93634.0,Estadio de Mestalla,Avenida de Suecia,,39.474722,-0.358333,49430.0,https://cdn.sportmonks.com/images/soccer/venues/24/9240.png,Valencia,grass,False,13133
409,9242,32.0,26009.0,Estadio Municipal de Ipurúa,Calle de Ipurúa,,43.181706,-2.475803,8050.0,https://cdn.sportmonks.com/images/soccer/venues/26/9242.png,Eibar,grass,False,13133
410,9323,32.0,93691.0,Estadio Municipal José Zorrilla,"Avenida del Mundial 82, s/n 47014, Valladolid, Castile and León",,41.644444,-4.761111,28023.0,https://cdn.sportmonks.com/images/soccer/venues/11/9323.png,Valladolid,grass,False,13133
411,9342,32.0,39125.0,Estadio El Alcoraz,Camino del Alto Cocorón,,42.1382539,-0.4080901,7600.0,https://cdn.sportmonks.com/images/soccer/venues/30/9342.png,Huesca,grass,False,13133
412,9345,32.0,32079.0,Estadi Municipal de Montilivi,Avenida Montlivi 141,,41.961389,2.828611,14286.0,https://cdn.sportmonks.com/images/soccer/venues/1/9345.png,Girona,grass,False,13133
413,9351,32.0,31791.0,Coliseum Alfonso Pérez,Avenida de Teresa de Calcuta,,40.325556,-3.714722,17393.0,https://cdn.sportmonks.com/images/soccer/venues/7/9351.png,Getafe,grass,False,13133
414,31518,32.0,53253.0,Estadio del Rayo Vallecano,Calle Payaso Fofó,,,,15500.0,https://cdn.sportmonks.com/images/soccer/venues/30/31518.png,Madrid,grass,False,13133
415,72364,44.0,65022.0,Oliva Nova Golf & Beach Resort Campo 1,,,-32.0424889,-63.5670199,55000.0,,Oliva,,False,13133
416,140808,32.0,53252.0,Estadio Civitas Metropolitano,Madrid,,40.436111,-3.599444,70460.0,https://cdn.sportmonks.com/images/core/venues/8/140808.png,Madrid,grass,False,13133
417,304396,32.0,53253.0,Estadio de Vallecas,Calle Payaso Fofó,,4.7333686,-74.2629794,14708.0,https://cdn.sportmonks.com/images/soccer/venues/12/304396.png,Madrid,grass,False,13133
418,340122,32.0,94886.0,Abanca-Balaídos (Vigo),,,42.211852,-8.739721,31800.0,,Vigo,,False,13133
419,86,251.0,31602.0,Stadio Comunale Luigi Ferraris,"Via Giovanni De Prà, 1",,38.234612,16.2558336,36599.0,https://cdn.sportmonks.com/images/soccer/venues/22/86.png,Genova,grass,False,13158
420,134,251.0,60878.0,Stadio Diego Armando Maradona,"Naples, Campania, Italy",,40.827967,14.193008,60240.0,https://cdn.sportmonks.com/images/soccer/venues/6/134.png,Napoli,grass,False,13158
421,142,251.0,91001.0,Stadio Olimpico Grande Torino,"Corso Sebastopoli 123, Santa Rita",,45.0677551,7.6824892,36599.0,https://cdn.sportmonks.com/images/soccer/venues/14/142.png,Torino,grass,False,13158
422,193,251.0,8530.0,Gewiss Stadium,Bergamo,,45.708889,9.680833,26393.0,https://cdn.sportmonks.com/images/soccer/venues/1/193.png,Bergamo,grass,False,13158
423,443,251.0,94537.0,Stadio Marc'Antonio Bentegodi,Piazzale Olimpia,,45.435356,10.968647,39045.0,https://cdn.sportmonks.com/images/soccer/venues/27/443.png,Verona,grass,False,13158
424,1613,251.0,73668.0,MAPEI Stadium - Città del Tricolore,"Piazza Azzuri d'Italia, 1",,44.714722,10.649722,21584.0,https://cdn.sportmonks.com/images/soccer/venues/13/1613.png,Reggio Emilia,grass,False,13158
425,1721,251.0,57165.0,Stadio Giuseppe Meazza,"Piazzale Angelo Moratti, 20151",,45.478056,9.123889,80018.0,https://cdn.sportmonks.com/images/soccer/venues/25/1721.png,Milano,grass,False,13158
426,5515,251.0,10632.0,Stadio Renato Dall'Ara,"Via Andrea Costa, 174",,44.492314,11.309667,38279.0,https://cdn.sportmonks.com/images/soccer/venues/11/5515.png,Bologna,grass,False,13158
427,7175,251.0,67316.0,Stadio Ennio Tardini,,,44.8013678,10.3280833,27906.0,,Parma,grass,False,13158
428,7189,251.0,75333.0,Stadio Olimpico,Viale dello Stadio Olimpico Rome,,1.481513,103.61912,72698.0,,Roma,grass,False,13158
429,7220,251.0,26843.0,Stadio Carlo Castellani,Viale delle Olimpiadi,,43.7194884,10.9458556,16284.0,https://cdn.sportmonks.com/images/soccer/venues/20/7220.png,Empoli,grass,False,13158
430,7223,251.0,29168.0,Stadio Artemio Franchi,Viale Manfredo Fanti 14,,43.7492999,11.2385374,43147.0,https://cdn.sportmonks.com/images/soccer/venues/23/7223.png,Firenze,grass,False,13158
431,7224,251.0,92619.0,Dacia Arena,"Piazza le Repubblica Argentina, 3",,46.081603,13.200136,25132.0,https://cdn.sportmonks.com/images/soccer/venues/24/7224.png,Udine,grass,False,13158
432,7316,251.0,28678.0,Stadio Paolo Mazza,"Corso Piave, 28",,44.8372737,11.6186451,17900.0,https://cdn.sportmonks.com/images/soccer/venues/20/7316.png,Ferrara,grass,False,13158
433,118500,251.0,91001.0,Allianz Stadium,Strada Comunale di Altessano 131,,44.977778,7.616111,400.0,https://cdn.sportmonks.com/images/soccer/venues/4/118500.png,Torino,grass,False,13158
434,145449,251.0,30345.0,Stadio Benito Stirpe,Viale Olimpia,,41.634167,13.321944,16227.0,https://cdn.sportmonks.com/images/soccer/venues/9/145449.png,Frosinone,grass,False,13158
435,160319,251.0,14002.0,Sardegna Arena,Via Raimondo Carta Raspi,,39.2171994,9.113311,16416.0,,Cagliari,grass,False,13158
436,340049,251.0,67316.0,Stadio Ennio Tardini (Parma),,,44.8013678,10.3280833,,,Parma,,False,13158
437,2,462.0,82625.0,Bramall Lane,Highfield Sheffield S2 4SU,,53.370278,-1.470833,32050.0,https://cdn.sportmonks.com/images/core/venues/2/2.png,Sheffield,grass,False,16036
438,5,462.0,9576.0,Villa Park,"Trinity Road, Birmingham B6 6HE",,52.509167,-1.884722,42640.0,https://cdn.sportmonks.com/images/core/venues/5/5.png,Birmingham,grass,False,16036
439,12,462.0,51090.0,Goodison Park,Goodison Road,L4 4EL,53.43881,-2.96625,39571.0,https://cdn.sportmonks.com/images/core/venues/12/12.png,Liverpool,grass,False,16036
440,19,462.0,97068.0,Vicarage Road,Vicarage Road,,44.5403165,-64.6782635,21400.0,,Watford,grass,False,16036
441,117,462.0,49478.0,King Power Stadium,Filbert Way,,52.748842,-1.180278,32312.0,https://cdn.sportmonks.com/images/soccer/venues/21/117.png,Leicester,grass,False,16036
442,146,462.0,11311.0,Vitality Stadium,"Dean Court, Kings Park",,50.7352,-1.83833,11700.0,https://cdn.sportmonks.com/images/soccer/venues/18/146.png,Bournemouth,grass,False,16036
443,151,462.0,53964.0,Etihad Stadium,Etihad Campus Manchester M11 3FF,,53.483056,-2.200278,53400.0,https://cdn.sportmonks.com/images/soccer/venues/23/151.png,Manchester,grass,False,16036
444,167,462.0,85225.0,St. Mary's Stadium,Britannia Road,,50.903496386,-1.387998448,32384.0,https://cdn.sportmonks.com/images/soccer/venues/7/167.png,Southampton,grass,False,16036
445,200,462.0,13495.0,Turf Moor,Harry Potts Way,,53.789167,-2.230278,21944.0,https://cdn.sportmonks.com/images/soccer/venues/8/200.png,Burnley,grass,False,16036
446,201,462.0,51663.0,Selhurst Park,Holmesdale Road,,51.419728,-0.502059,25073.0,https://cdn.sportmonks.com/images/soccer/venues/9/201.png,London,grass,False,16036
447,204,462.0,51663.0,Emirates Stadium,"Arsenal Football Club Highbury House 75 Drayton Park London, N5 1BU",,51.556667,-0.106111,60260.0,https://cdn.sportmonks.com/images/soccer/venues/12/204.png,London,grass,False,16036
448,206,462.0,53964.0,Old Trafford,Sir Matt Busby Way,,53.463056,-2.291389,74879.0,https://cdn.sportmonks.com/images/soccer/venues/14/206.png,Manchester,grass,False,16036
449,214,462.0,51663.0,London Stadium,"Marshgate Lane, Stratford",,51.538611,-0.016389,60000.0,https://cdn.sportmonks.com/images/soccer/venues/22/214.png,London,grass,False,16036
450,230,462.0,51090.0,Anfield,Anfield Road,,53.430833,-2.960833,60000.0,https://cdn.sportmonks.com/images/soccer/venues/6/230.png,Liverpool,grass,False,16036
451,346,462.0,11311.0,Seward Stadium,,,50.720097,-1.8799272,11700.0,,Bournemouth,,False,16036
452,449,462.0,62163.0,St. James' Park,St. James' Street,,55.009300,-1.564070,3500.0,https://cdn.sportmonks.com/images/soccer/venues/1/449.png,Newcastle upon Tyne,grass,False,16036
453,480,462.0,28137.0,The American Express Community Stadium,Village Way,,50.861822,-0.083278,30750.0,https://cdn.sportmonks.com/images/soccer/venues/0/480.png,Falmer,grass,False,16036
454,489,462.0,63475.0,Carrow Road,Carrow Road,,52.622222,1.309167,27244.0,https://cdn.sportmonks.com/images/soccer/venues/9/489.png,Norwich,grass,False,16036
455,492,462.0,99578.0,Molineux Stadium,Waterloo Road,,52.590195,-2.131226,30852.0,https://cdn.sportmonks.com/images/soccer/venues/12/492.png,Wolverhampton,grass,False,16036
456,281313,462.0,51663.0,Tottenham Hotspur Stadium,"Bill Nicholson Way, 748 High Road",,51.604444,-0.066389,62850.0,https://cdn.sportmonks.com/images/core/venues/1/281313.png,London,grass,False,16036
457,291285,462.0,49478.0,Holmes Park,"Dog and Gun Lane, Whetstone",,52.6362,-1.1331969,32312.0,,Leicester,grass,False,16036
458,321614,462.0,51663.0,Stamford Bridge,Fulham Road,,51.481667,-0.191111,40341.0,https://cdn.sportmonks.com/images/soccer/venues/14/321614.png,London,grass,False,16036
459,53,11.0,60083.0,Allianz Arena,Werner-Heisenberg-Allee 25,80939,48.218819,11.624722,75000.0,https://cdn.sportmonks.com/images/soccer/venues/21/53.png,Munich,grass,False,16264
460,80,11.0,99532.0,Volkswagen Arena,In den Allerwiesen 1,,52.431561,10.803541,30000.0,https://cdn.sportmonks.com/images/soccer/venues/16/80.png,Wolfsburg,grass,False,16264
461,180,11.0,58189.0,Stadion im Borussia-Park,Hennes-Weisweiler-Allee 1,,51.174722,6.385556,54057.0,https://cdn.sportmonks.com/images/soccer/venues/20/180.png,Mönchengladbach,grass,False,16264
462,420,11.0,8622.0,Stadion An der Alten Försterei,"Hämmerlingstraße 80-88, Köpenick",,52.457222,13.568056,22012.0,https://cdn.sportmonks.com/images/soccer/venues/4/420.png,Berlin,grass,False,16264
463,1571,11.0,66460.0,Home Deluxe Arena,Paderborner Straße 89,,51.730698,8.711429,15000.0,https://cdn.sportmonks.com/images/soccer/venues/3/1571.png,Paderborn,grass,False,16264
464,1618,11.0,83747.0,PreZero Arena,Dietmar-Hopp-Straße 1,,58.584300,16.173000,17234.0,https://cdn.sportmonks.com/images/soccer/venues/18/1618.png,Sinsheim,grass,False,16264
465,1944,11.0,8622.0,Olympiastadion Berlin,"Westend, Charlottenburg-Wilmersdorf, Berlin",,52.514722,13.239444,74649.0,https://cdn.sportmonks.com/images/soccer/venues/24/1944.png,Berlin,grass,False,16264
466,1946,11.0,19547.0,RheinEnergieStadion,Aachener Straße 999 50933 Cologne,,50.933611,6.875,50000.0,https://cdn.sportmonks.com/images/soccer/venues/26/1946.png,Cologne,grass,False,16264
467,1947,11.0,50042.0,BayArena,"Leverkusen, North Rhine-Westphalia",,51.038333,7.002222,30210.0,https://cdn.sportmonks.com/images/soccer/venues/27/1947.png,Leverkusen,grass,False,16264
468,2063,11.0,30088.0,Europa-Park Stadion,Schwarzwaldstraße 193,,47.988949,7.892944,34700.0,https://cdn.sportmonks.com/images/soccer/venues/15/2063.png,Freiburg im Breisgau,grass,False,16264
469,2103,11.0,53515.0,Mewa Arena,Eugen-Salomon-Straße 1,55128 Mainz,45.566547,18.657762,13005.0,https://cdn.sportmonks.com/images/core/venues/23/2103.png,Mainz,grass,False,16264
470,2138,11.0,31497.0,Veltins-Arena,"Gelsenkirchen, North Rhine-Westphalia",,51.554444,7.0675,62271.0,https://cdn.sportmonks.com/images/soccer/venues/26/2138.png,Gelsenkirchen,grass,False,16264
471,2140,11.0,54823.0,Stadion am Bad Großfeld,Am Stadtbad,,51.345833,12.348056,42558.0,https://cdn.sportmonks.com/images/soccer/venues/28/2140.png,Markranstädt,grass,False,16264
472,2165,11.0,4733.0,WWK Arena,Bürgermeister Ulrich-Straße 90,,48.323056,10.886111,30660.0,https://cdn.sportmonks.com/images/soccer/venues/21/2165.png,Augsburg,grass,False,16264
473,2166,11.0,24229.0,Signal Iduna Park,"Strobelallee 50 44139 Dortmund, North Rhine-Westphalia",,51.4925,7.451667,81365.0,https://cdn.sportmonks.com/images/soccer/venues/22/2166.png,Dortmund,grass,False,16264
474,2169,11.0,29901.0,Commerzbank-Arena,Mörfelder Landstr. 362,,50.0686082253967,8.645482727139177,48000.0,https://cdn.sportmonks.com/images/soccer/venues/25/2169.png,Frankfurt am Main,grass,False,16264
475,2172,11.0,11918.0,Weserstadion,Franz-Böhmert-Straße 1c,,53.063611,8.842861,5500.0,https://cdn.sportmonks.com/images/soccer/venues/28/2172.png,Bremen,grass,False,16264
476,302413,11.0,25065.0,Merkur Spiel-Arena,Arena-Str. 1,,51.261667,6.733056,54600.0,https://cdn.sportmonks.com/images/soccer/venues/13/302413.png,Düsseldorf,grass,False,16264
477,339831,11.0,11918.0,Wohninvest Weserstadion,,,53.066389,8.8375,42100.0,https://cdn.sportmonks.com/images/core/venues/23/339831.png,Bremen,grass,False,16264
478,56,32.0,66890.0,Estadio El Sadar,Carretera El Sadar,,42.796667,-1.636944,23576.0,https://cdn.sportmonks.com/images/soccer/venues/24/56.png,Pamplona,grass,False,16326
479,68,32.0,82287.0,Estadio Benito Villamarín,Avenida de Heliópolis,,37.356403,-5.981611,60721.0,https://cdn.sportmonks.com/images/soccer/venues/4/68.png,Sevilla,grass,False,16326
480,89,32.0,20272.0,RCDE Stadium,Avenida Baix Llobregat 100,,41.347861,2.075667,40500.0,https://cdn.sportmonks.com/images/soccer/venues/25/89.png,Cornella de Llobregat,grass,False,16326
481,133,32.0,79248.0,Anoeta Stadium,Paseo de Anoeta 1,,43.301389,-1.973611,39500.0,https://cdn.sportmonks.com/images/soccer/venues/5/133.png,San Sebastián,grass,False,16326
482,162,,,Iberostar Estadi,Camí dels Reis,,-27.609940,152.763321,1000.0,https://cdn.sportmonks.com/images/soccer/venues/2/162.png,Palma de Mallorca,grass,False,16326
483,177,32.0,82287.0,Estadio Ramón Sánchez Pizjuán,Avenida de Eduardo Dato,,37.384,-5.9705,42714.0,https://cdn.sportmonks.com/images/soccer/venues/17/177.png,Sevilla,grass,False,16326
484,293,32.0,49422.0,Estadio Municipal de Butarque,Calle Arquitectura,,40.3404,-3.7607,12454.0,https://cdn.sportmonks.com/images/soccer/venues/5/293.png,Leganés,grass,False,16326
485,1747,32.0,95601.0,Estadio de Mendizorroza,"Paseo de Cervantes , s/n, 01007 Vitoria , Álava",,42.837111,-2.688044,19840.0,https://cdn.sportmonks.com/images/soccer/venues/19/1747.png,Gasteiz,grass,False,16326
486,2015,32.0,93634.0,Estadio Ciudad de Valencia,Calle San Vicente de Paúl 44,,39.494722,-0.364167,24700.0,https://cdn.sportmonks.com/images/soccer/venues/31/2015.png,Valencia,grass,False,16326
487,2020,32.0,53253.0,Estadio Santiago Bernabéu,"Avenida de Concha Espina 1, Chamartín",,40.453056,-3.688333,84744.0,https://cdn.sportmonks.com/images/soccer/venues/4/2020.png,Madrid,grass,False,16326
488,2028,32.0,95196.0,Estadio de la Cerámica,Plaza Labrador,,39.944167,-0.103611,23500.0,https://cdn.sportmonks.com/images/soccer/venues/12/2028.png,Villarreal,grass,False,16326
489,9162,32.0,9360.0,San Mamés Barria,Rafael Moreno Pitxitxi Kalea,,43.2643,-2.9504,53331.0,https://cdn.sportmonks.com/images/soccer/venues/10/9162.png,Bilbao,grass,False,16326
490,9236,32.0,6590.0,Camp Nou,"Barcelona, Catalonia",,41.380833,2.122778,105000.0,https://cdn.sportmonks.com/images/soccer/venues/20/9236.png,Barcelona,grass,False,16326
491,9237,32.0,33291.0,Estadio Nuevo Los Cármenes,Calle Pintor Manuel Maldonado,,37.152967,-3.595736,22524.0,https://cdn.sportmonks.com/images/soccer/venues/21/9237.png,Granada,grass,False,16326
492,9239,32.0,94886.0,Estadio de Balaídos,Avenida de Balaídos,,42.211861,-8.740328,31800.0,https://cdn.sportmonks.com/images/soccer/venues/23/9239.png,Vigo,grass,False,16326
493,9240,32.0,93634.0,Estadio de Mestalla,Avenida de Suecia,,39.474722,-0.358333,49430.0,https://cdn.sportmonks.com/images/soccer/venues/24/9240.png,Valencia,grass,False,16326
494,9242,32.0,26009.0,Estadio Municipal de Ipurúa,Calle de Ipurúa,,43.181706,-2.475803,8050.0,https://cdn.sportmonks.com/images/soccer/venues/26/9242.png,Eibar,grass,False,16326
495,9323,32.0,93691.0,Estadio Municipal José Zorrilla,"Avenida del Mundial 82, s/n 47014, Valladolid, Castile and León",,41.644444,-4.761111,28023.0,https://cdn.sportmonks.com/images/soccer/venues/11/9323.png,Valladolid,grass,False,16326
496,9351,32.0,31791.0,Coliseum Alfonso Pérez,Avenida de Teresa de Calcuta,,40.325556,-3.714722,17393.0,https://cdn.sportmonks.com/images/soccer/venues/7/9351.png,Getafe,grass,False,16326
497,72364,44.0,65022.0,Oliva Nova Golf & Beach Resort Campo 1,,,-32.0424889,-63.5670199,55000.0,,Oliva,,False,16326
498,140808,32.0,53252.0,Estadio Civitas Metropolitano,Madrid,,40.436111,-3.599444,70460.0,https://cdn.sportmonks.com/images/core/venues/8/140808.png,Madrid,grass,False,16326
499,86,251.0,31602.0,Stadio Comunale Luigi Ferraris,"Via Giovanni De Prà, 1",,38.234612,16.2558336,36599.0,https://cdn.sportmonks.com/images/soccer/venues/22/86.png,Genova,grass,False,16415
500,134,251.0,60878.0,Stadio Diego Armando Maradona,"Naples, Campania, Italy",,40.827967,14.193008,60240.0,https://cdn.sportmonks.com/images/soccer/venues/6/134.png,Napoli,grass,False,16415
501,142,251.0,91001.0,Stadio Olimpico Grande Torino,"Corso Sebastopoli 123, Santa Rita",,45.0677551,7.6824892,36599.0,https://cdn.sportmonks.com/images/soccer/venues/14/142.png,Torino,grass,False,16415
502,193,251.0,8530.0,Gewiss Stadium,Bergamo,,45.708889,9.680833,26393.0,https://cdn.sportmonks.com/images/soccer/venues/1/193.png,Bergamo,grass,False,16415
503,443,251.0,94537.0,Stadio Marc'Antonio Bentegodi,Piazzale Olimpia,,45.435356,10.968647,39045.0,https://cdn.sportmonks.com/images/soccer/venues/27/443.png,Verona,grass,False,16415
504,1613,251.0,73668.0,MAPEI Stadium - Città del Tricolore,"Piazza Azzuri d'Italia, 1",,44.714722,10.649722,21584.0,https://cdn.sportmonks.com/images/soccer/venues/13/1613.png,Reggio Emilia,grass,False,16415
505,1721,251.0,57165.0,Stadio Giuseppe Meazza,"Piazzale Angelo Moratti, 20151",,45.478056,9.123889,80018.0,https://cdn.sportmonks.com/images/soccer/venues/25/1721.png,Milano,grass,False,16415
506,5047,251.0,49313.0,Stadio Comunale Via del Mare,Viale dello Stadio,,38.919716,16.587840,40800.0,https://cdn.sportmonks.com/images/soccer/venues/23/5047.png,Lecce,grass,False,16415
507,5515,251.0,10632.0,Stadio Renato Dall'Ara,"Via Andrea Costa, 174",,44.492314,11.309667,38279.0,https://cdn.sportmonks.com/images/soccer/venues/11/5515.png,Bologna,grass,False,16415
508,7133,251.0,11978.0,Stadio Mario Rigamonti,"Via Giovanni Novagani, 8",,45.570556,10.236944,16743.0,https://cdn.sportmonks.com/images/soccer/venues/29/7133.png,Brescia,grass,False,16415
509,7175,251.0,67316.0,Stadio Ennio Tardini,,,44.8013678,10.3280833,27906.0,,Parma,grass,False,16415
510,7189,251.0,75333.0,Stadio Olimpico,Viale dello Stadio Olimpico Rome,,1.481513,103.61912,72698.0,,Roma,grass,False,16415
511,7223,251.0,29168.0,Stadio Artemio Franchi,Viale Manfredo Fanti 14,,43.7492999,11.2385374,43147.0,https://cdn.sportmonks.com/images/soccer/venues/23/7223.png,Firenze,grass,False,16415
512,7224,251.0,92619.0,Dacia Arena,"Piazza le Repubblica Argentina, 3",,46.081603,13.200136,25132.0,https://cdn.sportmonks.com/images/soccer/venues/24/7224.png,Udine,grass,False,16415
513,7316,251.0,28678.0,Stadio Paolo Mazza,"Corso Piave, 28",,44.8372737,11.6186451,17900.0,https://cdn.sportmonks.com/images/soccer/venues/20/7316.png,Ferrara,grass,False,16415
514,118500,251.0,91001.0,Allianz Stadium,Strada Comunale di Altessano 131,,44.977778,7.616111,400.0,https://cdn.sportmonks.com/images/soccer/venues/4/118500.png,Torino,grass,False,16415
515,160319,251.0,14002.0,Sardegna Arena,Via Raimondo Carta Raspi,,39.2171994,9.113311,16416.0,,Cagliari,grass,False,16415
516,169373,251.0,95454.0,Juventus Training Center,,,44.977778,7.616111,41507.0,,Vinovo,,False,16415
517,338710,3483.0,12125.0,SeatGeek Stadium,,,41.764802,-87.805736,20000.0,,Bridgeview,grass,False,16415
518,338840,251.0,29487.0,Centro Sportivo Lazio,,,41.933886,12.454786,68000.0,,Formello,grass,False,16415
519,340049,251.0,67316.0,Stadio Ennio Tardini (Parma),,,44.8013678,10.3280833,,,Parma,,False,16415
520,12,462.0,51090.0,Goodison Park,Goodison Road,L4 4EL,53.43881,-2.96625,39571.0,https://cdn.sportmonks.com/images/core/venues/12/12.png,Liverpool,grass,False,13
521,117,462.0,49478.0,King Power Stadium,Filbert Way,,52.748842,-1.180278,32312.0,https://cdn.sportmonks.com/images/soccer/venues/21/117.png,Leicester,grass,False,13
522,119,462.0,97813.0,The Hawthorns,Halfords Lane,,52.509167,-1.963889,26688.0,https://cdn.sportmonks.com/images/soccer/venues/23/119.png,West Bromwich,grass,False,13
523,146,462.0,11311.0,Vitality Stadium,"Dean Court, Kings Park",,50.7352,-1.83833,11700.0,https://cdn.sportmonks.com/images/soccer/venues/18/146.png,Bournemouth,grass,False,13
524,167,462.0,85225.0,St. Mary's Stadium,Britannia Road,,50.903496386,-1.387998448,32384.0,https://cdn.sportmonks.com/images/soccer/venues/7/167.png,Southampton,grass,False,13
525,199,462.0,39201.0,KCOM Stadium,Walton Street / Anlaby Road,,45.4405842,-75.7326823,25586.0,https://cdn.sportmonks.com/images/soccer/venues/7/199.png,Hull,grass,False,13
526,200,462.0,13495.0,Turf Moor,Harry Potts Way,,53.789167,-2.230278,21944.0,https://cdn.sportmonks.com/images/soccer/venues/8/200.png,Burnley,grass,False,13
527,201,462.0,51663.0,Selhurst Park,Holmesdale Road,,51.419728,-0.502059,25073.0,https://cdn.sportmonks.com/images/soccer/venues/9/201.png,London,grass,False,13
528,203,462.0,56966.0,Riverside Stadium,Dockside Road,,54.578333,-1.216944,34988.0,https://cdn.sportmonks.com/images/soccer/venues/11/203.png,Middlesbrough,grass,False,13
529,204,462.0,51663.0,Emirates Stadium,"Arsenal Football Club Highbury House 75 Drayton Park London, N5 1BU",,51.556667,-0.106111,60260.0,https://cdn.sportmonks.com/images/soccer/venues/12/204.png,London,grass,False,13
530,206,462.0,53964.0,Old Trafford,Sir Matt Busby Way,,53.463056,-2.291389,74879.0,https://cdn.sportmonks.com/images/soccer/venues/14/206.png,Manchester,grass,False,13
531,207,462.0,86587.0,Bet365 Stadium,Stanley Matthews Way,,52.988333,-2.175556,30089.0,https://cdn.sportmonks.com/images/soccer/venues/15/207.png,Stoke,grass,False,13
532,208,462.0,87866.0,Swansea.com Stadium,Normandy Road,,51.642200,-3.935100,20827.0,https://cdn.sportmonks.com/images/soccer/venues/16/208.png,Swansea,grass,False,13
533,209,462.0,51663.0,White Hart Lane,"Bill Nicholson Way, 748 High Road",,51.604900,-0.095763,36284.0,https://cdn.sportmonks.com/images/soccer/venues/17/209.png,London,grass,False,13
534,212,462.0,87471.0,Stadium of Light,Millenium Way,,54.914040,-1.388983,49000.0,https://cdn.sportmonks.com/images/soccer/venues/20/212.png,Sunderland,grass,False,13
535,214,462.0,51663.0,London Stadium,"Marshgate Lane, Stratford",,51.538611,-0.016389,60000.0,https://cdn.sportmonks.com/images/soccer/venues/22/214.png,London,grass,False,13
536,230,462.0,51090.0,Anfield,Anfield Road,,53.430833,-2.960833,60000.0,https://cdn.sportmonks.com/images/soccer/venues/6/230.png,Liverpool,grass,False,13
537,321614,462.0,51663.0,Stamford Bridge,Fulham Road,,51.481667,-0.191111,40341.0,https://cdn.sportmonks.com/images/soccer/venues/14/321614.png,London,grass,False,13
538,339729,462.0,97068.0,Vicarage Road (Watford),,,,,,,Watford,,False,13
539,53,11.0,60083.0,Allianz Arena,Werner-Heisenberg-Allee 25,80939,48.218819,11.624722,75000.0,https://cdn.sportmonks.com/images/soccer/venues/21/53.png,Munich,grass,False,219
540,66,11.0,22242.0,Jonathan-Heimes-Stadion am Böllenfalltor,Nieder-Ramstädter Straße 170,,49.8851869,8.6736295,1565.0,https://cdn.sportmonks.com/images/soccer/venues/2/66.png,Darmstadt,grass,False,219
541,80,11.0,99532.0,Volkswagen Arena,In den Allerwiesen 1,,52.431561,10.803541,30000.0,https://cdn.sportmonks.com/images/soccer/venues/16/80.png,Wolfsburg,grass,False,219
542,111,11.0,40105.0,Audi-Sportpark,Am Sportpark 1,,48.743317,11.483741,15200.0,https://cdn.sportmonks.com/images/soccer/venues/15/111.png,Ingolstadt,grass,False,219
543,180,11.0,58189.0,Stadion im Borussia-Park,Hennes-Weisweiler-Allee 1,,51.174722,6.385556,54057.0,https://cdn.sportmonks.com/images/soccer/venues/20/180.png,Mönchengladbach,grass,False,219
544,1610,11.0,35451.0,Volksparkstadion,"Sylvesterallee 7, Bahrenfeld 22525 Hamburg",,53.587357,9.899214,57000.0,https://cdn.sportmonks.com/images/soccer/venues/10/1610.png,Hamburg,grass,False,219
545,1618,11.0,83747.0,PreZero Arena,Dietmar-Hopp-Straße 1,,58.584300,16.173000,17234.0,https://cdn.sportmonks.com/images/soccer/venues/18/1618.png,Sinsheim,grass,False,219
546,1944,11.0,8622.0,Olympiastadion Berlin,"Westend, Charlottenburg-Wilmersdorf, Berlin",,52.514722,13.239444,74649.0,https://cdn.sportmonks.com/images/soccer/venues/24/1944.png,Berlin,grass,False,219
547,1946,11.0,19547.0,RheinEnergieStadion,Aachener Straße 999 50933 Cologne,,50.933611,6.875,50000.0,https://cdn.sportmonks.com/images/soccer/venues/26/1946.png,Cologne,grass,False,219
548,1947,11.0,50042.0,BayArena,"Leverkusen, North Rhine-Westphalia",,51.038333,7.002222,30210.0,https://cdn.sportmonks.com/images/soccer/venues/27/1947.png,Leverkusen,grass,False,219
549,2063,11.0,30088.0,Europa-Park Stadion,Schwarzwaldstraße 193,,47.988949,7.892944,34700.0,https://cdn.sportmonks.com/images/soccer/venues/15/2063.png,Freiburg im Breisgau,grass,False,219
550,2076,11.0,35451.0,Imtech Arena,,,,,57000.0,,Hamburg,,False,219
551,2103,11.0,53515.0,Mewa Arena,Eugen-Salomon-Straße 1,55128 Mainz,45.566547,18.657762,13005.0,https://cdn.sportmonks.com/images/core/venues/23/2103.png,Mainz,grass,False,219
552,2138,11.0,31497.0,Veltins-Arena,"Gelsenkirchen, North Rhine-Westphalia",,51.554444,7.0675,62271.0,https://cdn.sportmonks.com/images/soccer/venues/26/2138.png,Gelsenkirchen,grass,False,219
553,2165,11.0,4733.0,WWK Arena,Bürgermeister Ulrich-Straße 90,,48.323056,10.886111,30660.0,https://cdn.sportmonks.com/images/soccer/venues/21/2165.png,Augsburg,grass,False,219
554,2166,11.0,24229.0,Signal Iduna Park,"Strobelallee 50 44139 Dortmund, North Rhine-Westphalia",,51.4925,7.451667,81365.0,https://cdn.sportmonks.com/images/soccer/venues/22/2166.png,Dortmund,grass,False,219
555,2167,11.0,22242.0,Merck-Stadion am Böllenfalltor,Nieder-Ramstädter Straße 170,,49.857778,8.672222,17810.0,https://cdn.sportmonks.com/images/soccer/venues/23/2167.png,Darmstadt,grass,False,219
556,2169,11.0,29901.0,Commerzbank-Arena,Mörfelder Landstr. 362,,50.0686082253967,8.645482727139177,48000.0,https://cdn.sportmonks.com/images/soccer/venues/25/2169.png,Frankfurt am Main,grass,False,219
557,2171,11.0,49522.0,Leipzig Arena,"Am Sportforum 3 Leipzig, Saxony",,51.34575,12.348278,30188.0,https://cdn.sportmonks.com/images/soccer/venues/27/2171.png,Leipzig,grass,False,219
558,2172,11.0,11918.0,Weserstadion,Franz-Böhmert-Straße 1c,,53.063611,8.842861,5500.0,https://cdn.sportmonks.com/images/soccer/venues/28/2172.png,Bremen,grass,False,219
559,232157,32.0,54441.0,Campo La Quinta,,,49.238312,8.887622,30150.0,,Marbella,,False,219
560,128,251.0,14002.0,Stadio Sant'Elia,Via Vespucci,,39.199394,9.134953,16074.0,https://cdn.sportmonks.com/images/soccer/venues/0/128.png,Cagliari,grass,False,802
561,134,251.0,60878.0,Stadio Diego Armando Maradona,"Naples, Campania, Italy",,40.827967,14.193008,60240.0,https://cdn.sportmonks.com/images/soccer/venues/6/134.png,Napoli,grass,False,802
562,142,251.0,91001.0,Stadio Olimpico Grande Torino,"Corso Sebastopoli 123, Santa Rita",,45.0677551,7.6824892,36599.0,https://cdn.sportmonks.com/images/soccer/venues/14/142.png,Torino,grass,False,802
563,193,251.0,8530.0,Gewiss Stadium,Bergamo,,45.708889,9.680833,26393.0,https://cdn.sportmonks.com/images/soccer/venues/1/193.png,Bergamo,grass,False,802
564,443,251.0,94537.0,Stadio Marc'Antonio Bentegodi,Piazzale Olimpia,,45.435356,10.968647,39045.0,https://cdn.sportmonks.com/images/soccer/venues/27/443.png,Verona,grass,False,802
565,510,251.0,66701.0,Stadio Renzo Barbera,"Viale del Fante, 11",,,,36349.0,https://cdn.sportmonks.com/images/soccer/venues/30/510.png,Palermo,grass,False,802
566,598,251.0,68372.0,Stadio Adriatico-Giovanni Cornacchia,Via Pepe,,42.455278,14.229444,20515.0,https://cdn.sportmonks.com/images/soccer/venues/22/598.png,Pescara,grass,False,802
567,1613,251.0,73668.0,MAPEI Stadium - Città del Tricolore,"Piazza Azzuri d'Italia, 1",,44.714722,10.649722,21584.0,https://cdn.sportmonks.com/images/soccer/venues/13/1613.png,Reggio Emilia,grass,False,802
568,1721,251.0,57165.0,Stadio Giuseppe Meazza,"Piazzale Angelo Moratti, 20151",,45.478056,9.123889,80018.0,https://cdn.sportmonks.com/images/soccer/venues/25/1721.png,Milano,grass,False,802
569,5515,251.0,10632.0,Stadio Renato Dall'Ara,"Via Andrea Costa, 174",,44.492314,11.309667,38279.0,https://cdn.sportmonks.com/images/soccer/venues/11/5515.png,Bologna,grass,False,802
570,7189,251.0,75333.0,Stadio Olimpico,Viale dello Stadio Olimpico Rome,,1.481513,103.61912,72698.0,,Roma,grass,False,802
571,7220,251.0,26843.0,Stadio Carlo Castellani,Viale delle Olimpiadi,,43.7194884,10.9458556,16284.0,https://cdn.sportmonks.com/images/soccer/venues/20/7220.png,Empoli,grass,False,802
572,7223,251.0,29168.0,Stadio Artemio Franchi,Viale Manfredo Fanti 14,,43.7492999,11.2385374,43147.0,https://cdn.sportmonks.com/images/soccer/venues/23/7223.png,Firenze,grass,False,802
573,7224,251.0,92619.0,Dacia Arena,"Piazza le Repubblica Argentina, 3",,46.081603,13.200136,25132.0,https://cdn.sportmonks.com/images/soccer/venues/24/7224.png,Udine,grass,False,802
574,7339,251.0,21190.0,Stadio Ezio Scida,Via Cutro,,39.0806223,17.127196,16640.0,https://cdn.sportmonks.com/images/soccer/venues/11/7339.png,Crotone,grass,False,802
575,118500,251.0,91001.0,Allianz Stadium,Strada Comunale di Altessano 131,,44.977778,7.616111,400.0,https://cdn.sportmonks.com/images/soccer/venues/4/118500.png,Torino,grass,False,802
576,39,,,Estadio Municipal de Riazor,Calle Manuel Murguía,,43.368733,-8.417508,34600.0,https://cdn.sportmonks.com/images/soccer/venues/7/39.png,La Coruña,grass,False,853
577,56,32.0,66890.0,Estadio El Sadar,Carretera El Sadar,,42.796667,-1.636944,23576.0,https://cdn.sportmonks.com/images/soccer/venues/24/56.png,Pamplona,grass,False,853
578,68,32.0,82287.0,Estadio Benito Villamarín,Avenida de Heliópolis,,37.356403,-5.981611,60721.0,https://cdn.sportmonks.com/images/soccer/venues/4/68.png,Sevilla,grass,False,853
579,133,32.0,79248.0,Anoeta Stadium,Paseo de Anoeta 1,,43.301389,-1.973611,39500.0,https://cdn.sportmonks.com/images/soccer/venues/5/133.png,San Sebastián,grass,False,853
580,177,32.0,82287.0,Estadio Ramón Sánchez Pizjuán,Avenida de Eduardo Dato,,37.384,-5.9705,42714.0,https://cdn.sportmonks.com/images/soccer/venues/17/177.png,Sevilla,grass,False,853
581,293,32.0,49422.0,Estadio Municipal de Butarque,Calle Arquitectura,,40.3404,-3.7607,12454.0,https://cdn.sportmonks.com/images/soccer/venues/5/293.png,Leganés,grass,False,853
582,1716,32.0,48633.0,Estadio de Gran Canaria,Avenida Pío XII 29,,28.1288694,-15.4349015,32400.0,https://cdn.sportmonks.com/images/soccer/venues/20/1716.png,Las Palmas de Gran Canaria,grass,False,853
583,1747,32.0,95601.0,Estadio de Mendizorroza,"Paseo de Cervantes , s/n, 01007 Vitoria , Álava",,42.837111,-2.688044,19840.0,https://cdn.sportmonks.com/images/soccer/venues/19/1747.png,Gasteiz,grass,False,853
584,2020,32.0,53253.0,Estadio Santiago Bernabéu,"Avenida de Concha Espina 1, Chamartín",,40.453056,-3.688333,84744.0,https://cdn.sportmonks.com/images/soccer/venues/4/2020.png,Madrid,grass,False,853
585,2028,32.0,95196.0,Estadio de la Cerámica,Plaza Labrador,,39.944167,-0.103611,23500.0,https://cdn.sportmonks.com/images/soccer/venues/12/2028.png,Villarreal,grass,False,853
586,5188,353.0,53252.0,Estadio Vicente Calderón,Paseo Virgen del Puerto 67,,40.40171,-3.72059,54907.0,https://cdn.sportmonks.com/images/soccer/venues/4/5188.png,Madrid,grass,False,853
587,9162,32.0,9360.0,San Mamés Barria,Rafael Moreno Pitxitxi Kalea,,43.2643,-2.9504,53331.0,https://cdn.sportmonks.com/images/soccer/venues/10/9162.png,Bilbao,grass,False,853
588,9220,32.0,20272.0,Power8 Stadium,,,41.355724,2.0706225,,,Cornella de Llobregat,,False,853
589,9224,32.0,31948.0,Estadio Municipal El Molinón,,,43.536284,-5.637397,30000.0,https://cdn.sportmonks.com/images/core/venues/8/9224.png,Gijón,grass,False,853
590,9233,32.0,53654.0,Estadio La Rosaleda,Avenida de la Palmilla / Paseo de Martiricos,,36.7342,-4.4266,30044.0,https://cdn.sportmonks.com/images/soccer/venues/17/9233.png,Málaga,grass,False,853
591,9236,32.0,6590.0,Camp Nou,"Barcelona, Catalonia",,41.380833,2.122778,105000.0,https://cdn.sportmonks.com/images/soccer/venues/20/9236.png,Barcelona,grass,False,853
592,9237,32.0,33291.0,Estadio Nuevo Los Cármenes,Calle Pintor Manuel Maldonado,,37.152967,-3.595736,22524.0,https://cdn.sportmonks.com/images/soccer/venues/21/9237.png,Granada,grass,False,853
593,9239,32.0,94886.0,Estadio de Balaídos,Avenida de Balaídos,,42.211861,-8.740328,31800.0,https://cdn.sportmonks.com/images/soccer/venues/23/9239.png,Vigo,grass,False,853
594,9240,32.0,93634.0,Estadio de Mestalla,Avenida de Suecia,,39.474722,-0.358333,49430.0,https://cdn.sportmonks.com/images/soccer/venues/24/9240.png,Valencia,grass,False,853
595,9242,32.0,26009.0,Estadio Municipal de Ipurúa,Calle de Ipurúa,,43.181706,-2.475803,8050.0,https://cdn.sportmonks.com/images/soccer/venues/26/9242.png,Eibar,grass,False,853
596,12,462.0,51090.0,Goodison Park,Goodison Road,L4 4EL,53.43881,-2.96625,39571.0,https://cdn.sportmonks.com/images/core/venues/12/12.png,Liverpool,grass,False,6397
597,117,462.0,49478.0,King Power Stadium,Filbert Way,,52.748842,-1.180278,32312.0,https://cdn.sportmonks.com/images/soccer/venues/21/117.png,Leicester,grass,False,6397
598,119,462.0,97813.0,The Hawthorns,Halfords Lane,,52.509167,-1.963889,26688.0,https://cdn.sportmonks.com/images/soccer/venues/23/119.png,West Bromwich,grass,False,6397
599,146,462.0,11311.0,Vitality Stadium,"Dean Court, Kings Park",,50.7352,-1.83833,11700.0,https://cdn.sportmonks.com/images/soccer/venues/18/146.png,Bournemouth,grass,False,6397
600,151,462.0,53964.0,Etihad Stadium,Etihad Campus Manchester M11 3FF,,53.483056,-2.200278,53400.0,https://cdn.sportmonks.com/images/soccer/venues/23/151.png,Manchester,grass,False,6397
601,167,462.0,85225.0,St. Mary's Stadium,Britannia Road,,50.903496386,-1.387998448,32384.0,https://cdn.sportmonks.com/images/soccer/venues/7/167.png,Southampton,grass,False,6397
602,200,462.0,13495.0,Turf Moor,Harry Potts Way,,53.789167,-2.230278,21944.0,https://cdn.sportmonks.com/images/soccer/venues/8/200.png,Burnley,grass,False,6397
603,201,462.0,51663.0,Selhurst Park,Holmesdale Road,,51.419728,-0.502059,25073.0,https://cdn.sportmonks.com/images/soccer/venues/9/201.png,London,grass,False,6397
604,204,462.0,51663.0,Emirates Stadium,"Arsenal Football Club Highbury House 75 Drayton Park London, N5 1BU",,51.556667,-0.106111,60260.0,https://cdn.sportmonks.com/images/soccer/venues/12/204.png,London,grass,False,6397
605,206,462.0,53964.0,Old Trafford,Sir Matt Busby Way,,53.463056,-2.291389,74879.0,https://cdn.sportmonks.com/images/soccer/venues/14/206.png,Manchester,grass,False,6397
606,207,462.0,86587.0,Bet365 Stadium,Stanley Matthews Way,,52.988333,-2.175556,30089.0,https://cdn.sportmonks.com/images/soccer/venues/15/207.png,Stoke,grass,False,6397
607,208,462.0,87866.0,Swansea.com Stadium,Normandy Road,,51.642200,-3.935100,20827.0,https://cdn.sportmonks.com/images/soccer/venues/16/208.png,Swansea,grass,False,6397
608,214,462.0,51663.0,London Stadium,"Marshgate Lane, Stratford",,51.538611,-0.016389,60000.0,https://cdn.sportmonks.com/images/soccer/venues/22/214.png,London,grass,False,6397
609,230,462.0,51090.0,Anfield,Anfield Road,,53.430833,-2.960833,60000.0,https://cdn.sportmonks.com/images/soccer/venues/6/230.png,Liverpool,grass,False,6397
610,340,462.0,39080.0,The John Smith's Stadium,Stadium Way,,"53.654167,",-1.768333,24500.0,https://cdn.sportmonks.com/images/soccer/venues/20/340.png,Huddersfield,grass,False,6397
611,449,462.0,62163.0,St. James' Park,St. James' Street,,55.009300,-1.564070,3500.0,https://cdn.sportmonks.com/images/soccer/venues/1/449.png,Newcastle upon Tyne,grass,False,6397
612,480,462.0,28137.0,The American Express Community Stadium,Village Way,,50.861822,-0.083278,30750.0,https://cdn.sportmonks.com/images/soccer/venues/0/480.png,Falmer,grass,False,6397
613,1315,462.0,51663.0,Wembley Stadium,South Way,Wembley HA9 0WS,51.555556,-0.279444,90000.0,https://cdn.sportmonks.com/images/soccer/venues/3/1315.png,London,grass,False,6397
614,282066,462.0,20890.0,Broadfield Stadium,Brighton Road,,51.099706,-0.194767,31876.0,https://cdn.sportmonks.com/images/soccer/venues/18/282066.png,Crawley,grass,False,6397
615,321614,462.0,51663.0,Stamford Bridge,Fulham Road,,51.481667,-0.191111,40341.0,https://cdn.sportmonks.com/images/soccer/venues/14/321614.png,London,grass,False,6397
616,339729,462.0,97068.0,Vicarage Road (Watford),,,,,,,Watford,,False,6397
617,53,11.0,60083.0,Allianz Arena,Werner-Heisenberg-Allee 25,80939,48.218819,11.624722,75000.0,https://cdn.sportmonks.com/images/soccer/venues/21/53.png,Munich,grass,False,8026
618,80,11.0,99532.0,Volkswagen Arena,In den Allerwiesen 1,,52.431561,10.803541,30000.0,https://cdn.sportmonks.com/images/soccer/venues/16/80.png,Wolfsburg,grass,False,8026
619,180,11.0,58189.0,Stadion im Borussia-Park,Hennes-Weisweiler-Allee 1,,51.174722,6.385556,54057.0,https://cdn.sportmonks.com/images/soccer/venues/20/180.png,Mönchengladbach,grass,False,8026
620,1531,11.0,35676.0,HDI Arena,Robert-Enke-Str. 3,,52.357296,9.733443,49200.0,https://cdn.sportmonks.com/images/soccer/venues/27/1531.png,Hannover,grass,False,8026
621,1610,11.0,35451.0,Volksparkstadion,"Sylvesterallee 7, Bahrenfeld 22525 Hamburg",,53.587357,9.899214,57000.0,https://cdn.sportmonks.com/images/soccer/venues/10/1610.png,Hamburg,grass,False,8026
622,1618,11.0,83747.0,PreZero Arena,Dietmar-Hopp-Straße 1,,58.584300,16.173000,17234.0,https://cdn.sportmonks.com/images/soccer/venues/18/1618.png,Sinsheim,grass,False,8026
623,1944,11.0,8622.0,Olympiastadion Berlin,"Westend, Charlottenburg-Wilmersdorf, Berlin",,52.514722,13.239444,74649.0,https://cdn.sportmonks.com/images/soccer/venues/24/1944.png,Berlin,grass,False,8026
624,1945,11.0,87094.0,MHPArena,Mercedesstraße 87,70372,48.792222,9.231944,60449.0,https://cdn.sportmonks.com/images/core/venues/25/1945.png,Stuttgart,grass,False,8026
625,1946,11.0,19547.0,RheinEnergieStadion,Aachener Straße 999 50933 Cologne,,50.933611,6.875,50000.0,https://cdn.sportmonks.com/images/soccer/venues/26/1946.png,Cologne,grass,False,8026
626,1947,11.0,50042.0,BayArena,"Leverkusen, North Rhine-Westphalia",,51.038333,7.002222,30210.0,https://cdn.sportmonks.com/images/soccer/venues/27/1947.png,Leverkusen,grass,False,8026
627,2063,11.0,30088.0,Europa-Park Stadion,Schwarzwaldstraße 193,,47.988949,7.892944,34700.0,https://cdn.sportmonks.com/images/soccer/venues/15/2063.png,Freiburg im Breisgau,grass,False,8026
628,2103,11.0,53515.0,Mewa Arena,Eugen-Salomon-Straße 1,55128 Mainz,45.566547,18.657762,13005.0,https://cdn.sportmonks.com/images/core/venues/23/2103.png,Mainz,grass,False,8026
629,2138,11.0,31497.0,Veltins-Arena,"Gelsenkirchen, North Rhine-Westphalia",,51.554444,7.0675,62271.0,https://cdn.sportmonks.com/images/soccer/venues/26/2138.png,Gelsenkirchen,grass,False,8026
630,2140,11.0,54823.0,Stadion am Bad Großfeld,Am Stadtbad,,51.345833,12.348056,42558.0,https://cdn.sportmonks.com/images/soccer/venues/28/2140.png,Markranstädt,grass,False,8026
631,2165,11.0,4733.0,WWK Arena,Bürgermeister Ulrich-Straße 90,,48.323056,10.886111,30660.0,https://cdn.sportmonks.com/images/soccer/venues/21/2165.png,Augsburg,grass,False,8026
632,2166,11.0,24229.0,Signal Iduna Park,"Strobelallee 50 44139 Dortmund, North Rhine-Westphalia",,51.4925,7.451667,81365.0,https://cdn.sportmonks.com/images/soccer/venues/22/2166.png,Dortmund,grass,False,8026
633,2169,11.0,29901.0,Commerzbank-Arena,Mörfelder Landstr. 362,,50.0686082253967,8.645482727139177,48000.0,https://cdn.sportmonks.com/images/soccer/venues/25/2169.png,Frankfurt am Main,grass,False,8026
634,2171,11.0,49522.0,Leipzig Arena,"Am Sportforum 3 Leipzig, Saxony",,51.34575,12.348278,30188.0,https://cdn.sportmonks.com/images/soccer/venues/27/2171.png,Leipzig,grass,False,8026
635,2172,11.0,11918.0,Weserstadion,Franz-Böhmert-Straße 1c,,53.063611,8.842861,5500.0,https://cdn.sportmonks.com/images/soccer/venues/28/2172.png,Bremen,grass,False,8026
636,2637,11.0,49522.0,Trainingszentrum RB Leipzig Platz 1,,,51.342429,12.340448,42558.0,,Leipzig,,False,8026
637,232157,32.0,54441.0,Campo La Quinta,,,49.238312,8.887622,30150.0,,Marbella,,False,8026
638,339831,11.0,11918.0,Wohninvest Weserstadion,,,53.066389,8.8375,42100.0,https://cdn.sportmonks.com/images/core/venues/23/339831.png,Bremen,grass,False,8026
639,39,,,Estadio Municipal de Riazor,Calle Manuel Murguía,,43.368733,-8.417508,34600.0,https://cdn.sportmonks.com/images/soccer/venues/7/39.png,La Coruña,grass,False,8442
640,68,32.0,82287.0,Estadio Benito Villamarín,Avenida de Heliópolis,,37.356403,-5.981611,60721.0,https://cdn.sportmonks.com/images/soccer/venues/4/68.png,Sevilla,grass,False,8442
641,133,32.0,79248.0,Anoeta Stadium,Paseo de Anoeta 1,,43.301389,-1.973611,39500.0,https://cdn.sportmonks.com/images/soccer/venues/5/133.png,San Sebastián,grass,False,8442
642,177,32.0,82287.0,Estadio Ramón Sánchez Pizjuán,Avenida de Eduardo Dato,,37.384,-5.9705,42714.0,https://cdn.sportmonks.com/images/soccer/venues/17/177.png,Sevilla,grass,False,8442
643,293,32.0,49422.0,Estadio Municipal de Butarque,Calle Arquitectura,,40.3404,-3.7607,12454.0,https://cdn.sportmonks.com/images/soccer/venues/5/293.png,Leganés,grass,False,8442
644,1716,32.0,48633.0,Estadio de Gran Canaria,Avenida Pío XII 29,,28.1288694,-15.4349015,32400.0,https://cdn.sportmonks.com/images/soccer/venues/20/1716.png,Las Palmas de Gran Canaria,grass,False,8442
645,1747,32.0,95601.0,Estadio de Mendizorroza,"Paseo de Cervantes , s/n, 01007 Vitoria , Álava",,42.837111,-2.688044,19840.0,https://cdn.sportmonks.com/images/soccer/venues/19/1747.png,Gasteiz,grass,False,8442
646,2015,32.0,93634.0,Estadio Ciudad de Valencia,Calle San Vicente de Paúl 44,,39.494722,-0.364167,24700.0,https://cdn.sportmonks.com/images/soccer/venues/31/2015.png,Valencia,grass,False,8442
647,2020,32.0,53253.0,Estadio Santiago Bernabéu,"Avenida de Concha Espina 1, Chamartín",,40.453056,-3.688333,84744.0,https://cdn.sportmonks.com/images/soccer/venues/4/2020.png,Madrid,grass,False,8442
648,2028,32.0,95196.0,Estadio de la Cerámica,Plaza Labrador,,39.944167,-0.103611,23500.0,https://cdn.sportmonks.com/images/soccer/venues/12/2028.png,Villarreal,grass,False,8442
649,9162,32.0,9360.0,San Mamés Barria,Rafael Moreno Pitxitxi Kalea,,43.2643,-2.9504,53331.0,https://cdn.sportmonks.com/images/soccer/venues/10/9162.png,Bilbao,grass,False,8442
650,9220,32.0,20272.0,Power8 Stadium,,,41.355724,2.0706225,,,Cornella de Llobregat,,False,8442
651,9233,32.0,53654.0,Estadio La Rosaleda,Avenida de la Palmilla / Paseo de Martiricos,,36.7342,-4.4266,30044.0,https://cdn.sportmonks.com/images/soccer/venues/17/9233.png,Málaga,grass,False,8442
652,9236,32.0,6590.0,Camp Nou,"Barcelona, Catalonia",,41.380833,2.122778,105000.0,https://cdn.sportmonks.com/images/soccer/venues/20/9236.png,Barcelona,grass,False,8442
653,9239,32.0,94886.0,Estadio de Balaídos,Avenida de Balaídos,,42.211861,-8.740328,31800.0,https://cdn.sportmonks.com/images/soccer/venues/23/9239.png,Vigo,grass,False,8442
654,9240,32.0,93634.0,Estadio de Mestalla,Avenida de Suecia,,39.474722,-0.358333,49430.0,https://cdn.sportmonks.com/images/soccer/venues/24/9240.png,Valencia,grass,False,8442
655,9242,32.0,26009.0,Estadio Municipal de Ipurúa,Calle de Ipurúa,,43.181706,-2.475803,8050.0,https://cdn.sportmonks.com/images/soccer/venues/26/9242.png,Eibar,grass,False,8442
656,9345,32.0,32079.0,Estadi Municipal de Montilivi,Avenida Montlivi 141,,41.961389,2.828611,14286.0,https://cdn.sportmonks.com/images/soccer/venues/1/9345.png,Girona,grass,False,8442
657,9351,32.0,31791.0,Coliseum Alfonso Pérez,Avenida de Teresa de Calcuta,,40.325556,-3.714722,17393.0,https://cdn.sportmonks.com/images/soccer/venues/7/9351.png,Getafe,grass,False,8442
658,72364,44.0,65022.0,Oliva Nova Golf & Beach Resort Campo 1,,,-32.0424889,-63.5670199,55000.0,,Oliva,,False,8442
659,140808,32.0,53252.0,Estadio Civitas Metropolitano,Madrid,,40.436111,-3.599444,70460.0,https://cdn.sportmonks.com/images/core/venues/8/140808.png,Madrid,grass,False,8442
660,309970,,,Estadio Abanca-Riazor,Calle Manuel Murguía,,43.368733,-8.417508,34600.0,https://cdn.sportmonks.com/images/soccer/venues/18/309970.png,La Coruña,grass,False,8442
661,340122,32.0,94886.0,Abanca-Balaídos (Vigo),,,42.211852,-8.739721,31800.0,,Vigo,,False,8442
662,86,251.0,31602.0,Stadio Comunale Luigi Ferraris,"Via Giovanni De Prà, 1",,38.234612,16.2558336,36599.0,https://cdn.sportmonks.com/images/soccer/venues/22/86.png,Genova,grass,False,8557
663,106,251.0,8292.0,Stadio Ciro Vigorito,Piazzale degli Atleti,,41.1295587,14.7824639,16867.0,https://cdn.sportmonks.com/images/soccer/venues/10/106.png,Benevento,grass,False,8557
664,134,251.0,60878.0,Stadio Diego Armando Maradona,"Naples, Campania, Italy",,40.827967,14.193008,60240.0,https://cdn.sportmonks.com/images/soccer/venues/6/134.png,Napoli,grass,False,8557
665,142,251.0,91001.0,Stadio Olimpico Grande Torino,"Corso Sebastopoli 123, Santa Rita",,45.0677551,7.6824892,36599.0,https://cdn.sportmonks.com/images/soccer/venues/14/142.png,Torino,grass,False,8557
666,193,251.0,8530.0,Gewiss Stadium,Bergamo,,45.708889,9.680833,26393.0,https://cdn.sportmonks.com/images/soccer/venues/1/193.png,Bergamo,grass,False,8557
667,443,251.0,94537.0,Stadio Marc'Antonio Bentegodi,Piazzale Olimpia,,45.435356,10.968647,39045.0,https://cdn.sportmonks.com/images/soccer/venues/27/443.png,Verona,grass,False,8557
668,1613,251.0,73668.0,MAPEI Stadium - Città del Tricolore,"Piazza Azzuri d'Italia, 1",,44.714722,10.649722,21584.0,https://cdn.sportmonks.com/images/soccer/venues/13/1613.png,Reggio Emilia,grass,False,8557
669,1721,251.0,57165.0,Stadio Giuseppe Meazza,"Piazzale Angelo Moratti, 20151",,45.478056,9.123889,80018.0,https://cdn.sportmonks.com/images/soccer/venues/25/1721.png,Milano,grass,False,8557
670,5515,251.0,10632.0,Stadio Renato Dall'Ara,"Via Andrea Costa, 174",,44.492314,11.309667,38279.0,https://cdn.sportmonks.com/images/soccer/venues/11/5515.png,Bologna,grass,False,8557
671,7189,251.0,75333.0,Stadio Olimpico,Viale dello Stadio Olimpico Rome,,1.481513,103.61912,72698.0,,Roma,grass,False,8557
672,7223,251.0,29168.0,Stadio Artemio Franchi,Viale Manfredo Fanti 14,,43.7492999,11.2385374,43147.0,https://cdn.sportmonks.com/images/soccer/venues/23/7223.png,Firenze,grass,False,8557
673,7224,251.0,92619.0,Dacia Arena,"Piazza le Repubblica Argentina, 3",,46.081603,13.200136,25132.0,https://cdn.sportmonks.com/images/soccer/venues/24/7224.png,Udine,grass,False,8557
674,7316,251.0,28678.0,Stadio Paolo Mazza,"Corso Piave, 28",,44.8372737,11.6186451,17900.0,https://cdn.sportmonks.com/images/soccer/venues/20/7316.png,Ferrara,grass,False,8557
675,7339,251.0,21190.0,Stadio Ezio Scida,Via Cutro,,39.0806223,17.127196,16640.0,https://cdn.sportmonks.com/images/soccer/venues/11/7339.png,Crotone,grass,False,8557
676,118500,251.0,91001.0,Allianz Stadium,Strada Comunale di Altessano 131,,44.977778,7.616111,400.0,https://cdn.sportmonks.com/images/soccer/venues/4/118500.png,Torino,grass,False,8557
677,160319,251.0,14002.0,Sardegna Arena,Via Raimondo Carta Raspi,,39.2171994,9.113311,16416.0,,Cagliari,grass,False,8557
678,169373,251.0,95454.0,Juventus Training Center,,,44.977778,7.616111,41507.0,,Vinovo,,False,8557
679,338840,251.0,29487.0,Centro Sportivo Lazio,,,41.933886,12.454786,68000.0,,Formello,grass,False,8557
680,338891,,,Stadio Comunale Gino Bozzi,"Via Stefano Borgonovo, Galluzzo",,43.7492999,11.2385374,47300.0,,Firenze,artificial turf,False,8557
681,339118,251.0,28678.0,Centro Sportivo Giovan Battista Fabbri,Via Copparo,,44.8372737,11.6186451,17900.0,,Ferrara,grass,False,8557
682,5,462.0,9576.0,Villa Park,"Trinity Road, Birmingham B6 6HE",,52.509167,-1.884722,42640.0,https://cdn.sportmonks.com/images/core/venues/5/5.png,Birmingham,grass,False,10
683,12,462.0,51090.0,Goodison Park,Goodison Road,L4 4EL,53.43881,-2.96625,39571.0,https://cdn.sportmonks.com/images/core/venues/12/12.png,Liverpool,grass,False,10
684,13,462.0,86587.0,Britannia Stadium,,,,,30089.0,,Stoke,,False,10
685,117,462.0,49478.0,King Power Stadium,Filbert Way,,52.748842,-1.180278,32312.0,https://cdn.sportmonks.com/images/soccer/venues/21/117.png,Leicester,grass,False,10
686,119,462.0,97813.0,The Hawthorns,Halfords Lane,,52.509167,-1.963889,26688.0,https://cdn.sportmonks.com/images/soccer/venues/23/119.png,West Bromwich,grass,False,10
687,146,462.0,11311.0,Vitality Stadium,"Dean Court, Kings Park",,50.7352,-1.83833,11700.0,https://cdn.sportmonks.com/images/soccer/venues/18/146.png,Bournemouth,grass,False,10
688,167,462.0,85225.0,St. Mary's Stadium,Britannia Road,,50.903496386,-1.387998448,32384.0,https://cdn.sportmonks.com/images/soccer/venues/7/167.png,Southampton,grass,False,10
689,201,462.0,51663.0,Selhurst Park,Holmesdale Road,,51.419728,-0.502059,25073.0,https://cdn.sportmonks.com/images/soccer/venues/9/201.png,London,grass,False,10
690,204,462.0,51663.0,Emirates Stadium,"Arsenal Football Club Highbury House 75 Drayton Park London, N5 1BU",,51.556667,-0.106111,60260.0,https://cdn.sportmonks.com/images/soccer/venues/12/204.png,London,grass,False,10
691,206,462.0,53964.0,Old Trafford,Sir Matt Busby Way,,53.463056,-2.291389,74879.0,https://cdn.sportmonks.com/images/soccer/venues/14/206.png,Manchester,grass,False,10
692,207,462.0,86587.0,Bet365 Stadium,Stanley Matthews Way,,52.988333,-2.175556,30089.0,https://cdn.sportmonks.com/images/soccer/venues/15/207.png,Stoke,grass,False,10
693,208,462.0,87866.0,Swansea.com Stadium,Normandy Road,,51.642200,-3.935100,20827.0,https://cdn.sportmonks.com/images/soccer/venues/16/208.png,Swansea,grass,False,10
694,209,462.0,51663.0,White Hart Lane,"Bill Nicholson Way, 748 High Road",,51.604900,-0.095763,36284.0,https://cdn.sportmonks.com/images/soccer/venues/17/209.png,London,grass,False,10
695,212,462.0,87471.0,Stadium of Light,Millenium Way,,54.914040,-1.388983,49000.0,https://cdn.sportmonks.com/images/soccer/venues/20/212.png,Sunderland,grass,False,10
696,214,462.0,51663.0,London Stadium,"Marshgate Lane, Stratford",,51.538611,-0.016389,60000.0,https://cdn.sportmonks.com/images/soccer/venues/22/214.png,London,grass,False,10
697,230,462.0,51090.0,Anfield,Anfield Road,,53.430833,-2.960833,60000.0,https://cdn.sportmonks.com/images/soccer/venues/6/230.png,Liverpool,grass,False,10
698,489,462.0,63475.0,Carrow Road,Carrow Road,,52.622222,1.309167,27244.0,https://cdn.sportmonks.com/images/soccer/venues/9/489.png,Norwich,grass,False,10
699,321614,462.0,51663.0,Stamford Bridge,Fulham Road,,51.481667,-0.191111,40341.0,https://cdn.sportmonks.com/images/soccer/venues/14/321614.png,London,grass,False,10
700,339729,462.0,97068.0,Vicarage Road (Watford),,,,,,,Watford,,False,10
701,4,462.0,51663.0,Boleyn Ground,"Upton Park London, E13 England",,51.509865,-0.118092,35016.0,https://cdn.sportmonks.com/images/core/venues/4/4.png,London,grass,False,12
702,5,462.0,9576.0,Villa Park,"Trinity Road, Birmingham B6 6HE",,52.509167,-1.884722,42640.0,https://cdn.sportmonks.com/images/core/venues/5/5.png,Birmingham,grass,False,12
703,12,462.0,51090.0,Goodison Park,Goodison Road,L4 4EL,53.43881,-2.96625,39571.0,https://cdn.sportmonks.com/images/core/venues/12/12.png,Liverpool,grass,False,12
704,13,462.0,86587.0,Britannia Stadium,,,,,30089.0,,Stoke,,False,12
705,117,462.0,49478.0,King Power Stadium,Filbert Way,,52.748842,-1.180278,32312.0,https://cdn.sportmonks.com/images/soccer/venues/21/117.png,Leicester,grass,False,12
706,119,462.0,97813.0,The Hawthorns,Halfords Lane,,52.509167,-1.963889,26688.0,https://cdn.sportmonks.com/images/soccer/venues/23/119.png,West Bromwich,grass,False,12
707,167,462.0,85225.0,St. Mary's Stadium,Britannia Road,,50.903496386,-1.387998448,32384.0,https://cdn.sportmonks.com/images/soccer/venues/7/167.png,Southampton,grass,False,12
708,199,462.0,39201.0,KCOM Stadium,Walton Street / Anlaby Road,,45.4405842,-75.7326823,25586.0,https://cdn.sportmonks.com/images/soccer/venues/7/199.png,Hull,grass,False,12
709,200,462.0,13495.0,Turf Moor,Harry Potts Way,,53.789167,-2.230278,21944.0,https://cdn.sportmonks.com/images/soccer/venues/8/200.png,Burnley,grass,False,12
710,201,462.0,51663.0,Selhurst Park,Holmesdale Road,,51.419728,-0.502059,25073.0,https://cdn.sportmonks.com/images/soccer/venues/9/201.png,London,grass,False,12
711,204,462.0,51663.0,Emirates Stadium,"Arsenal Football Club Highbury House 75 Drayton Park London, N5 1BU",,51.556667,-0.106111,60260.0,https://cdn.sportmonks.com/images/soccer/venues/12/204.png,London,grass,False,12
712,206,462.0,53964.0,Old Trafford,Sir Matt Busby Way,,53.463056,-2.291389,74879.0,https://cdn.sportmonks.com/images/soccer/venues/14/206.png,Manchester,grass,False,12
713,207,462.0,86587.0,Bet365 Stadium,Stanley Matthews Way,,52.988333,-2.175556,30089.0,https://cdn.sportmonks.com/images/soccer/venues/15/207.png,Stoke,grass,False,12
714,208,462.0,87866.0,Swansea.com Stadium,Normandy Road,,51.642200,-3.935100,20827.0,https://cdn.sportmonks.com/images/soccer/venues/16/208.png,Swansea,grass,False,12
715,209,462.0,51663.0,White Hart Lane,"Bill Nicholson Way, 748 High Road",,51.604900,-0.095763,36284.0,https://cdn.sportmonks.com/images/soccer/venues/17/209.png,London,grass,False,12
716,212,462.0,87471.0,Stadium of Light,Millenium Way,,54.914040,-1.388983,49000.0,https://cdn.sportmonks.com/images/soccer/venues/20/212.png,Sunderland,grass,False,12
717,214,462.0,51663.0,London Stadium,"Marshgate Lane, Stratford",,51.538611,-0.016389,60000.0,https://cdn.sportmonks.com/images/soccer/venues/22/214.png,London,grass,False,12
718,230,462.0,51090.0,Anfield,Anfield Road,,53.430833,-2.960833,60000.0,https://cdn.sportmonks.com/images/soccer/venues/6/230.png,Liverpool,grass,False,12
719,491,462.0,51663.0,MATRADE Loftus Road,"South Africa Road, Shepherd's Bush",W12 7PJ,51.509865,-0.118092,18500.0,https://cdn.sportmonks.com/images/soccer/venues/11/491.png,London,grass,False,12
720,321614,462.0,51663.0,Stamford Bridge,Fulham Road,,51.481667,-0.191111,40341.0,https://cdn.sportmonks.com/images/soccer/venues/14/321614.png,London,grass,False,12
721,53,11.0,60083.0,Allianz Arena,Werner-Heisenberg-Allee 25,80939,48.218819,11.624722,75000.0,https://cdn.sportmonks.com/images/soccer/venues/21/53.png,Munich,grass,False,217
722,80,11.0,99532.0,Volkswagen Arena,In den Allerwiesen 1,,52.431561,10.803541,30000.0,https://cdn.sportmonks.com/images/soccer/venues/16/80.png,Wolfsburg,grass,False,217
723,180,11.0,58189.0,Stadion im Borussia-Park,Hennes-Weisweiler-Allee 1,,51.174722,6.385556,54057.0,https://cdn.sportmonks.com/images/soccer/venues/20/180.png,Mönchengladbach,grass,False,217
724,1531,11.0,35676.0,HDI Arena,Robert-Enke-Str. 3,,52.357296,9.733443,49200.0,https://cdn.sportmonks.com/images/soccer/venues/27/1531.png,Hannover,grass,False,217
725,1571,11.0,66460.0,Home Deluxe Arena,Paderborner Straße 89,,51.730698,8.711429,15000.0,https://cdn.sportmonks.com/images/soccer/venues/3/1571.png,Paderborn,grass,False,217
726,1944,11.0,8622.0,Olympiastadion Berlin,"Westend, Charlottenburg-Wilmersdorf, Berlin",,52.514722,13.239444,74649.0,https://cdn.sportmonks.com/images/soccer/venues/24/1944.png,Berlin,grass,False,217
727,1945,11.0,87094.0,MHPArena,Mercedesstraße 87,70372,48.792222,9.231944,60449.0,https://cdn.sportmonks.com/images/core/venues/25/1945.png,Stuttgart,grass,False,217
728,1946,11.0,19547.0,RheinEnergieStadion,Aachener Straße 999 50933 Cologne,,50.933611,6.875,50000.0,https://cdn.sportmonks.com/images/soccer/venues/26/1946.png,Cologne,grass,False,217
729,1947,11.0,50042.0,BayArena,"Leverkusen, North Rhine-Westphalia",,51.038333,7.002222,30210.0,https://cdn.sportmonks.com/images/soccer/venues/27/1947.png,Leverkusen,grass,False,217
730,2063,11.0,30088.0,Europa-Park Stadion,Schwarzwaldstraße 193,,47.988949,7.892944,34700.0,https://cdn.sportmonks.com/images/soccer/venues/15/2063.png,Freiburg im Breisgau,grass,False,217
731,2076,11.0,35451.0,Imtech Arena,,,,,57000.0,,Hamburg,,False,217
732,2103,11.0,53515.0,Mewa Arena,Eugen-Salomon-Straße 1,55128 Mainz,45.566547,18.657762,13005.0,https://cdn.sportmonks.com/images/core/venues/23/2103.png,Mainz,grass,False,217
733,2138,11.0,31497.0,Veltins-Arena,"Gelsenkirchen, North Rhine-Westphalia",,51.554444,7.0675,62271.0,https://cdn.sportmonks.com/images/soccer/venues/26/2138.png,Gelsenkirchen,grass,False,217
734,2142,,,Möslestadion,Waldseestraße 75,,47.983886,7.881081,5400.0,https://cdn.sportmonks.com/images/soccer/venues/30/2142.png,Freiburg im Breisgau,grass,False,217
735,2165,11.0,4733.0,WWK Arena,Bürgermeister Ulrich-Straße 90,,48.323056,10.886111,30660.0,https://cdn.sportmonks.com/images/soccer/venues/21/2165.png,Augsburg,grass,False,217
736,2166,11.0,24229.0,Signal Iduna Park,"Strobelallee 50 44139 Dortmund, North Rhine-Westphalia",,51.4925,7.451667,81365.0,https://cdn.sportmonks.com/images/soccer/venues/22/2166.png,Dortmund,grass,False,217
737,2169,11.0,29901.0,Commerzbank-Arena,Mörfelder Landstr. 362,,50.0686082253967,8.645482727139177,48000.0,https://cdn.sportmonks.com/images/soccer/venues/25/2169.png,Frankfurt am Main,grass,False,217
738,2172,11.0,11918.0,Weserstadion,Franz-Böhmert-Straße 1c,,53.063611,8.842861,5500.0,https://cdn.sportmonks.com/images/soccer/venues/28/2172.png,Bremen,grass,False,217
739,232157,32.0,54441.0,Campo La Quinta,,,49.238312,8.887622,30150.0,,Marbella,,False,217
740,53,11.0,60083.0,Allianz Arena,Werner-Heisenberg-Allee 25,80939,48.218819,11.624722,75000.0,https://cdn.sportmonks.com/images/soccer/venues/21/53.png,Munich,grass,False,218
741,80,11.0,99532.0,Volkswagen Arena,In den Allerwiesen 1,,52.431561,10.803541,30000.0,https://cdn.sportmonks.com/images/soccer/venues/16/80.png,Wolfsburg,grass,False,218
742,111,11.0,40105.0,Audi-Sportpark,Am Sportpark 1,,48.743317,11.483741,15200.0,https://cdn.sportmonks.com/images/soccer/venues/15/111.png,Ingolstadt,grass,False,218
743,180,11.0,58189.0,Stadion im Borussia-Park,Hennes-Weisweiler-Allee 1,,51.174722,6.385556,54057.0,https://cdn.sportmonks.com/images/soccer/venues/20/180.png,Mönchengladbach,grass,False,218
744,1531,11.0,35676.0,HDI Arena,Robert-Enke-Str. 3,,52.357296,9.733443,49200.0,https://cdn.sportmonks.com/images/soccer/venues/27/1531.png,Hannover,grass,False,218
745,1610,11.0,35451.0,Volksparkstadion,"Sylvesterallee 7, Bahrenfeld 22525 Hamburg",,53.587357,9.899214,57000.0,https://cdn.sportmonks.com/images/soccer/venues/10/1610.png,Hamburg,grass,False,218
746,1944,11.0,8622.0,Olympiastadion Berlin,"Westend, Charlottenburg-Wilmersdorf, Berlin",,52.514722,13.239444,74649.0,https://cdn.sportmonks.com/images/soccer/venues/24/1944.png,Berlin,grass,False,218
747,1945,11.0,87094.0,MHPArena,Mercedesstraße 87,70372,48.792222,9.231944,60449.0,https://cdn.sportmonks.com/images/core/venues/25/1945.png,Stuttgart,grass,False,218
748,1946,11.0,19547.0,RheinEnergieStadion,Aachener Straße 999 50933 Cologne,,50.933611,6.875,50000.0,https://cdn.sportmonks.com/images/soccer/venues/26/1946.png,Cologne,grass,False,218
749,1947,11.0,50042.0,BayArena,"Leverkusen, North Rhine-Westphalia",,51.038333,7.002222,30210.0,https://cdn.sportmonks.com/images/soccer/venues/27/1947.png,Leverkusen,grass,False,218
750,2103,11.0,53515.0,Mewa Arena,Eugen-Salomon-Straße 1,55128 Mainz,45.566547,18.657762,13005.0,https://cdn.sportmonks.com/images/core/venues/23/2103.png,Mainz,grass,False,218
751,2138,11.0,31497.0,Veltins-Arena,"Gelsenkirchen, North Rhine-Westphalia",,51.554444,7.0675,62271.0,https://cdn.sportmonks.com/images/soccer/venues/26/2138.png,Gelsenkirchen,grass,False,218
752,2165,11.0,4733.0,WWK Arena,Bürgermeister Ulrich-Straße 90,,48.323056,10.886111,30660.0,https://cdn.sportmonks.com/images/soccer/venues/21/2165.png,Augsburg,grass,False,218
753,2166,11.0,24229.0,Signal Iduna Park,"Strobelallee 50 44139 Dortmund, North Rhine-Westphalia",,51.4925,7.451667,81365.0,https://cdn.sportmonks.com/images/soccer/venues/22/2166.png,Dortmund,grass,False,218
754,2167,11.0,22242.0,Merck-Stadion am Böllenfalltor,Nieder-Ramstädter Straße 170,,49.857778,8.672222,17810.0,https://cdn.sportmonks.com/images/soccer/venues/23/2167.png,Darmstadt,grass,False,218
755,2169,11.0,29901.0,Commerzbank-Arena,Mörfelder Landstr. 362,,50.0686082253967,8.645482727139177,48000.0,https://cdn.sportmonks.com/images/soccer/venues/25/2169.png,Frankfurt am Main,grass,False,218
756,2172,11.0,11918.0,Weserstadion,Franz-Böhmert-Straße 1c,,53.063611,8.842861,5500.0,https://cdn.sportmonks.com/images/soccer/venues/28/2172.png,Bremen,grass,False,218
757,232157,32.0,54441.0,Campo La Quinta,,,49.238312,8.887622,30150.0,,Marbella,,False,218
758,128,251.0,14002.0,Stadio Sant'Elia,Via Vespucci,,39.199394,9.134953,16074.0,https://cdn.sportmonks.com/images/soccer/venues/0/128.png,Cagliari,grass,False,1583
759,134,251.0,60878.0,Stadio Diego Armando Maradona,"Naples, Campania, Italy",,40.827967,14.193008,60240.0,https://cdn.sportmonks.com/images/soccer/venues/6/134.png,Napoli,grass,False,1583
760,142,251.0,91001.0,Stadio Olimpico Grande Torino,"Corso Sebastopoli 123, Santa Rita",,45.0677551,7.6824892,36599.0,https://cdn.sportmonks.com/images/soccer/venues/14/142.png,Torino,grass,False,1583
761,193,251.0,8530.0,Gewiss Stadium,Bergamo,,45.708889,9.680833,26393.0,https://cdn.sportmonks.com/images/soccer/venues/1/193.png,Bergamo,grass,False,1583
762,443,251.0,94537.0,Stadio Marc'Antonio Bentegodi,Piazzale Olimpia,,45.435356,10.968647,39045.0,https://cdn.sportmonks.com/images/soccer/venues/27/443.png,Verona,grass,False,1583
763,510,251.0,66701.0,Stadio Renzo Barbera,"Viale del Fante, 11",,,,36349.0,https://cdn.sportmonks.com/images/soccer/venues/30/510.png,Palermo,grass,False,1583
764,527,251.0,16616.0,Orogel Stadium-Dino Manuzzi,"Via dello Stadio, 124",,44.136352,12.2422442,20194.0,https://cdn.sportmonks.com/images/soccer/venues/15/527.png,Cesena,artificial turf,False,1583
765,1613,251.0,73668.0,MAPEI Stadium - Città del Tricolore,"Piazza Azzuri d'Italia, 1",,44.714722,10.649722,21584.0,https://cdn.sportmonks.com/images/soccer/venues/13/1613.png,Reggio Emilia,grass,False,1583
766,1721,251.0,57165.0,Stadio Giuseppe Meazza,"Piazzale Angelo Moratti, 20151",,45.478056,9.123889,80018.0,https://cdn.sportmonks.com/images/soccer/venues/25/1721.png,Milano,grass,False,1583
767,7189,251.0,75333.0,Stadio Olimpico,Viale dello Stadio Olimpico Rome,,1.481513,103.61912,72698.0,,Roma,grass,False,1583
768,7220,251.0,26843.0,Stadio Carlo Castellani,Viale delle Olimpiadi,,43.7194884,10.9458556,16284.0,https://cdn.sportmonks.com/images/soccer/venues/20/7220.png,Empoli,grass,False,1583
769,7223,251.0,29168.0,Stadio Artemio Franchi,Viale Manfredo Fanti 14,,43.7492999,11.2385374,43147.0,https://cdn.sportmonks.com/images/soccer/venues/23/7223.png,Firenze,grass,False,1583
770,7224,251.0,92619.0,Dacia Arena,"Piazza le Repubblica Argentina, 3",,46.081603,13.200136,25132.0,https://cdn.sportmonks.com/images/soccer/venues/24/7224.png,Udine,grass,False,1583
771,118500,251.0,91001.0,Allianz Stadium,Strada Comunale di Altessano 131,,44.977778,7.616111,400.0,https://cdn.sportmonks.com/images/soccer/venues/4/118500.png,Torino,grass,False,1583
772,340049,251.0,67316.0,Stadio Ennio Tardini (Parma),,,44.8013678,10.3280833,,,Parma,,False,1583
773,134,251.0,60878.0,Stadio Diego Armando Maradona,"Naples, Campania, Italy",,40.827967,14.193008,60240.0,https://cdn.sportmonks.com/images/soccer/venues/6/134.png,Napoli,grass,False,1584
774,142,251.0,91001.0,Stadio Olimpico Grande Torino,"Corso Sebastopoli 123, Santa Rita",,45.0677551,7.6824892,36599.0,https://cdn.sportmonks.com/images/soccer/venues/14/142.png,Torino,grass,False,1584
775,152,251.0,92284.0,Juventus Stadium,"Corso Gaetano Scirea 50, 10151",,45.109444,7.641111,41507.0,https://cdn.sportmonks.com/images/soccer/venues/24/152.png,Torino,grass,False,1584
776,193,251.0,8530.0,Gewiss Stadium,Bergamo,,45.708889,9.680833,26393.0,https://cdn.sportmonks.com/images/soccer/venues/1/193.png,Bergamo,grass,False,1584
777,376,251.0,57939.0,Stadio Alberto Braglia,"Viale Monte Kosica, 128/134",,44.6458885,10.9255707,21151.0,https://cdn.sportmonks.com/images/soccer/venues/24/376.png,Modena,grass,False,1584
778,443,251.0,94537.0,Stadio Marc'Antonio Bentegodi,Piazzale Olimpia,,45.435356,10.968647,39045.0,https://cdn.sportmonks.com/images/soccer/venues/27/443.png,Verona,grass,False,1584
779,510,251.0,66701.0,Stadio Renzo Barbera,"Viale del Fante, 11",,,,36349.0,https://cdn.sportmonks.com/images/soccer/venues/30/510.png,Palermo,grass,False,1584
780,1613,251.0,73668.0,MAPEI Stadium - Città del Tricolore,"Piazza Azzuri d'Italia, 1",,44.714722,10.649722,21584.0,https://cdn.sportmonks.com/images/soccer/venues/13/1613.png,Reggio Emilia,grass,False,1584
781,1721,251.0,57165.0,Stadio Giuseppe Meazza,"Piazzale Angelo Moratti, 20151",,45.478056,9.123889,80018.0,https://cdn.sportmonks.com/images/soccer/venues/25/1721.png,Milano,grass,False,1584
782,2383,251.0,30345.0,Stadio Comunale Matusa,"Via Marittima, 2",,41.634441,13.336119,10000.0,https://cdn.sportmonks.com/images/soccer/venues/15/2383.png,Frosinone,grass,False,1584
783,5515,251.0,10632.0,Stadio Renato Dall'Ara,"Via Andrea Costa, 174",,44.492314,11.309667,38279.0,https://cdn.sportmonks.com/images/soccer/venues/11/5515.png,Bologna,grass,False,1584
784,7189,251.0,75333.0,Stadio Olimpico,Viale dello Stadio Olimpico Rome,,1.481513,103.61912,72698.0,,Roma,grass,False,1584
785,7220,251.0,26843.0,Stadio Carlo Castellani,Viale delle Olimpiadi,,43.7194884,10.9458556,16284.0,https://cdn.sportmonks.com/images/soccer/venues/20/7220.png,Empoli,grass,False,1584
786,7223,251.0,29168.0,Stadio Artemio Franchi,Viale Manfredo Fanti 14,,43.7492999,11.2385374,43147.0,https://cdn.sportmonks.com/images/soccer/venues/23/7223.png,Firenze,grass,False,1584
787,7224,251.0,92619.0,Dacia Arena,"Piazza le Repubblica Argentina, 3",,46.081603,13.200136,25132.0,https://cdn.sportmonks.com/images/soccer/venues/24/7224.png,Udine,grass,False,1584
788,118500,251.0,91001.0,Allianz Stadium,Strada Comunale di Altessano 131,,44.977778,7.616111,400.0,https://cdn.sportmonks.com/images/soccer/venues/4/118500.png,Torino,grass,False,1584
789,39,,,Estadio Municipal de Riazor,Calle Manuel Murguía,,43.368733,-8.417508,34600.0,https://cdn.sportmonks.com/images/soccer/venues/7/39.png,La Coruña,grass,False,2061
790,133,32.0,79248.0,Anoeta Stadium,Paseo de Anoeta 1,,43.301389,-1.973611,39500.0,https://cdn.sportmonks.com/images/soccer/venues/5/133.png,San Sebastián,grass,False,2061
791,177,32.0,82287.0,Estadio Ramón Sánchez Pizjuán,Avenida de Eduardo Dato,,37.384,-5.9705,42714.0,https://cdn.sportmonks.com/images/soccer/venues/17/177.png,Sevilla,grass,False,2061
792,338,32.0,20192.0,Estadio Nuevo Arcángel,Avenida del Arcángel,,37.872295,-4.764642,21822.0,https://cdn.sportmonks.com/images/soccer/venues/18/338.png,Córdoba,grass,False,2061
793,430,32.0,26351.0,Estadio Manuel Martínez Valero,Avenida Manuel Martínez Valero 3,,38.2653307,-0.6988391,36017.0,https://cdn.sportmonks.com/images/soccer/venues/14/430.png,Elche,grass,False,2061
794,2015,32.0,93634.0,Estadio Ciudad de Valencia,Calle San Vicente de Paúl 44,,39.494722,-0.364167,24700.0,https://cdn.sportmonks.com/images/soccer/venues/31/2015.png,Valencia,grass,False,2061
795,2020,32.0,53253.0,Estadio Santiago Bernabéu,"Avenida de Concha Espina 1, Chamartín",,40.453056,-3.688333,84744.0,https://cdn.sportmonks.com/images/soccer/venues/4/2020.png,Madrid,grass,False,2061
796,2028,32.0,95196.0,Estadio de la Cerámica,Plaza Labrador,,39.944167,-0.103611,23500.0,https://cdn.sportmonks.com/images/soccer/venues/12/2028.png,Villarreal,grass,False,2061
797,5188,353.0,53252.0,Estadio Vicente Calderón,Paseo Virgen del Puerto 67,,40.40171,-3.72059,54907.0,https://cdn.sportmonks.com/images/soccer/venues/4/5188.png,Madrid,grass,False,2061
798,9162,32.0,9360.0,San Mamés Barria,Rafael Moreno Pitxitxi Kalea,,43.2643,-2.9504,53331.0,https://cdn.sportmonks.com/images/soccer/venues/10/9162.png,Bilbao,grass,False,2061
799,9180,32.0,1937.0,Estadio de los Juegos Mediterráneos,,,36.840039,-2.435457,15000.0,,Almeria,,False,2061
800,9185,,,Camp El Madrigal,,,38.72876,-7.22036,23500.0,,Villarreal,,False,2061
801,9217,,,Camp Nou de Dénia,,,38.84089,0.10427,3000.0,https://cdn.sportmonks.com/images/soccer/venues/1/9217.png,Camp Nou de Dénia,grass,False,2061
802,9220,32.0,20272.0,Power8 Stadium,,,41.355724,2.0706225,,,Cornella de Llobregat,,False,2061
803,9233,32.0,53654.0,Estadio La Rosaleda,Avenida de la Palmilla / Paseo de Martiricos,,36.7342,-4.4266,30044.0,https://cdn.sportmonks.com/images/soccer/venues/17/9233.png,Málaga,grass,False,2061
804,9237,32.0,33291.0,Estadio Nuevo Los Cármenes,Calle Pintor Manuel Maldonado,,37.152967,-3.595736,22524.0,https://cdn.sportmonks.com/images/soccer/venues/21/9237.png,Granada,grass,False,2061
805,9239,32.0,94886.0,Estadio de Balaídos,Avenida de Balaídos,,42.211861,-8.740328,31800.0,https://cdn.sportmonks.com/images/soccer/venues/23/9239.png,Vigo,grass,False,2061
806,9240,32.0,93634.0,Estadio de Mestalla,Avenida de Suecia,,39.474722,-0.358333,49430.0,https://cdn.sportmonks.com/images/soccer/venues/24/9240.png,Valencia,grass,False,2061
807,9242,32.0,26009.0,Estadio Municipal de Ipurúa,Calle de Ipurúa,,43.181706,-2.475803,8050.0,https://cdn.sportmonks.com/images/soccer/venues/26/9242.png,Eibar,grass,False,2061
808,9351,32.0,31791.0,Coliseum Alfonso Pérez,Avenida de Teresa de Calcuta,,40.325556,-3.714722,17393.0,https://cdn.sportmonks.com/images/soccer/venues/7/9351.png,Getafe,grass,False,2061
809,304396,32.0,53253.0,Estadio de Vallecas,Calle Payaso Fofó,,4.7333686,-74.2629794,14708.0,https://cdn.sportmonks.com/images/soccer/venues/12/304396.png,Madrid,grass,False,2061
810,309970,,,Estadio Abanca-Riazor,Calle Manuel Murguía,,43.368733,-8.417508,34600.0,https://cdn.sportmonks.com/images/soccer/venues/18/309970.png,La Coruña,grass,False,2061
811,39,,,Estadio Municipal de Riazor,Calle Manuel Murguía,,43.368733,-8.417508,34600.0,https://cdn.sportmonks.com/images/soccer/venues/7/39.png,La Coruña,grass,False,2063
812,68,32.0,82287.0,Estadio Benito Villamarín,Avenida de Heliópolis,,37.356403,-5.981611,60721.0,https://cdn.sportmonks.com/images/soccer/venues/4/68.png,Sevilla,grass,False,2063
813,133,32.0,79248.0,Anoeta Stadium,Paseo de Anoeta 1,,43.301389,-1.973611,39500.0,https://cdn.sportmonks.com/images/soccer/venues/5/133.png,San Sebastián,grass,False,2063
814,177,32.0,82287.0,Estadio Ramón Sánchez Pizjuán,Avenida de Eduardo Dato,,37.384,-5.9705,42714.0,https://cdn.sportmonks.com/images/soccer/venues/17/177.png,Sevilla,grass,False,2063
815,1716,32.0,48633.0,Estadio de Gran Canaria,Avenida Pío XII 29,,28.1288694,-15.4349015,32400.0,https://cdn.sportmonks.com/images/soccer/venues/20/1716.png,Las Palmas de Gran Canaria,grass,False,2063
816,2015,32.0,93634.0,Estadio Ciudad de Valencia,Calle San Vicente de Paúl 44,,39.494722,-0.364167,24700.0,https://cdn.sportmonks.com/images/soccer/venues/31/2015.png,Valencia,grass,False,2063
817,2020,32.0,53253.0,Estadio Santiago Bernabéu,"Avenida de Concha Espina 1, Chamartín",,40.453056,-3.688333,84744.0,https://cdn.sportmonks.com/images/soccer/venues/4/2020.png,Madrid,grass,False,2063
818,5188,353.0,53252.0,Estadio Vicente Calderón,Paseo Virgen del Puerto 67,,40.40171,-3.72059,54907.0,https://cdn.sportmonks.com/images/soccer/venues/4/5188.png,Madrid,grass,False,2063
819,9162,32.0,9360.0,San Mamés Barria,Rafael Moreno Pitxitxi Kalea,,43.2643,-2.9504,53331.0,https://cdn.sportmonks.com/images/soccer/venues/10/9162.png,Bilbao,grass,False,2063
820,9170,,,Estadio San Mamés,,,37.280029,-6.051389,5000.0,,Coria del Rio,,False,2063
821,9185,,,Camp El Madrigal,,,38.72876,-7.22036,23500.0,,Villarreal,,False,2063
822,9220,32.0,20272.0,Power8 Stadium,,,41.355724,2.0706225,,,Cornella de Llobregat,,False,2063
823,9224,32.0,31948.0,Estadio Municipal El Molinón,,,43.536284,-5.637397,30000.0,https://cdn.sportmonks.com/images/core/venues/8/9224.png,Gijón,grass,False,2063
824,9233,32.0,53654.0,Estadio La Rosaleda,Avenida de la Palmilla / Paseo de Martiricos,,36.7342,-4.4266,30044.0,https://cdn.sportmonks.com/images/soccer/venues/17/9233.png,Málaga,grass,False,2063
825,9237,32.0,33291.0,Estadio Nuevo Los Cármenes,Calle Pintor Manuel Maldonado,,37.152967,-3.595736,22524.0,https://cdn.sportmonks.com/images/soccer/venues/21/9237.png,Granada,grass,False,2063
826,9239,32.0,94886.0,Estadio de Balaídos,Avenida de Balaídos,,42.211861,-8.740328,31800.0,https://cdn.sportmonks.com/images/soccer/venues/23/9239.png,Vigo,grass,False,2063
827,9240,32.0,93634.0,Estadio de Mestalla,Avenida de Suecia,,39.474722,-0.358333,49430.0,https://cdn.sportmonks.com/images/soccer/venues/24/9240.png,Valencia,grass,False,2063
828,9242,32.0,26009.0,Estadio Municipal de Ipurúa,Calle de Ipurúa,,43.181706,-2.475803,8050.0,https://cdn.sportmonks.com/images/soccer/venues/26/9242.png,Eibar,grass,False,2063
829,9351,32.0,31791.0,Coliseum Alfonso Pérez,Avenida de Teresa de Calcuta,,40.325556,-3.714722,17393.0,https://cdn.sportmonks.com/images/soccer/venues/7/9351.png,Getafe,grass,False,2063
830,304396,32.0,53253.0,Estadio de Vallecas,Calle Payaso Fofó,,4.7333686,-74.2629794,14708.0,https://cdn.sportmonks.com/images/soccer/venues/12/304396.png,Madrid,grass,False,2063
831,4,462.0,51663.0,Boleyn Ground,"Upton Park London, E13 England",,51.509865,-0.118092,35016.0,https://cdn.sportmonks.com/images/core/venues/4/4.png,London,grass,False,3
832,5,462.0,9576.0,Villa Park,"Trinity Road, Birmingham B6 6HE",,52.509167,-1.884722,42640.0,https://cdn.sportmonks.com/images/core/venues/5/5.png,Birmingham,grass,False,3
833,12,462.0,51090.0,Goodison Park,Goodison Road,L4 4EL,53.43881,-2.96625,39571.0,https://cdn.sportmonks.com/images/core/venues/12/12.png,Liverpool,grass,False,3
834,13,462.0,86587.0,Britannia Stadium,,,,,30089.0,,Stoke,,False,3
835,119,462.0,97813.0,The Hawthorns,Halfords Lane,,52.509167,-1.963889,26688.0,https://cdn.sportmonks.com/images/soccer/venues/23/119.png,West Bromwich,grass,False,3
836,125,515.0,15138.0,Cardiff City Stadium,"Cardiff, Wales",,51.472778,-3.203056,26828.0,https://cdn.sportmonks.com/images/core/venues/29/125.png,Cardiff,grass,False,3
837,167,462.0,85225.0,St. Mary's Stadium,Britannia Road,,50.903496386,-1.387998448,32384.0,https://cdn.sportmonks.com/images/soccer/venues/7/167.png,Southampton,grass,False,3
838,199,462.0,39201.0,KCOM Stadium,Walton Street / Anlaby Road,,45.4405842,-75.7326823,25586.0,https://cdn.sportmonks.com/images/soccer/venues/7/199.png,Hull,grass,False,3
839,201,462.0,51663.0,Selhurst Park,Holmesdale Road,,51.419728,-0.502059,25073.0,https://cdn.sportmonks.com/images/soccer/venues/9/201.png,London,grass,False,3
840,204,462.0,51663.0,Emirates Stadium,"Arsenal Football Club Highbury House 75 Drayton Park London, N5 1BU",,51.556667,-0.106111,60260.0,https://cdn.sportmonks.com/images/soccer/venues/12/204.png,London,grass,False,3
841,206,462.0,53964.0,Old Trafford,Sir Matt Busby Way,,53.463056,-2.291389,74879.0,https://cdn.sportmonks.com/images/soccer/venues/14/206.png,Manchester,grass,False,3
842,207,462.0,86587.0,Bet365 Stadium,Stanley Matthews Way,,52.988333,-2.175556,30089.0,https://cdn.sportmonks.com/images/soccer/venues/15/207.png,Stoke,grass,False,3
843,208,462.0,87866.0,Swansea.com Stadium,Normandy Road,,51.642200,-3.935100,20827.0,https://cdn.sportmonks.com/images/soccer/venues/16/208.png,Swansea,grass,False,3
844,209,462.0,51663.0,White Hart Lane,"Bill Nicholson Way, 748 High Road",,51.604900,-0.095763,36284.0,https://cdn.sportmonks.com/images/soccer/venues/17/209.png,London,grass,False,3
845,212,462.0,87471.0,Stadium of Light,Millenium Way,,54.914040,-1.388983,49000.0,https://cdn.sportmonks.com/images/soccer/venues/20/212.png,Sunderland,grass,False,3
846,214,462.0,51663.0,London Stadium,"Marshgate Lane, Stratford",,51.538611,-0.016389,60000.0,https://cdn.sportmonks.com/images/soccer/venues/22/214.png,London,grass,False,3
847,230,462.0,51090.0,Anfield,Anfield Road,,53.430833,-2.960833,60000.0,https://cdn.sportmonks.com/images/soccer/venues/6/230.png,Liverpool,grass,False,3
848,485,462.0,51663.0,Craven Cottage,Stevenage Road,,51.475,-0.221667,24500.0,https://cdn.sportmonks.com/images/soccer/venues/5/485.png,London,grass,False,3
849,489,462.0,63475.0,Carrow Road,Carrow Road,,52.622222,1.309167,27244.0,https://cdn.sportmonks.com/images/soccer/venues/9/489.png,Norwich,grass,False,3
850,321614,462.0,51663.0,Stamford Bridge,Fulham Road,,51.481667,-0.191111,40341.0,https://cdn.sportmonks.com/images/soccer/venues/14/321614.png,London,grass,False,3
851,4,462.0,51663.0,Boleyn Ground,"Upton Park London, E13 England",,51.509865,-0.118092,35016.0,https://cdn.sportmonks.com/images/core/venues/4/4.png,London,grass,False,7
852,12,462.0,51090.0,Goodison Park,Goodison Road,L4 4EL,53.43881,-2.96625,39571.0,https://cdn.sportmonks.com/images/core/venues/12/12.png,Liverpool,grass,False,7
853,13,462.0,86587.0,Britannia Stadium,,,,,30089.0,,Stoke,,False,7
854,14,462.0,98715.0,The DW Stadium,,,53.5457188,-2.6264624,25138.0,https://cdn.sportmonks.com/images/core/venues/14/14.png,Wigan,grass,False,7
855,119,462.0,97813.0,The Hawthorns,Halfords Lane,,52.509167,-1.963889,26688.0,https://cdn.sportmonks.com/images/soccer/venues/23/119.png,West Bromwich,grass,False,7
856,167,462.0,85225.0,St. Mary's Stadium,Britannia Road,,50.903496386,-1.387998448,32384.0,https://cdn.sportmonks.com/images/soccer/venues/7/167.png,Southampton,grass,False,7
857,204,462.0,51663.0,Emirates Stadium,"Arsenal Football Club Highbury House 75 Drayton Park London, N5 1BU",,51.556667,-0.106111,60260.0,https://cdn.sportmonks.com/images/soccer/venues/12/204.png,London,grass,False,7
858,206,462.0,53964.0,Old Trafford,Sir Matt Busby Way,,53.463056,-2.291389,74879.0,https://cdn.sportmonks.com/images/soccer/venues/14/206.png,Manchester,grass,False,7
859,207,462.0,86587.0,Bet365 Stadium,Stanley Matthews Way,,52.988333,-2.175556,30089.0,https://cdn.sportmonks.com/images/soccer/venues/15/207.png,Stoke,grass,False,7
860,208,462.0,87866.0,Swansea.com Stadium,Normandy Road,,51.642200,-3.935100,20827.0,https://cdn.sportmonks.com/images/soccer/venues/16/208.png,Swansea,grass,False,7
861,209,462.0,51663.0,White Hart Lane,"Bill Nicholson Way, 748 High Road",,51.604900,-0.095763,36284.0,https://cdn.sportmonks.com/images/soccer/venues/17/209.png,London,grass,False,7
862,212,462.0,87471.0,Stadium of Light,Millenium Way,,54.914040,-1.388983,49000.0,https://cdn.sportmonks.com/images/soccer/venues/20/212.png,Sunderland,grass,False,7
863,230,462.0,51090.0,Anfield,Anfield Road,,53.430833,-2.960833,60000.0,https://cdn.sportmonks.com/images/soccer/venues/6/230.png,Liverpool,grass,False,7
864,489,462.0,63475.0,Carrow Road,Carrow Road,,52.622222,1.309167,27244.0,https://cdn.sportmonks.com/images/soccer/venues/9/489.png,Norwich,grass,False,7
865,491,462.0,51663.0,MATRADE Loftus Road,"South Africa Road, Shepherd's Bush",W12 7PJ,51.509865,-0.118092,18500.0,https://cdn.sportmonks.com/images/soccer/venues/11/491.png,London,grass,False,7
866,494,462.0,73429.0,Select Car Leasing Stadium,"Shooters Way / Junction 11, M4",,51.422222,-0.982778,24161.0,https://cdn.sportmonks.com/images/soccer/venues/14/494.png,Reading,grass,False,7
867,321614,462.0,51663.0,Stamford Bridge,Fulham Road,,51.481667,-0.191111,40341.0,https://cdn.sportmonks.com/images/soccer/venues/14/321614.png,London,grass,False,7
868,53,11.0,60083.0,Allianz Arena,Werner-Heisenberg-Allee 25,80939,48.218819,11.624722,75000.0,https://cdn.sportmonks.com/images/soccer/venues/21/53.png,Munich,grass,False,215
869,80,11.0,99532.0,Volkswagen Arena,In den Allerwiesen 1,,52.431561,10.803541,30000.0,https://cdn.sportmonks.com/images/soccer/venues/16/80.png,Wolfsburg,grass,False,215
870,180,11.0,58189.0,Stadion im Borussia-Park,Hennes-Weisweiler-Allee 1,,51.174722,6.385556,54057.0,https://cdn.sportmonks.com/images/soccer/venues/20/180.png,Mönchengladbach,grass,False,215
871,353,,,Stadion Nürnberg,Max-Morlock-Platz 1,,49.47410,11.12960,13128.0,https://cdn.sportmonks.com/images/soccer/venues/1/353.png,Nürnberg,grass,False,215
872,427,11.0,25065.0,ESPRIT arena,Arena-Str. 1,,51.2254018,6.7763137,4290.0,https://cdn.sportmonks.com/images/soccer/venues/11/427.png,Düsseldorf,grass,False,215
873,1618,11.0,83747.0,PreZero Arena,Dietmar-Hopp-Straße 1,,58.584300,16.173000,17234.0,https://cdn.sportmonks.com/images/soccer/venues/18/1618.png,Sinsheim,grass,False,215
874,1945,11.0,87094.0,MHPArena,Mercedesstraße 87,70372,48.792222,9.231944,60449.0,https://cdn.sportmonks.com/images/core/venues/25/1945.png,Stuttgart,grass,False,215
875,1947,11.0,50042.0,BayArena,"Leverkusen, North Rhine-Westphalia",,51.038333,7.002222,30210.0,https://cdn.sportmonks.com/images/soccer/venues/27/1947.png,Leverkusen,grass,False,215
876,2001,11.0,30578.0,Sportpark Ronhof Thomas Sommer,Laubenweg 60,,49.4772475,10.9893626,15000.0,https://cdn.sportmonks.com/images/soccer/venues/17/2001.png,Fürth,grass,False,215
877,2063,11.0,30088.0,Europa-Park Stadion,Schwarzwaldstraße 193,,47.988949,7.892944,34700.0,https://cdn.sportmonks.com/images/soccer/venues/15/2063.png,Freiburg im Breisgau,grass,False,215
878,2076,11.0,35451.0,Imtech Arena,,,,,57000.0,,Hamburg,,False,215
879,2086,11.0,2213.0,AWD-Arena,,,48.3875047,11.2572114,2500.0,,Altomunster,,False,215
880,2088,11.0,30088.0,Dreisamstadion,,,48.021602,7.829953,34700.0,,Freiburg im Breisgau,grass,False,215
881,2096,11.0,102398.0,SGL Arena,,,50.7185043,12.4939267,10000.0,,Zwickau,,False,215
882,2103,11.0,53515.0,Mewa Arena,Eugen-Salomon-Straße 1,55128 Mainz,45.566547,18.657762,13005.0,https://cdn.sportmonks.com/images/core/venues/23/2103.png,Mainz,grass,False,215
883,2126,11.0,30578.0,Trolli ARENA,,,49.4772475,10.9893626,,,Fürth,,False,215
884,2136,,,Grundig-Stadion,,,49.47410,11.12960,,,Nürnberg,,False,215
885,2138,11.0,31497.0,Veltins-Arena,"Gelsenkirchen, North Rhine-Westphalia",,51.554444,7.0675,62271.0,https://cdn.sportmonks.com/images/soccer/venues/26/2138.png,Gelsenkirchen,grass,False,215
886,2165,11.0,4733.0,WWK Arena,Bürgermeister Ulrich-Straße 90,,48.323056,10.886111,30660.0,https://cdn.sportmonks.com/images/soccer/venues/21/2165.png,Augsburg,grass,False,215
887,2166,11.0,24229.0,Signal Iduna Park,"Strobelallee 50 44139 Dortmund, North Rhine-Westphalia",,51.4925,7.451667,81365.0,https://cdn.sportmonks.com/images/soccer/venues/22/2166.png,Dortmund,grass,False,215
888,2169,11.0,29901.0,Commerzbank-Arena,Mörfelder Landstr. 362,,50.0686082253967,8.645482727139177,48000.0,https://cdn.sportmonks.com/images/soccer/venues/25/2169.png,Frankfurt am Main,grass,False,215
889,2172,11.0,11918.0,Weserstadion,Franz-Böhmert-Straße 1c,,53.063611,8.842861,5500.0,https://cdn.sportmonks.com/images/soccer/venues/28/2172.png,Bremen,grass,False,215
890,232157,32.0,54441.0,Campo La Quinta,,,49.238312,8.887622,30150.0,,Marbella,,False,215
891,339832,11.0,29901.0,Deutsche Bank Park,Mörfelder Landstraße 362,,50.068056,8.645806,48000.0,https://cdn.sportmonks.com/images/core/venues/24/339832.png,Frankfurt am Main,grass,False,215
892,53,11.0,60083.0,Allianz Arena,Werner-Heisenberg-Allee 25,80939,48.218819,11.624722,75000.0,https://cdn.sportmonks.com/images/soccer/venues/21/53.png,Munich,grass,False,216
893,80,11.0,99532.0,Volkswagen Arena,In den Allerwiesen 1,,52.431561,10.803541,30000.0,https://cdn.sportmonks.com/images/soccer/venues/16/80.png,Wolfsburg,grass,False,216
894,180,11.0,58189.0,Stadion im Borussia-Park,Hennes-Weisweiler-Allee 1,,51.174722,6.385556,54057.0,https://cdn.sportmonks.com/images/soccer/venues/20/180.png,Mönchengladbach,grass,False,216
895,1531,11.0,35676.0,HDI Arena,Robert-Enke-Str. 3,,52.357296,9.733443,49200.0,https://cdn.sportmonks.com/images/soccer/venues/27/1531.png,Hannover,grass,False,216
896,1618,11.0,83747.0,PreZero Arena,Dietmar-Hopp-Straße 1,,58.584300,16.173000,17234.0,https://cdn.sportmonks.com/images/soccer/venues/18/1618.png,Sinsheim,grass,False,216
897,1944,11.0,8622.0,Olympiastadion Berlin,"Westend, Charlottenburg-Wilmersdorf, Berlin",,52.514722,13.239444,74649.0,https://cdn.sportmonks.com/images/soccer/venues/24/1944.png,Berlin,grass,False,216
898,1945,11.0,87094.0,MHPArena,Mercedesstraße 87,70372,48.792222,9.231944,60449.0,https://cdn.sportmonks.com/images/core/venues/25/1945.png,Stuttgart,grass,False,216
899,1947,11.0,50042.0,BayArena,"Leverkusen, North Rhine-Westphalia",,51.038333,7.002222,30210.0,https://cdn.sportmonks.com/images/soccer/venues/27/1947.png,Leverkusen,grass,False,216
900,2063,11.0,30088.0,Europa-Park Stadion,Schwarzwaldstraße 193,,47.988949,7.892944,34700.0,https://cdn.sportmonks.com/images/soccer/venues/15/2063.png,Freiburg im Breisgau,grass,False,216
901,2076,11.0,35451.0,Imtech Arena,,,,,57000.0,,Hamburg,,False,216
902,2084,11.0,11748.0,Eintracht-Stadion,Hamburger Straße 210,,52.2646577,10.5236066,23325.0,https://cdn.sportmonks.com/images/soccer/venues/4/2084.png,Braunschweig,grass,False,216
903,2088,11.0,30088.0,Dreisamstadion,,,48.021602,7.829953,34700.0,,Freiburg im Breisgau,grass,False,216
904,2096,11.0,102398.0,SGL Arena,,,50.7185043,12.4939267,10000.0,,Zwickau,,False,216
905,2099,11.0,11748.0,B-Platz Eintracht-Stadion,Hamburger Str. 210,,52.289090,10.524534,1500.0,https://cdn.sportmonks.com/images/soccer/venues/19/2099.png,Braunschweig,grass,False,216
906,2103,11.0,53515.0,Mewa Arena,Eugen-Salomon-Straße 1,55128 Mainz,45.566547,18.657762,13005.0,https://cdn.sportmonks.com/images/core/venues/23/2103.png,Mainz,grass,False,216
907,2136,,,Grundig-Stadion,,,49.47410,11.12960,,,Nürnberg,,False,216
908,2138,11.0,31497.0,Veltins-Arena,"Gelsenkirchen, North Rhine-Westphalia",,51.554444,7.0675,62271.0,https://cdn.sportmonks.com/images/soccer/venues/26/2138.png,Gelsenkirchen,grass,False,216
909,2142,,,Möslestadion,Waldseestraße 75,,47.983886,7.881081,5400.0,https://cdn.sportmonks.com/images/soccer/venues/30/2142.png,Freiburg im Breisgau,grass,False,216
910,2165,11.0,4733.0,WWK Arena,Bürgermeister Ulrich-Straße 90,,48.323056,10.886111,30660.0,https://cdn.sportmonks.com/images/soccer/venues/21/2165.png,Augsburg,grass,False,216
911,2166,11.0,24229.0,Signal Iduna Park,"Strobelallee 50 44139 Dortmund, North Rhine-Westphalia",,51.4925,7.451667,81365.0,https://cdn.sportmonks.com/images/soccer/venues/22/2166.png,Dortmund,grass,False,216
912,2169,11.0,29901.0,Commerzbank-Arena,Mörfelder Landstr. 362,,50.0686082253967,8.645482727139177,48000.0,https://cdn.sportmonks.com/images/soccer/venues/25/2169.png,Frankfurt am Main,grass,False,216
913,2172,11.0,11918.0,Weserstadion,Franz-Böhmert-Straße 1c,,53.063611,8.842861,5500.0,https://cdn.sportmonks.com/images/soccer/venues/28/2172.png,Bremen,grass,False,216
914,143896,,,Max-Morlock-Stadion,Max-Morlock-Platz 1,,49.424309,11.124161,50000.0,https://cdn.sportmonks.com/images/soccer/venues/24/143896.png,Neurenberg,grass,False,216
915,232157,32.0,54441.0,Campo La Quinta,,,49.238312,8.887622,30150.0,,Marbella,,False,216
916,193,251.0,8530.0,Gewiss Stadium,Bergamo,,45.708889,9.680833,26393.0,https://cdn.sportmonks.com/images/soccer/venues/1/193.png,Bergamo,grass,False,1581
917,443,251.0,94537.0,Stadio Marc'Antonio Bentegodi,Piazzale Olimpia,,45.435356,10.968647,39045.0,https://cdn.sportmonks.com/images/soccer/venues/27/443.png,Verona,grass,False,1581
918,510,251.0,66701.0,Stadio Renzo Barbera,"Viale del Fante, 11",,,,36349.0,https://cdn.sportmonks.com/images/soccer/venues/30/510.png,Palermo,grass,False,1581
919,598,251.0,68372.0,Stadio Adriatico-Giovanni Cornacchia,Via Pepe,,42.455278,14.229444,20515.0,https://cdn.sportmonks.com/images/soccer/venues/22/598.png,Pescara,grass,False,1581
920,1721,251.0,57165.0,Stadio Giuseppe Meazza,"Piazzale Angelo Moratti, 20151",,45.478056,9.123889,80018.0,https://cdn.sportmonks.com/images/soccer/venues/25/1721.png,Milano,grass,False,1581
921,2160,251.0,83363.0,Stadio Comunale Artemio Franchi - Montepaschi Arena,"Via Mille, 3",,43.3185536,11.3316533,15373.0,https://cdn.sportmonks.com/images/soccer/venues/16/2160.png,Siena,grass,False,1581
922,2283,251.0,91691.0,Stadio Nereo Rocco,"Via dei Macelli, 5",,45.623417,13.792964,28565.0,https://cdn.sportmonks.com/images/soccer/venues/11/2283.png,Trieste,grass,False,1581
923,5515,251.0,10632.0,Stadio Renato Dall'Ara,"Via Andrea Costa, 174",,44.492314,11.309667,38279.0,https://cdn.sportmonks.com/images/soccer/venues/11/5515.png,Bologna,grass,False,1581
924,5946,251.0,16018.0,Stadio Angelo Massimino,Piazza Vincenzo Spedini,,37.515833,15.071389,23266.0,https://cdn.sportmonks.com/images/soccer/venues/26/5946.png,Catania,grass,False,1581
925,7202,251.0,72388.0,Stadio Is Arenas,,,39.2399728,9.1880967,,,Quartu Sant'Elena,,False,1581
926,7223,251.0,29168.0,Stadio Artemio Franchi,Viale Manfredo Fanti 14,,43.7492999,11.2385374,43147.0,https://cdn.sportmonks.com/images/soccer/venues/23/7223.png,Firenze,grass,False,1581
927,7224,251.0,92619.0,Dacia Arena,"Piazza le Repubblica Argentina, 3",,46.081603,13.200136,25132.0,https://cdn.sportmonks.com/images/soccer/venues/24/7224.png,Udine,grass,False,1581
928,118500,251.0,91001.0,Allianz Stadium,Strada Comunale di Altessano 131,,44.977778,7.616111,400.0,https://cdn.sportmonks.com/images/soccer/venues/4/118500.png,Torino,grass,False,1581
929,340049,251.0,67316.0,Stadio Ennio Tardini (Parma),,,44.8013678,10.3280833,,,Parma,,False,1581
930,128,251.0,14002.0,Stadio Sant'Elia,Via Vespucci,,39.199394,9.134953,16074.0,https://cdn.sportmonks.com/images/soccer/venues/0/128.png,Cagliari,grass,False,1582
931,134,251.0,60878.0,Stadio Diego Armando Maradona,"Naples, Campania, Italy",,40.827967,14.193008,60240.0,https://cdn.sportmonks.com/images/soccer/venues/6/134.png,Napoli,grass,False,1582
932,142,251.0,91001.0,Stadio Olimpico Grande Torino,"Corso Sebastopoli 123, Santa Rita",,45.0677551,7.6824892,36599.0,https://cdn.sportmonks.com/images/soccer/venues/14/142.png,Torino,grass,False,1582
933,193,251.0,8530.0,Gewiss Stadium,Bergamo,,45.708889,9.680833,26393.0,https://cdn.sportmonks.com/images/soccer/venues/1/193.png,Bergamo,grass,False,1582
934,376,251.0,57939.0,Stadio Alberto Braglia,"Viale Monte Kosica, 128/134",,44.6458885,10.9255707,21151.0,https://cdn.sportmonks.com/images/soccer/venues/24/376.png,Modena,grass,False,1582
935,443,251.0,94537.0,Stadio Marc'Antonio Bentegodi,Piazzale Olimpia,,45.435356,10.968647,39045.0,https://cdn.sportmonks.com/images/soccer/venues/27/443.png,Verona,grass,False,1582
936,1613,251.0,73668.0,MAPEI Stadium - Città del Tricolore,"Piazza Azzuri d'Italia, 1",,44.714722,10.649722,21584.0,https://cdn.sportmonks.com/images/soccer/venues/13/1613.png,Reggio Emilia,grass,False,1582
937,1721,251.0,57165.0,Stadio Giuseppe Meazza,"Piazzale Angelo Moratti, 20151",,45.478056,9.123889,80018.0,https://cdn.sportmonks.com/images/soccer/venues/25/1721.png,Milano,grass,False,1582
938,2283,251.0,91691.0,Stadio Nereo Rocco,"Via dei Macelli, 5",,45.623417,13.792964,28565.0,https://cdn.sportmonks.com/images/soccer/venues/11/2283.png,Trieste,grass,False,1582
939,5515,251.0,10632.0,Stadio Renato Dall'Ara,"Via Andrea Costa, 174",,44.492314,11.309667,38279.0,https://cdn.sportmonks.com/images/soccer/venues/11/5515.png,Bologna,grass,False,1582
940,5946,251.0,16018.0,Stadio Angelo Massimino,Piazza Vincenzo Spedini,,37.515833,15.071389,23266.0,https://cdn.sportmonks.com/images/soccer/venues/26/5946.png,Catania,grass,False,1582
941,7125,251.0,51117.0,Stadio Armando Picchi,Piazzale Montello 14,,43.526667,10.314167,19283.0,https://cdn.sportmonks.com/images/soccer/venues/21/7125.png,Livorno,grass,False,1582
942,7189,251.0,75333.0,Stadio Olimpico,Viale dello Stadio Olimpico Rome,,1.481513,103.61912,72698.0,,Roma,grass,False,1582
943,7223,251.0,29168.0,Stadio Artemio Franchi,Viale Manfredo Fanti 14,,43.7492999,11.2385374,43147.0,https://cdn.sportmonks.com/images/soccer/venues/23/7223.png,Firenze,grass,False,1582
944,7224,251.0,92619.0,Dacia Arena,"Piazza le Repubblica Argentina, 3",,46.081603,13.200136,25132.0,https://cdn.sportmonks.com/images/soccer/venues/24/7224.png,Udine,grass,False,1582
945,118500,251.0,91001.0,Allianz Stadium,Strada Comunale di Altessano 131,,44.977778,7.616111,400.0,https://cdn.sportmonks.com/images/soccer/venues/4/118500.png,Torino,grass,False,1582
946,340049,251.0,67316.0,Stadio Ennio Tardini (Parma),,,44.8013678,10.3280833,,,Parma,,False,1582
947,39,,,Estadio Municipal de Riazor,Calle Manuel Murguía,,43.368733,-8.417508,34600.0,https://cdn.sportmonks.com/images/soccer/venues/7/39.png,La Coruña,grass,False,2059
948,56,32.0,66890.0,Estadio El Sadar,Carretera El Sadar,,42.796667,-1.636944,23576.0,https://cdn.sportmonks.com/images/soccer/venues/24/56.png,Pamplona,grass,False,2059
949,68,32.0,82287.0,Estadio Benito Villamarín,Avenida de Heliópolis,,37.356403,-5.981611,60721.0,https://cdn.sportmonks.com/images/soccer/venues/4/68.png,Sevilla,grass,False,2059
950,133,32.0,79248.0,Anoeta Stadium,Paseo de Anoeta 1,,43.301389,-1.973611,39500.0,https://cdn.sportmonks.com/images/soccer/venues/5/133.png,San Sebastián,grass,False,2059
951,162,,,Iberostar Estadi,Camí dels Reis,,-27.609940,152.763321,1000.0,https://cdn.sportmonks.com/images/soccer/venues/2/162.png,Palma de Mallorca,grass,False,2059
952,177,32.0,82287.0,Estadio Ramón Sánchez Pizjuán,Avenida de Eduardo Dato,,37.384,-5.9705,42714.0,https://cdn.sportmonks.com/images/soccer/venues/17/177.png,Sevilla,grass,False,2059
953,2015,32.0,93634.0,Estadio Ciudad de Valencia,Calle San Vicente de Paúl 44,,39.494722,-0.364167,24700.0,https://cdn.sportmonks.com/images/soccer/venues/31/2015.png,Valencia,grass,False,2059
954,2020,32.0,53253.0,Estadio Santiago Bernabéu,"Avenida de Concha Espina 1, Chamartín",,40.453056,-3.688333,84744.0,https://cdn.sportmonks.com/images/soccer/venues/4/2020.png,Madrid,grass,False,2059
955,2324,32.0,101551.0,Estadio de la Romareda,Calle de Eduardo Ibarra 6,,,,33608.0,https://cdn.sportmonks.com/images/soccer/venues/20/2324.png,Zaragoza,grass,False,2059
956,5188,353.0,53252.0,Estadio Vicente Calderón,Paseo Virgen del Puerto 67,,40.40171,-3.72059,54907.0,https://cdn.sportmonks.com/images/soccer/venues/4/5188.png,Madrid,grass,False,2059
957,9170,,,Estadio San Mamés,,,37.280029,-6.051389,5000.0,,Coria del Rio,,False,2059
958,9183,32.0,20272.0,Estadi Cornellà-El Prat,,,41.355724,2.0706225,,,Cornellà de Llobregat,,False,2059
959,9203,,,Estadio del Rayo Vallecano,,,-11.85382,-66.28928,,,de Vallecas Teresa Rivero,,False,2059
960,9220,32.0,20272.0,Power8 Stadium,,,41.355724,2.0706225,,,Cornella de Llobregat,,False,2059
961,9233,32.0,53654.0,Estadio La Rosaleda,Avenida de la Palmilla / Paseo de Martiricos,,36.7342,-4.4266,30044.0,https://cdn.sportmonks.com/images/soccer/venues/17/9233.png,Málaga,grass,False,2059
962,9237,32.0,33291.0,Estadio Nuevo Los Cármenes,Calle Pintor Manuel Maldonado,,37.152967,-3.595736,22524.0,https://cdn.sportmonks.com/images/soccer/venues/21/9237.png,Granada,grass,False,2059
963,9239,32.0,94886.0,Estadio de Balaídos,Avenida de Balaídos,,42.211861,-8.740328,31800.0,https://cdn.sportmonks.com/images/soccer/venues/23/9239.png,Vigo,grass,False,2059
964,9240,32.0,93634.0,Estadio de Mestalla,Avenida de Suecia,,39.474722,-0.358333,49430.0,https://cdn.sportmonks.com/images/soccer/venues/24/9240.png,Valencia,grass,False,2059
965,9323,32.0,93691.0,Estadio Municipal José Zorrilla,"Avenida del Mundial 82, s/n 47014, Valladolid, Castile and León",,41.644444,-4.761111,28023.0,https://cdn.sportmonks.com/images/soccer/venues/11/9323.png,Valladolid,grass,False,2059
966,9351,32.0,31791.0,Coliseum Alfonso Pérez,Avenida de Teresa de Calcuta,,40.325556,-3.714722,17393.0,https://cdn.sportmonks.com/images/soccer/venues/7/9351.png,Getafe,grass,False,2059
967,304396,32.0,53253.0,Estadio de Vallecas,Calle Payaso Fofó,,4.7333686,-74.2629794,14708.0,https://cdn.sportmonks.com/images/soccer/venues/12/304396.png,Madrid,grass,False,2059
968,309970,,,Estadio Abanca-Riazor,Calle Manuel Murguía,,43.368733,-8.417508,34600.0,https://cdn.sportmonks.com/images/soccer/venues/18/309970.png,La Coruña,grass,False,2059
969,340125,,,Estadio El Sadar (Pamplona (Iruñea)),,,42.81706,-1.64577,,,Iruñea,,False,2059
970,56,32.0,66890.0,Estadio El Sadar,Carretera El Sadar,,42.796667,-1.636944,23576.0,https://cdn.sportmonks.com/images/soccer/venues/24/56.png,Pamplona,grass,False,2060
971,68,32.0,82287.0,Estadio Benito Villamarín,Avenida de Heliópolis,,37.356403,-5.981611,60721.0,https://cdn.sportmonks.com/images/soccer/venues/4/68.png,Sevilla,grass,False,2060
972,133,32.0,79248.0,Anoeta Stadium,Paseo de Anoeta 1,,43.301389,-1.973611,39500.0,https://cdn.sportmonks.com/images/soccer/venues/5/133.png,San Sebastián,grass,False,2060
973,177,32.0,82287.0,Estadio Ramón Sánchez Pizjuán,Avenida de Eduardo Dato,,37.384,-5.9705,42714.0,https://cdn.sportmonks.com/images/soccer/venues/17/177.png,Sevilla,grass,False,2060
974,430,32.0,26351.0,Estadio Manuel Martínez Valero,Avenida Manuel Martínez Valero 3,,38.2653307,-0.6988391,36017.0,https://cdn.sportmonks.com/images/soccer/venues/14/430.png,Elche,grass,False,2060
975,2015,32.0,93634.0,Estadio Ciudad de Valencia,Calle San Vicente de Paúl 44,,39.494722,-0.364167,24700.0,https://cdn.sportmonks.com/images/soccer/venues/31/2015.png,Valencia,grass,False,2060
976,2020,32.0,53253.0,Estadio Santiago Bernabéu,"Avenida de Concha Espina 1, Chamartín",,40.453056,-3.688333,84744.0,https://cdn.sportmonks.com/images/soccer/venues/4/2020.png,Madrid,grass,False,2060
977,5188,353.0,53252.0,Estadio Vicente Calderón,Paseo Virgen del Puerto 67,,40.40171,-3.72059,54907.0,https://cdn.sportmonks.com/images/soccer/venues/4/5188.png,Madrid,grass,False,2060
978,9162,32.0,9360.0,San Mamés Barria,Rafael Moreno Pitxitxi Kalea,,43.2643,-2.9504,53331.0,https://cdn.sportmonks.com/images/soccer/venues/10/9162.png,Bilbao,grass,False,2060
979,9180,32.0,1937.0,Estadio de los Juegos Mediterráneos,,,36.840039,-2.435457,15000.0,,Almeria,,False,2060
980,9183,32.0,20272.0,Estadi Cornellà-El Prat,,,41.355724,2.0706225,,,Cornellà de Llobregat,,False,2060
981,9185,,,Camp El Madrigal,,,38.72876,-7.22036,23500.0,,Villarreal,,False,2060
982,9199,,,Instalaciones Deportivas de Tajonar,Paraje Beroa,,42.796677,-1.637141,4000.0,,Tajonar,grass,False,2060
983,9203,,,Estadio del Rayo Vallecano,,,-11.85382,-66.28928,,,de Vallecas Teresa Rivero,,False,2060
984,9220,32.0,20272.0,Power8 Stadium,,,41.355724,2.0706225,,,Cornella de Llobregat,,False,2060
985,9233,32.0,53654.0,Estadio La Rosaleda,Avenida de la Palmilla / Paseo de Martiricos,,36.7342,-4.4266,30044.0,https://cdn.sportmonks.com/images/soccer/venues/17/9233.png,Málaga,grass,False,2060
986,9237,32.0,33291.0,Estadio Nuevo Los Cármenes,Calle Pintor Manuel Maldonado,,37.152967,-3.595736,22524.0,https://cdn.sportmonks.com/images/soccer/venues/21/9237.png,Granada,grass,False,2060
987,9239,32.0,94886.0,Estadio de Balaídos,Avenida de Balaídos,,42.211861,-8.740328,31800.0,https://cdn.sportmonks.com/images/soccer/venues/23/9239.png,Vigo,grass,False,2060
988,9240,32.0,93634.0,Estadio de Mestalla,Avenida de Suecia,,39.474722,-0.358333,49430.0,https://cdn.sportmonks.com/images/soccer/venues/24/9240.png,Valencia,grass,False,2060
989,9323,32.0,93691.0,Estadio Municipal José Zorrilla,"Avenida del Mundial 82, s/n 47014, Valladolid, Castile and León",,41.644444,-4.761111,28023.0,https://cdn.sportmonks.com/images/soccer/venues/11/9323.png,Valladolid,grass,False,2060
990,9351,32.0,31791.0,Coliseum Alfonso Pérez,Avenida de Teresa de Calcuta,,40.325556,-3.714722,17393.0,https://cdn.sportmonks.com/images/soccer/venues/7/9351.png,Getafe,grass,False,2060
991,304396,32.0,53253.0,Estadio de Vallecas,Calle Payaso Fofó,,4.7333686,-74.2629794,14708.0,https://cdn.sportmonks.com/images/soccer/venues/12/304396.png,Madrid,grass,False,2060
